{"type":"FeatureCollection","name":"ac_criticas","features":[
{"type":"Feature","properties":{"name":"AC04 — Bandeirantes do Sul"},"geometry":{"type":"Polygon","coordinates":[[[-51.997521,-23.447564],[-51.997113,-23.44797],[-51.998777,-23.449013],[-51.998118,-23.450202],[-51.998583,-23.450543],[-51.999422,-23.449377],[-52.004595,-23.452554],[-52.005003,-23.452089],[-51.999753,-23.448972],[-52.000349,-23.448032],[-51.999923,-23.447727],[-51.999224,-23.448703],[-51.997521,-23.447564]]]}},
{"type":"Feature","properties":{"name":"AC01 — Córrego Borba Gato"},"geometry":{"type":"Polygon","coordinates":[[[-51.954488,-23.448724],[-51.954266,-23.448702],[-51.954103,-23.449254],[-51.952239,-23.448951],[-51.952139,-23.449378],[-51.954047,-23.449562],[-51.95398,-23.449954],[-51.953491,-23.452575],[-51.952855,-23.452549],[-51.952965,-23.451707],[-51.952104,-23.451659],[-51.952104,-23.451588],[-51.952341,-23.451581],[-51.952359,-23.451379],[-51.952172,-23.451315],[-51.95219,-23.451066],[-51.951882,-23.451068],[-51.951692,-23.451525],[-51.949964,-23.4514],[-51.949889,-23.451696],[-51.952645,-23.451922],[-51.952534,-23.452575],[-51.951406,-23.452777],[-51.951499,-23.452308],[-51.951223,-23.452316],[-51.95104,-23.452821],[-51.950733,-23.452906],[-51.950773,-23.452266],[-51.95049,-23.452261],[-51.950341,-23.452943],[-51.950033,-23.452886],[-51.95008,-23.452305],[-51.949823,-23.452301],[-51.94966,-23.452906],[-51.949403,-23.452866],[-51.949564,-23.451929],[-51.949281,-23.451919],[-51.94902,-23.453129],[-51.951056,-23.453188],[-51.952549,-23.452829],[-51.953339,-23.452872],[-51.95296,-23.454562],[-51.950583,-23.454447],[-51.950515,-23.454755],[-51.952608,-23.454784],[-51.952573,-23.455205],[-51.949522,-23.455128],[-51.949498,-23.455395],[-51.952883,-23.455528],[-51.952753,-23.456163],[-51.949401,-23.456124],[-51.949401,-23.455194],[-51.948624,-23.455282],[-51.948587,-23.45546],[-51.949114,-23.455486],[-51.949084,-23.455783],[-51.947299,-23.455865],[-51.947385,-23.456095],[-51.949003,-23.456133],[-51.948889,-23.456388],[-51.946892,-23.456376],[-51.946837,-23.456679],[-51.951633,-23.456691],[-51.951108,-23.456955],[-51.94682,-23.457037],[-51.946767,-23.457269],[-51.950712,-23.457242],[-51.950246,-23.457535],[-51.948724,-23.457577],[-51.948697,-23.457769],[-51.95026,-23.457724],[-51.952329,-23.456586],[-51.952653,-23.456599],[-51.952576,-23.457402],[-51.952775,-23.45741],[-51.952767,-23.457691],[-51.952587,-23.457704],[-51.952535,-23.457795],[-51.952571,-23.457838],[-51.952622,-23.457784],[-51.952765,-23.457792],[-51.952778,-23.457897],[-51.952664,-23.457812],[-51.95264,-23.457883],[-51.95275,-23.457986],[-51.952468,-23.458998],[-51.952937,-23.459007],[-51.952916,-23.4588],[-51.952798,-23.458469],[-51.952942,-23.457881],[-51.952966,-23.456847],[-51.953127,-23.456476],[-51.95347,-23.456758],[-51.953616,-23.456532],[-51.953261,-23.456286],[-51.955367,-23.456344],[-51.955455,-23.456012],[-51.953271,-23.455859],[-51.953492,-23.454484],[-51.957064,-23.454805],[-51.957139,-23.454426],[-51.956637,-23.454393],[-51.956757,-23.453125],[-51.95641,-23.453115],[-51.956277,-23.454301],[-51.953592,-23.454057],[-51.953855,-23.452319],[-51.956811,-23.452633],[-51.957115,-23.450256],[-51.956794,-23.450216],[-51.956546,-23.452321],[-51.953949,-23.452017],[-51.953986,-23.451797],[-51.955348,-23.451913],[-51.955379,-23.451676],[-51.954036,-23.451524],[-51.954047,-23.451323],[-51.955974,-23.451483],[-51.956005,-23.451204],[-51.954122,-23.45102],[-51.954146,-23.450771],[-51.955553,-23.450958],[-51.955577,-23.450668],[-51.954164,-23.45054],[-51.954226,-23.450267],[-51.955646,-23.450419],[-51.955714,-23.450063],[-51.954274,-23.449888],[-51.954488,-23.448724]]]}},
{"type":"Feature","properties":{"name":"AC04 — Córrego Cleópatra"},"geometry":{"type":"Polygon","coordinates":[[[-51.919665,-23.461524],[-51.919976,-23.461949],[-51.921498,-23.460956],[-51.922345,-23.460892],[-51.920235,-23.462196],[-51.920688,-23.462774],[-51.923796,-23.460907],[-51.923884,-23.460693],[-51.925566,-23.460612],[-51.924825,-23.461079],[-51.924526,-23.46069],[-51.924284,-23.460869],[-51.924866,-23.461458],[-51.925799,-23.460919],[-51.92593,-23.461179],[-51.924637,-23.461874],[-51.924041,-23.461048],[-51.923708,-23.46118],[-51.924615,-23.462407],[-51.926111,-23.461415],[-51.926176,-23.461568],[-51.925626,-23.461832],[-51.92582,-23.46208],[-51.926601,-23.461625],[-51.926118,-23.460538],[-51.932124,-23.46004],[-51.932135,-23.459685],[-51.921302,-23.460543],[-51.919665,-23.461524]]]}},
{"type":"Feature","properties":{"name":"AC09 — Ribeirão Morangueiro"},"geometry":{"type":"Polygon","coordinates":[[[-51.900235,-23.390595],[-51.898863,-23.39139],[-51.89898,-23.39157],[-51.899852,-23.391029],[-51.900342,-23.391263],[-51.899207,-23.39193],[-51.899998,-23.393131],[-51.900228,-23.393006],[-51.899525,-23.391923],[-51.900513,-23.391393],[-51.900874,-23.391619],[-51.900299,-23.39201],[-51.900405,-23.39214],[-51.901041,-23.391766],[-51.901371,-23.392031],[-51.900396,-23.392637],[-51.900493,-23.392779],[-51.901513,-23.392199],[-51.90159,-23.392263],[-51.901772,-23.392135],[-51.901369,-23.391734],[-51.900708,-23.391273],[-51.900022,-23.390895],[-51.900348,-23.390715],[-51.900235,-23.390595]]]}},
{"type":"Feature","properties":{"name":"AC08 — Ribeirão Morangueiro"},"geometry":{"type":"Polygon","coordinates":[[[-51.898553,-23.391522],[-51.894788,-23.3937],[-51.894969,-23.394001],[-51.896522,-23.393033],[-51.896621,-23.393352],[-51.895182,-23.394219],[-51.895357,-23.394449],[-51.896744,-23.393594],[-51.896868,-23.393878],[-51.894963,-23.394973],[-51.895144,-23.395185],[-51.895687,-23.394874],[-51.895882,-23.395145],[-51.895275,-23.395546],[-51.895494,-23.395728],[-51.896024,-23.395358],[-51.896108,-23.395411],[-51.896345,-23.395297],[-51.895969,-23.394689],[-51.896908,-23.394156],[-51.897052,-23.394446],[-51.896611,-23.394727],[-51.896709,-23.394975],[-51.897214,-23.394688],[-51.897266,-23.394818],[-51.897522,-23.394674],[-51.896778,-23.392877],[-51.897878,-23.392243],[-51.898496,-23.394425],[-51.898217,-23.39496],[-51.898295,-23.395161],[-51.89868,-23.395064],[-51.898864,-23.39578],[-51.900418,-23.394906],[-51.900269,-23.394705],[-51.898996,-23.395412],[-51.898911,-23.395122],[-51.900126,-23.394422],[-51.89997,-23.394174],[-51.89935,-23.394533],[-51.899187,-23.394244],[-51.899814,-23.393879],[-51.899678,-23.393643],[-51.898853,-23.394186],[-51.899113,-23.394665],[-51.898557,-23.394929],[-51.89872,-23.394359],[-51.898537,-23.393928],[-51.89862,-23.393892],[-51.898883,-23.39389],[-51.898972,-23.393712],[-51.898842,-23.393452],[-51.898503,-23.393691],[-51.898437,-23.393318],[-51.898878,-23.393049],[-51.898787,-23.39286],[-51.898338,-23.393016],[-51.898317,-23.392762],[-51.898924,-23.392362],[-51.89882,-23.392125],[-51.898193,-23.39246],[-51.898114,-23.392171],[-51.898696,-23.391812],[-51.898553,-23.391522]]]}},
{"type":"Feature","properties":{"name":"AC07 — Ribeirão Morangueiro"},"geometry":{"type":"Polygon","coordinates":[[[-51.891974,-23.395262],[-51.892085,-23.395588],[-51.892802,-23.395204],[-51.891998,-23.397798],[-51.892286,-23.397684],[-51.893269,-23.396943],[-51.89347,-23.397238],[-51.892006,-23.398082],[-51.891742,-23.397995],[-51.891692,-23.398179],[-51.891957,-23.398396],[-51.892545,-23.398126],[-51.892744,-23.398024],[-51.893536,-23.397487],[-51.895156,-23.399788],[-51.894037,-23.400475],[-51.894136,-23.400789],[-51.895356,-23.400041],[-51.895505,-23.400248],[-51.894348,-23.400953],[-51.894459,-23.40119],[-51.895584,-23.400467],[-51.895693,-23.400519],[-51.895885,-23.400435],[-51.894667,-23.398665],[-51.894006,-23.397733],[-51.893487,-23.396853],[-51.89394,-23.396554],[-51.893817,-23.396372],[-51.89337,-23.396635],[-51.892974,-23.396039],[-51.892814,-23.396111],[-51.892841,-23.396265],[-51.892611,-23.396444],[-51.892642,-23.396313],[-51.892827,-23.396099],[-51.892762,-23.395957],[-51.893115,-23.395013],[-51.89362,-23.394726],[-51.893724,-23.39498],[-51.892932,-23.395494],[-51.892979,-23.395742],[-51.893899,-23.395246],[-51.894638,-23.39629],[-51.894849,-23.396146],[-51.893752,-23.394382],[-51.891974,-23.395262]]]}},
{"type":"Feature","properties":{"name":"AC02 — Ribeirão Sarandi"},"geometry":{"type":"Polygon","coordinates":[[[-51.874618,-23.413458],[-51.874963,-23.413207],[-51.876152,-23.412525],[-51.875958,-23.412242],[-51.874742,-23.412876],[-51.874561,-23.4127],[-51.875879,-23.411934],[-51.875685,-23.411734],[-51.874418,-23.412404],[-51.87425,-23.412156],[-51.875516,-23.411427],[-51.875425,-23.411238],[-51.874081,-23.41192],[-51.873926,-23.411672],[-51.878095,-23.409363],[-51.877914,-23.409103],[-51.875509,-23.410396],[-51.875368,-23.410072],[-51.878457,-23.408393],[-51.878275,-23.408074],[-51.877806,-23.406927],[-51.877498,-23.407012],[-51.877892,-23.408266],[-51.876702,-23.408983],[-51.876431,-23.408748],[-51.877582,-23.408078],[-51.877414,-23.407854],[-51.876237,-23.408441],[-51.876107,-23.408216],[-51.877283,-23.407534],[-51.877089,-23.407275],[-51.875938,-23.407933],[-51.875757,-23.407733],[-51.877023,-23.407003],[-51.876919,-23.406755],[-51.875332,-23.407522],[-51.876318,-23.409139],[-51.875142,-23.409809],[-51.875083,-23.410592],[-51.873753,-23.411393],[-51.873315,-23.411182],[-51.873182,-23.410531],[-51.876086,-23.408915],[-51.875905,-23.408691],[-51.874587,-23.40935],[-51.874457,-23.409138],[-51.875557,-23.408492],[-51.875401,-23.408232],[-51.8743,-23.40876],[-51.874197,-23.408582],[-51.875309,-23.407948],[-51.875102,-23.407736],[-51.873963,-23.408264],[-51.873795,-23.408087],[-51.876993,-23.406292],[-51.876227,-23.405017],[-51.875972,-23.405232],[-51.876568,-23.406188],[-51.876402,-23.40626],[-51.875898,-23.40573],[-51.875706,-23.405885],[-51.875941,-23.406488],[-51.875711,-23.406584],[-51.875335,-23.406076],[-51.875105,-23.406172],[-51.875455,-23.406751],[-51.875212,-23.406906],[-51.874824,-23.406363],[-51.874594,-23.406507],[-51.874944,-23.407026],[-51.874701,-23.407193],[-51.874313,-23.406745],[-51.874108,-23.406865],[-51.874432,-23.407361],[-51.874125,-23.407528],[-51.873789,-23.407104],[-51.873623,-23.4072],[-51.87387,-23.407719],[-51.873601,-23.407792],[-51.873238,-23.407273],[-51.875689,-23.405221],[-51.875521,-23.405009],[-51.872774,-23.40705],[-51.874331,-23.409494],[-51.874062,-23.409638],[-51.872818,-23.407773],[-51.872524,-23.407964],[-51.873755,-23.409817],[-51.873499,-23.409949],[-51.872603,-23.40839],[-51.872245,-23.40857],[-51.873166,-23.410069],[-51.872988,-23.410224],[-51.871898,-23.408441],[-51.872791,-23.407607],[-51.872571,-23.407348],[-51.871499,-23.408384],[-51.87137,-23.408302],[-51.87281,-23.410569],[-51.872931,-23.411314],[-51.873563,-23.411737],[-51.874703,-23.413366],[-51.874618,-23.413458]]]}},
{"type":"Feature","properties":{"name":"AC01 — Ribeirão Sarandi"},"geometry":{"type":"Polygon","coordinates":[[[-51.874966,-23.413288],[-51.874723,-23.413514],[-51.874904,-23.413691],[-51.87469,-23.414284],[-51.874357,-23.414488],[-51.874362,-23.413303],[-51.874041,-23.413316],[-51.874024,-23.41462],[-51.873703,-23.414503],[-51.873707,-23.4132],[-51.874477,-23.413207],[-51.874386,-23.413006],[-51.874039,-23.412997],[-51.87334,-23.411993],[-51.873402,-23.411803],[-51.873222,-23.411698],[-51.873044,-23.411888],[-51.873628,-23.412916],[-51.873282,-23.412942],[-51.872893,-23.412434],[-51.872676,-23.412554],[-51.872973,-23.412943],[-51.872755,-23.41298],[-51.872911,-23.413192],[-51.87345,-23.413225],[-51.873254,-23.414577],[-51.873847,-23.415035],[-51.874935,-23.414472],[-51.875174,-23.413737],[-51.876351,-23.413066],[-51.876323,-23.412806],[-51.874966,-23.413288]]]}},
{"type":"Feature","properties":{"name":"AC03 — Ribeirão Sarandi"},"geometry":{"type":"Polygon","coordinates":[[[-51.868156,-23.414404],[-51.87007,-23.414547],[-51.870106,-23.414215],[-51.870218,-23.413622],[-51.870458,-23.413076],[-51.870866,-23.412635],[-51.871313,-23.412277],[-51.87108,-23.412042],[-51.87071,-23.412269],[-51.870301,-23.412662],[-51.869958,-23.413185],[-51.869592,-23.414123],[-51.869271,-23.414125],[-51.869548,-23.413199],[-51.870183,-23.41226],[-51.870809,-23.411818],[-51.870859,-23.411616],[-51.870654,-23.411617],[-51.870675,-23.410906],[-51.870431,-23.410896],[-51.870399,-23.411808],[-51.869798,-23.412309],[-51.869278,-23.41326],[-51.869438,-23.412228],[-51.869901,-23.412226],[-51.870053,-23.412035],[-51.870094,-23.410448],[-51.869825,-23.410449],[-51.869719,-23.411895],[-51.869372,-23.411921],[-51.869428,-23.410594],[-51.869235,-23.410547],[-51.868976,-23.414162],[-51.868604,-23.414129],[-51.868802,-23.411095],[-51.86852,-23.411096],[-51.868156,-23.414404]]]}},
{"type":"Feature","properties":{"name":"AC03 — Ribeirão Maringá"},"geometry":{"type":"Polygon","coordinates":[[[-51.979345,-23.409431],[-51.97814,-23.410111],[-51.976109,-23.411463],[-51.97627,-23.411673],[-51.978049,-23.410629],[-51.979688,-23.413039],[-51.981251,-23.412114],[-51.979345,-23.409431]]]}},
{"type":"Feature","properties":{"name":"AC02 — Ribeirão Pinguim"},"geometry":{"type":"Polygon","coordinates":[[[-51.895292,-23.42979],[-51.894963,-23.429902],[-51.895755,-23.431947],[-51.895397,-23.4322],[-51.895464,-23.432671],[-51.895678,-23.43296],[-51.896509,-23.432481],[-51.897625,-23.432007],[-51.897268,-23.431587],[-51.896098,-23.432112],[-51.895292,-23.42979]]]}},
{"type":"Feature","properties":{"name":"AC12 — Ribeirão Morangueiro"},"geometry":{"type":"Polygon","coordinates":[[[-51.916788,-23.382009],[-51.915769,-23.383188],[-51.915551,-23.383095],[-51.915283,-23.383392],[-51.916874,-23.385172],[-51.917833,-23.384574],[-51.919065,-23.382742],[-51.918717,-23.38259],[-51.918425,-23.383042],[-51.917726,-23.382205],[-51.91742,-23.382491],[-51.918184,-23.383364],[-51.917992,-23.383566],[-51.917306,-23.382693],[-51.91709,-23.383015],[-51.917853,-23.383875],[-51.917663,-23.38416],[-51.916912,-23.383205],[-51.916619,-23.383503],[-51.917382,-23.384375],[-51.916858,-23.38471],[-51.91599,-23.383578],[-51.917085,-23.382304],[-51.916788,-23.382009]]]}},
{"type":"Feature","properties":{"name":"AC07 — Ribeirão Maringá"},"geometry":{"type":"Polygon","coordinates":[[[-51.928283,-23.376566],[-51.928963,-23.376201],[-51.929477,-23.376142],[-51.929516,-23.375462],[-51.929012,-23.375585],[-51.928756,-23.37604],[-51.927957,-23.376359],[-51.92732,-23.377298],[-51.925787,-23.378544],[-51.925003,-23.380231],[-51.923789,-23.38294],[-51.923036,-23.385408],[-51.924811,-23.385824],[-51.925607,-23.385791],[-51.926423,-23.385669],[-51.926567,-23.384797],[-51.927064,-23.382429],[-51.927555,-23.379942],[-51.928283,-23.376566]]]}},
{"type":"Feature","properties":{"name":"AC03 — Bandeirantes do Sul"},"geometry":{"type":"Polygon","coordinates":[[[-51.978304,-23.423996],[-51.978241,-23.424151],[-51.978577,-23.424528],[-51.979445,-23.423776],[-51.978928,-23.423376],[-51.978304,-23.423996]]]}},
{"type":"Feature","properties":{"name":"AC02 — Ribeirão Maringá"},"geometry":{"type":"Polygon","coordinates":[[[-51.970454,-23.417938],[-51.970457,-23.418341],[-51.969841,-23.418392],[-51.967917,-23.418641],[-51.965738,-23.419033],[-51.963962,-23.418476],[-51.961852,-23.417896],[-51.961781,-23.418631],[-51.966436,-23.41974],[-51.970718,-23.418884],[-51.970454,-23.417938]]]}},
{"type":"Feature","properties":{"name":"AC01 — Ribeirão Morangueiro"},"geometry":{"type":"Polygon","coordinates":[[[-51.928347,-23.412519],[-51.924966,-23.4137],[-51.925593,-23.41526],[-51.927617,-23.414656],[-51.927253,-23.413995],[-51.926048,-23.414334],[-51.926021,-23.414049],[-51.928532,-23.4133],[-51.928347,-23.412519]]]}},
{"type":"Feature","properties":{"name":"AC02 — Bandeirantes do Sul"},"geometry":{"type":"Polygon","coordinates":[[[-51.976844,-23.422791],[-51.97608,-23.423625],[-51.976435,-23.423854],[-51.977238,-23.423079],[-51.976844,-23.422791]]]}},
{"type":"Feature","properties":{"name":"AC06 — Córrego Cleópatra"},"geometry":{"type":"Polygon","coordinates":[[[-51.942253,-23.460186],[-51.94133,-23.46031],[-51.940805,-23.465929],[-51.941806,-23.465947],[-51.942253,-23.460186]]]}},
{"type":"Feature","properties":{"name":"AC05 — Córrego Cleópatra"},"geometry":{"type":"Polygon","coordinates":[[[-51.942627,-23.458573],[-51.940625,-23.458751],[-51.940994,-23.460075],[-51.942149,-23.45995],[-51.942627,-23.458573]]]}},
{"type":"Feature","properties":{"name":"AC02 — Córrego Cleópatra"},"geometry":{"type":"Polygon","coordinates":[[[-51.937444,-23.448285],[-51.937546,-23.448273],[-51.939602,-23.448379],[-51.944817,-23.448703],[-51.945103,-23.449104],[-51.94536,-23.449221],[-51.945717,-23.448816],[-51.948338,-23.449013],[-51.948245,-23.45034],[-51.952382,-23.450647],[-51.952865,-23.449957],[-51.952221,-23.449748],[-51.951788,-23.450224],[-51.948884,-23.449981],[-51.95168,-23.449478],[-51.951778,-23.448814],[-51.944811,-23.447767],[-51.938747,-23.447448],[-51.939073,-23.446214],[-51.938557,-23.44598],[-51.937824,-23.447619],[-51.937644,-23.44762],[-51.937444,-23.448285]]]}},
{"type":"Feature","properties":{"name":"AC03 — Ribeirão Pinguim"},"geometry":{"type":"Polygon","coordinates":[[[-51.917927,-23.459656],[-51.917537,-23.458912],[-51.91704,-23.459448],[-51.916411,-23.45957],[-51.914873,-23.45997],[-51.913715,-23.459728],[-51.91226,-23.459038],[-51.913322,-23.45851],[-51.913153,-23.458298],[-51.911705,-23.458768],[-51.910643,-23.457412],[-51.911155,-23.457172],[-51.911726,-23.458081],[-51.91215,-23.457984],[-51.911514,-23.457052],[-51.911821,-23.456943],[-51.912495,-23.457816],[-51.912752,-23.457755],[-51.912129,-23.456835],[-51.912321,-23.456715],[-51.912995,-23.457647],[-51.913354,-23.457527],[-51.912705,-23.456606],[-51.912923,-23.45651],[-51.91335,-23.457076],[-51.913722,-23.456897],[-51.913332,-23.456318],[-51.913614,-23.456222],[-51.914081,-23.456894],[-51.914336,-23.45662],[-51.913842,-23.45577],[-51.910102,-23.457178],[-51.909908,-23.45699],[-51.913596,-23.455452],[-51.913401,-23.455157],[-51.910046,-23.456492],[-51.909839,-23.45622],[-51.913476,-23.454813],[-51.913333,-23.454506],[-51.909272,-23.455951],[-51.909168,-23.455727],[-51.913497,-23.454149],[-51.914186,-23.455318],[-51.914814,-23.455172],[-51.913711,-23.453496],[-51.909087,-23.455206],[-51.908842,-23.455065],[-51.913723,-23.453378],[-51.913502,-23.452917],[-51.908672,-23.454639],[-51.907445,-23.4555],[-51.907447,-23.455748],[-51.908537,-23.457365],[-51.909101,-23.457243],[-51.907869,-23.455533],[-51.908254,-23.4554],[-51.909653,-23.457288],[-51.910622,-23.458135],[-51.911683,-23.459219],[-51.913089,-23.460111],[-51.914979,-23.460443],[-51.916737,-23.46022],[-51.916599,-23.460754],[-51.916921,-23.460918],[-51.917263,-23.460264],[-51.918059,-23.460176],[-51.917927,-23.459656]]]}},
{"type":"Feature","properties":{"name":"AC01 — Ribeirão Pinguim"},"geometry":{"type":"Polygon","coordinates":[[[-51.88772,-23.432294],[-51.888834,-23.435643],[-51.889408,-23.435348],[-51.888413,-23.43214],[-51.888631,-23.431692],[-51.889317,-23.431131],[-51.890074,-23.430627],[-51.889991,-23.430276],[-51.889739,-23.429952],[-51.888301,-23.430837],[-51.88765,-23.431082],[-51.88772,-23.432294]]]}},
{"type":"Feature","properties":{"name":"AC02 — Ribeirão Morangueiro"},"geometry":{"type":"Polygon","coordinates":[[[-51.890331,-23.42922],[-51.890721,-23.43],[-51.901183,-23.423909],[-51.900666,-23.423462],[-51.897137,-23.42558],[-51.895,-23.422843],[-51.894705,-23.422928],[-51.893993,-23.42202],[-51.892779,-23.422797],[-51.893402,-23.423812],[-51.892787,-23.424088],[-51.892151,-23.423061],[-51.891001,-23.423743],[-51.891753,-23.424852],[-51.891278,-23.424914],[-51.890566,-23.424053],[-51.889542,-23.424509],[-51.890489,-23.425997],[-51.894709,-23.42352],[-51.896318,-23.425928],[-51.890487,-23.429468],[-51.890331,-23.42922]]]}},
{"type":"Feature","properties":{"name":"AC03 — Ribeirão Morangueiro"},"geometry":{"type":"Polygon","coordinates":[[[-51.88876,-23.418957],[-51.888688,-23.419597],[-51.888412,-23.420665],[-51.889959,-23.421652],[-51.889374,-23.422366],[-51.888455,-23.423224],[-51.889286,-23.424594],[-51.894683,-23.421435],[-51.895024,-23.422618],[-51.896656,-23.424741],[-51.900792,-23.421258],[-51.898565,-23.41838],[-51.901546,-23.418813],[-51.901646,-23.418457],[-51.898249,-23.417315],[-51.897071,-23.417654],[-51.896579,-23.417088],[-51.894352,-23.41812],[-51.893494,-23.416585],[-51.889998,-23.41587],[-51.889044,-23.419098],[-51.88876,-23.418957]]]}},
{"type":"Feature","properties":{"name":"AC04 — Ribeirão Morangueiro"},"geometry":{"type":"Polygon","coordinates":[[[-51.899697,-23.41303],[-51.896888,-23.415345],[-51.897728,-23.41611],[-51.899591,-23.414524],[-51.900472,-23.41382],[-51.900628,-23.414008],[-51.89764,-23.416478],[-51.898221,-23.416937],[-51.902562,-23.413334],[-51.902021,-23.413052],[-51.900921,-23.413758],[-51.900792,-23.413557],[-51.901723,-23.412699],[-51.901439,-23.412546],[-51.900431,-23.413346],[-51.900275,-23.413074],[-51.90154,-23.412178],[-51.901306,-23.411789],[-51.89985,-23.412946],[-51.899697,-23.41303]]]}},
{"type":"Feature","properties":{"name":"AC05 — Ribeirão Morangueiro"},"geometry":{"type":"Polygon","coordinates":[[[-51.881406,-23.403799],[-51.881228,-23.404025],[-51.881953,-23.404957],[-51.888436,-23.401164],[-51.887788,-23.400173],[-51.881406,-23.403799]]]}},
{"type":"Feature","properties":{"name":"AC06 — Ribeirão Morangueiro"},"geometry":{"type":"Polygon","coordinates":[[[-51.890013,-23.40279],[-51.891282,-23.404359],[-51.894068,-23.402637],[-51.893152,-23.401955],[-51.893971,-23.401453],[-51.893196,-23.400758],[-51.892339,-23.401213],[-51.891292,-23.400236],[-51.892942,-23.399243],[-51.892709,-23.399031],[-51.891264,-23.399857],[-51.891901,-23.399131],[-51.892785,-23.398782],[-51.893288,-23.399241],[-51.893646,-23.398978],[-51.893087,-23.397986],[-51.891308,-23.398719],[-51.890572,-23.399944],[-51.888914,-23.401553],[-51.8884,-23.401532],[-51.882606,-23.404728],[-51.883044,-23.404879],[-51.888543,-23.40178],[-51.889005,-23.401777],[-51.890651,-23.400346],[-51.890975,-23.400688],[-51.890362,-23.401224],[-51.890856,-23.402205],[-51.890013,-23.40279]]]}},
{"type":"Feature","properties":{"name":"AC06 — Ribeirão Maringá"},"geometry":{"type":"Polygon","coordinates":[[[-51.944524,-23.389391],[-51.942278,-23.389333],[-51.942411,-23.388243],[-51.941923,-23.388151],[-51.941739,-23.389431],[-51.940662,-23.389485],[-51.940691,-23.388206],[-51.940177,-23.388114],[-51.939995,-23.389525],[-51.93952,-23.389563],[-51.939588,-23.388354],[-51.939228,-23.388274],[-51.939109,-23.389542],[-51.938789,-23.389627],[-51.938782,-23.388738],[-51.938012,-23.388696],[-51.937892,-23.38808],[-51.936646,-23.387969],[-51.936589,-23.388929],[-51.938426,-23.389131],[-51.938429,-23.389558],[-51.93798,-23.389632],[-51.937957,-23.390035],[-51.938317,-23.390033],[-51.938724,-23.391428],[-51.937952,-23.391663],[-51.936971,-23.389288],[-51.936717,-23.389312],[-51.936871,-23.389782],[-51.936472,-23.389789],[-51.936304,-23.389158],[-51.936017,-23.389256],[-51.93615,-23.390041],[-51.936927,-23.39002],[-51.937306,-23.39098],[-51.937483,-23.391438],[-51.937139,-23.391593],[-51.936607,-23.390374],[-51.933371,-23.390577],[-51.933251,-23.391109],[-51.93571,-23.392377],[-51.937588,-23.391726],[-51.937721,-23.39202],[-51.936376,-23.392482],[-51.936404,-23.392825],[-51.93891,-23.392197],[-51.937681,-23.392749],[-51.938076,-23.393813],[-51.939765,-23.393353],[-51.941942,-23.392629],[-51.942991,-23.392125],[-51.942963,-23.391805],[-51.942027,-23.392012],[-51.941023,-23.391627],[-51.939448,-23.392123],[-51.938624,-23.38996],[-51.944438,-23.389818],[-51.944524,-23.389391]]]}},
{"type":"Feature","properties":{"name":"AC05 — Ribeirão Maringá"},"geometry":{"type":"Polygon","coordinates":[[[-51.943854,-23.416087],[-51.943627,-23.413032],[-51.94211,-23.412709],[-51.942236,-23.416049],[-51.943854,-23.416087]]]}},
{"type":"Feature","properties":{"name":"AC04 — Ribeirão Maringá"},"geometry":{"type":"Polygon","coordinates":[[[-51.948441,-23.418452],[-51.949852,-23.414771],[-51.94854,-23.4144],[-51.947733,-23.416419],[-51.946707,-23.416567],[-51.946329,-23.417541],[-51.948441,-23.418452]]]}},
{"type":"Feature","properties":{"name":"AC10 — Ribeirão Morangueiro"},"geometry":{"type":"Polygon","coordinates":[[[-51.904076,-23.385802],[-51.903677,-23.384807],[-51.900188,-23.386369],[-51.898227,-23.387308],[-51.896559,-23.388527],[-51.896566,-23.389234],[-51.89747,-23.388954],[-51.904076,-23.385802]]]}},
{"type":"Feature","properties":{"name":"AC01 — Córrego Cleópatra"},"geometry":{"type":"Polygon","coordinates":[[[-51.92687,-23.418034],[-51.926531,-23.41816],[-51.925884,-23.418324],[-51.925159,-23.418394],[-51.923508,-23.418267],[-51.923401,-23.418475],[-51.925263,-23.418677],[-51.926962,-23.418306],[-51.92687,-23.418034]]]}},
{"type":"Feature","properties":{"name":"AC01 — Bandeirantes do Sul"},"geometry":{"type":"Polygon","coordinates":[[[-51.987555,-23.410422],[-51.987324,-23.410147],[-51.989044,-23.408904],[-51.988893,-23.408715],[-51.987258,-23.409755],[-51.984156,-23.406304],[-51.983953,-23.406559],[-51.98706,-23.409999],[-51.986013,-23.410984],[-51.984915,-23.410008],[-51.983754,-23.411046],[-51.983961,-23.411258],[-51.98492,-23.410718],[-51.985862,-23.411589],[-51.986183,-23.411398],[-51.987555,-23.410422]]]}},
{"type":"Feature","properties":{"name":"AC-None — —"},"geometry":{"type":"Polygon","coordinates":[[[-51.926856,-23.398655],[-51.927006,-23.398178],[-51.927006,-23.398175],[-51.927059,-23.397989],[-51.927059,-23.397937],[-51.927097,-23.397902],[-51.927139,-23.397548],[-51.926957,-23.397071],[-51.926264,-23.396623],[-51.92597,-23.39607],[-51.925549,-23.39586],[-51.924632,-23.394325],[-51.923693,-23.393464],[-51.923098,-23.394045],[-51.918852,-23.395488],[-51.918979,-23.395881],[-51.923546,-23.39443],[-51.923833,-23.394774],[-51.919322,-23.396329],[-51.919357,-23.39663],[-51.924106,-23.395089],[-51.92445,-23.395439],[-51.91956,-23.397148],[-51.920148,-23.398563],[-51.919952,-23.398739],[-51.920001,-23.399047],[-51.92026,-23.39904],[-51.920611,-23.399838],[-51.920954,-23.39967],[-51.920092,-23.39731],[-51.9244,-23.395881],[-51.924569,-23.396259],[-51.920814,-23.39752],[-51.920842,-23.397898],[-51.925199,-23.396518],[-51.925514,-23.39684],[-51.921185,-23.398311],[-51.921276,-23.39869],[-51.92466,-23.397541],[-51.925679,-23.397085],[-51.925903,-23.397478],[-51.921112,-23.399299],[-51.921126,-23.399663],[-51.926043,-23.397912],[-51.926211,-23.398332],[-51.921742,-23.399817],[-51.921784,-23.40021],[-51.925217,-23.399187],[-51.926856,-23.398655]]]}},
{"type":"Feature","properties":{"name":"AC-None — —"},"geometry":{"type":"Polygon","coordinates":[[[-51.896139,-23.409175],[-51.895235,-23.409721],[-51.895544,-23.410008],[-51.89609,-23.409693],[-51.896405,-23.410211],[-51.899312,-23.408376],[-51.899277,-23.408817],[-51.897533,-23.409861],[-51.897771,-23.410183],[-51.899242,-23.409238],[-51.899242,-23.40977],[-51.899558,-23.409651],[-51.899621,-23.408215],[-51.899761,-23.407773],[-51.899558,-23.407626],[-51.899361,-23.407998],[-51.899109,-23.408243],[-51.898493,-23.407766],[-51.897099,-23.408586],[-51.896651,-23.408845],[-51.896651,-23.408845],[-51.896139,-23.409175]]]}},
{"type":"Feature","properties":{"name":"AC-None — —"},"geometry":{"type":"Polygon","coordinates":[[[-51.929031,-23.44161],[-51.928456,-23.44106],[-51.927546,-23.441169],[-51.927497,-23.440461],[-51.925984,-23.440601],[-51.925752,-23.44044],[-51.92445,-23.441722],[-51.922222,-23.4421],[-51.921753,-23.442584],[-51.920422,-23.443165],[-51.920548,-23.44409],[-51.921788,-23.44327],[-51.922957,-23.445855],[-51.926852,-23.444076],[-51.929556,-23.442591],[-51.929031,-23.44161]]]}},
{"type":"Feature","properties":{"name":"AC-None — —"},"geometry":{"type":"Polygon","coordinates":[[[-51.907735,-23.42168],[-51.907206,-23.421621],[-51.906758,-23.421509],[-51.905609,-23.421894],[-51.902912,-23.422784],[-51.901385,-23.423814],[-51.901504,-23.424045],[-51.902863,-23.423134],[-51.904096,-23.422679],[-51.904961,-23.42285],[-51.905515,-23.422584],[-51.906642,-23.421835],[-51.907609,-23.422143],[-51.907735,-23.42168]]]}},
{"type":"Feature","properties":{"name":"AC-None — —"},"geometry":{"type":"Polygon","coordinates":[[[-51.924439,-23.450468],[-51.923735,-23.450496],[-51.922971,-23.449789],[-51.920197,-23.451049],[-51.918691,-23.451757],[-51.917676,-23.452219],[-51.917402,-23.452422],[-51.917591,-23.452864],[-51.915931,-23.450006],[-51.914726,-23.448352],[-51.914068,-23.447225],[-51.91336,-23.446377],[-51.910895,-23.447799],[-51.910719,-23.447785],[-51.910467,-23.447827],[-51.910684,-23.448254],[-51.911861,-23.448184],[-51.912422,-23.44934],[-51.914194,-23.448556],[-51.914572,-23.449081],[-51.91355,-23.44962],[-51.913641,-23.44988],[-51.914579,-23.449508],[-51.914698,-23.449838],[-51.912702,-23.450853],[-51.912856,-23.451274],[-51.914965,-23.450202],[-51.915861,-23.451435],[-51.914162,-23.45231],[-51.914352,-23.452815],[-51.916215,-23.451967],[-51.916789,-23.452738],[-51.914884,-23.453606],[-51.914387,-23.453718],[-51.914723,-23.454356],[-51.915276,-23.454643],[-51.915549,-23.455133],[-51.914863,-23.455414],[-51.914106,-23.455666],[-51.914268,-23.455932],[-51.914646,-23.455806],[-51.915942,-23.457095],[-51.915521,-23.457137],[-51.915031,-23.456345],[-51.914513,-23.456331],[-51.915073,-23.457347],[-51.913581,-23.457992],[-51.913658,-23.458419],[-51.915606,-23.457732],[-51.916418,-23.457837],[-51.916782,-23.457753],[-51.917266,-23.45823],[-51.917875,-23.458321],[-51.918527,-23.454811],[-51.919045,-23.454461],[-51.921525,-23.453354],[-51.921966,-23.453901],[-51.923073,-23.453333],[-51.922772,-23.452668],[-51.923325,-23.452528],[-51.924894,-23.451456],[-51.924439,-23.450468]]]}},
{"type":"Feature","properties":{"name":"AC-None — —"},"geometry":{"type":"Polygon","coordinates":[[[-51.91925,-23.433955],[-51.91932,-23.433255],[-51.918549,-23.43282],[-51.919446,-23.431475],[-51.920889,-23.431041],[-51.917779,-23.42337],[-51.91394,-23.424673],[-51.911754,-23.425444],[-51.910872,-23.424856],[-51.910003,-23.425262],[-51.910886,-23.425934],[-51.912399,-23.427405],[-51.913842,-23.428162],[-51.914781,-23.428947],[-51.916616,-23.429927],[-51.914367,-23.430964],[-51.91649,-23.432827],[-51.916322,-23.434628],[-51.916672,-23.434999],[-51.916973,-23.434985],[-51.917933,-23.433654],[-51.91925,-23.433955]]]}},
{"type":"Feature","properties":{"name":"AC-None — —"},"geometry":{"type":"Polygon","coordinates":[[[-51.943418,-23.42025],[-51.943421,-23.420025],[-51.944969,-23.420061],[-51.947204,-23.420039],[-51.948745,-23.420544],[-51.948906,-23.419486],[-51.945547,-23.419598],[-51.945582,-23.419213],[-51.948132,-23.419206],[-51.948777,-23.419199],[-51.948798,-23.418765],[-51.94547,-23.418817],[-51.943579,-23.41888],[-51.943327,-23.4186],[-51.941726,-23.41867],[-51.941684,-23.418334],[-51.942829,-23.418369],[-51.942892,-23.418159],[-51.941453,-23.418117],[-51.941463,-23.418719],[-51.940017,-23.418744],[-51.939982,-23.419024],[-51.943116,-23.419027],[-51.943169,-23.419591],[-51.942409,-23.419703],[-51.942318,-23.419973],[-51.943123,-23.419945],[-51.943158,-23.420617],[-51.941729,-23.420698],[-51.941673,-23.420786],[-51.941835,-23.420838],[-51.941877,-23.421111],[-51.94312,-23.421097],[-51.943225,-23.421619],[-51.942335,-23.421693],[-51.942262,-23.421962],[-51.943155,-23.421976],[-51.943134,-23.422488],[-51.942307,-23.422537],[-51.94223,-23.422891],[-51.943169,-23.422905],[-51.943218,-23.423381],[-51.942402,-23.423472],[-51.942293,-23.423868],[-51.943081,-23.423875],[-51.943222,-23.424348],[-51.942391,-23.424509],[-51.9423,-23.424803],[-51.943134,-23.424778],[-51.943176,-23.425094],[-51.94298,-23.42564],[-51.943102,-23.425882],[-51.943074,-23.426722],[-51.942854,-23.427374],[-51.943067,-23.427787],[-51.943512,-23.428039],[-51.943834,-23.428039],[-51.9434,-23.427423],[-51.943582,-23.426474],[-51.943544,-23.424954],[-51.943509,-23.423006],[-51.943474,-23.421735],[-51.943418,-23.42025]]]}},
{"type":"Feature","properties":{"name":"AC-None — —"},"geometry":{"type":"Polygon","coordinates":[[[-51.960825,-23.421614],[-51.960055,-23.420934],[-51.958836,-23.420346],[-51.956678,-23.420213],[-51.956132,-23.42064],[-51.956377,-23.421747],[-51.955649,-23.42305],[-51.955263,-23.424766],[-51.954234,-23.424675],[-51.95319,-23.426377],[-51.95291,-23.426994],[-51.957197,-23.428675],[-51.958976,-23.428843],[-51.959719,-23.428633],[-51.960629,-23.427652],[-51.959845,-23.427638],[-51.958892,-23.426896],[-51.959747,-23.427064],[-51.959929,-23.426447],[-51.958948,-23.426125],[-51.959705,-23.423814],[-51.96154,-23.424066],[-51.962002,-23.422525],[-51.960825,-23.421614]]]}},
{"type":"Feature","properties":{"name":"AC-None — —"},"geometry":{"type":"Polygon","coordinates":[[[-51.926221,-23.386672],[-51.925338,-23.386602],[-51.924946,-23.386069],[-51.924091,-23.385943],[-51.920925,-23.385397],[-51.921303,-23.384486],[-51.920995,-23.383968],[-51.919356,-23.382791],[-51.917506,-23.385229],[-51.917478,-23.385607],[-51.918557,-23.386181],[-51.919468,-23.386826],[-51.919566,-23.387947],[-51.922746,-23.391631],[-51.92304,-23.392864],[-51.924778,-23.393677],[-51.926221,-23.386672]]]}},
{"type":"Feature","properties":{"name":"área 1 prefeitura"},"geometry":{"type":"Polygon","coordinates":[[[-141.235617,-85.525651],[-141.235617,-85.525651],[-141.235617,-85.525651],[-141.235617,-85.525651],[-141.235617,-85.525651],[-141.235617,-85.525651],[-141.235617,-85.525651],[-141.235617,-85.525651],[-141.235617,-85.525651],[-141.235617,-85.525651],[-141.235617,-85.525651],[-141.235617,-85.525651],[-141.235617,-85.525651],[-141.235617,-85.525651],[-141.235617,-85.525651],[-141.235617,-85.525651],[-141.235617,-85.525651],[-141.235617,-85.525651],[-141.235617,-85.525651],[-141.235617,-85.525651],[-141.235617,-85.525651],[-141.235617,-85.525651],[-141.235617,-85.525651],[-141.235617,-85.525651],[-141.235617,-85.525651],[-141.235617,-85.525651],[-141.235617,-85.525651],[-141.235617,-85.525651],[-141.235617,-85.525651],[-141.235617,-85.525651],[-141.235617,-85.525651],[-141.235617,-85.525651],[-141.235617,-85.525651],[-141.235617,-85.525651],[-141.235617,-85.525651],[-141.235617,-85.525651],[-141.235617,-85.525651],[-141.235617,-85.525651],[-141.235617,-85.525651],[-141.235617,-85.525651],[-141.235617,-85.525651],[-141.235617,-85.525651],[-141.235617,-85.525651],[-141.235617,-85.525651],[-141.235617,-85.525651],[-141.235617,-85.525651],[-141.235617,-85.525651],[-141.235617,-85.525651],[-141.235617,-85.525651],[-141.235617,-85.525651],[-141.235617,-85.525651],[-141.235617,-85.525651],[-141.235617,-85.525651],[-141.235617,-85.525651],[-141.235617,-85.525651],[-141.235617,-85.525651],[-141.235618,-85.525651],[-141.235618,-85.525651],[-141.235618,-85.525651],[-141.235618,-85.525651],[-141.235618,-85.525651],[-141.235618,-85.525651],[-141.235618,-85.525651],[-141.235618,-85.525651],[-141.235618,-85.525651],[-141.235618,-85.525651],[-141.235618,-85.525651],[-141.235618,-85.525651],[-141.235618,-85.525651],[-141.235618,-85.525651],[-141.235618,-85.525651],[-141.235618,-85.525651],[-141.235618,-85.525651],[-141.235618,-85.525651],[-141.235618,-85.525651],[-141.235618,-85.525651],[-141.235618,-85.525651],[-141.235618,-85.525651],[-141.235618,-85.525651],[-141.235618,-85.525651],[-141.235618,-85.525651],[-141.235618,-85.525651],[-141.235618,-85.525651],[-141.235618,-85.525651],[-141.235618,-85.525651],[-141.235618,-85.525651],[-141.235618,-85.525651],[-141.235618,-85.525651],[-141.235618,-85.525651],[-141.235618,-85.525651],[-141.235618,-85.525651],[-141.235618,-85.525651],[-141.235618,-85.525651],[-141.235618,-85.525651],[-141.235618,-85.525651],[-141.235618,-85.525651],[-141.235618,-85.525651],[-141.235618,-85.525651],[-141.235618,-85.525651],[-141.235618,-85.525651],[-141.235618,-85.525651],[-141.235618,-85.525651],[-141.235618,-85.525651],[-141.235618,-85.525651],[-141.235618,-85.525651],[-141.235618,-85.525651],[-141.235618,-85.525651],[-141.235618,-85.525651],[-141.235618,-85.525651],[-141.235618,-85.525651],[-141.235618,-85.525651],[-141.235618,-85.525651],[-141.235618,-85.525651],[-141.235618,-85.525651],[-141.235618,-85.525651],[-141.235618,-85.525651],[-141.235618,-85.525651],[-141.235618,-85.525651],[-141.235618,-85.525651],[-141.235618,-85.525651],[-141.235618,-85.525651],[-141.235618,-85.525651],[-141.235618,-85.525651],[-141.235618,-85.525651],[-141.235618,-85.525651],[-141.235618,-85.525651],[-141.235618,-85.525651],[-141.235618,-85.525651],[-141.235618,-85.525651],[-141.235618,-85.525651],[-141.235618,-85.525651],[-141.235618,-85.525651],[-141.235618,-85.525651],[-141.235618,-85.525651],[-141.235618,-85.525651],[-141.235618,-85.525651],[-141.235618,-85.525651],[-141.235618,-85.525651],[-141.235618,-85.525651],[-141.235618,-85.525651],[-141.235618,-85.525651],[-141.235618,-85.525651],[-141.235618,-85.525651],[-141.235618,-85.525651],[-141.235618,-85.525651],[-141.235618,-85.525651],[-141.235618,-85.525651],[-141.235618,-85.525651],[-141.235618,-85.525651],[-141.235618,-85.525651],[-141.235618,-85.525651],[-141.235618,-85.525651],[-141.235618,-85.525651],[-141.235618,-85.525651],[-141.235618,-85.525651],[-141.235618,-85.525651],[-141.235618,-85.525651],[-141.235618,-85.525651],[-141.235618,-85.525651],[-141.235618,-85.525651],[-141.235618,-85.525651],[-141.235618,-85.525651],[-141.235618,-85.525651],[-141.235618,-85.525651],[-141.235618,-85.525651],[-141.235618,-85.525651],[-141.235618,-85.525651],[-141.235618,-85.525651],[-141.235617,-85.525651],[-141.235617,-85.525651],[-141.235617,-85.525651],[-141.235617,-85.525651],[-141.235617,-85.525651],[-141.235617,-85.525651],[-141.235617,-85.525651],[-141.235617,-85.525651],[-141.235617,-85.525651],[-141.235617,-85.525651],[-141.235617,-85.525651],[-141.235617,-85.525651],[-141.235617,-85.525651],[-141.235617,-85.525651],[-141.235617,-85.525651],[-141.235617,-85.525651],[-141.235617,-85.525651],[-141.235617,-85.525651],[-141.235617,-85.525651],[-141.235617,-85.525651],[-141.235617,-85.525651],[-141.235617,-85.525651],[-141.235617,-85.525651],[-141.235617,-85.525651],[-141.235617,-85.525651],[-141.235617,-85.525651],[-141.235617,-85.525651],[-141.235617,-85.525651],[-141.235617,-85.525651],[-141.235617,-85.525651],[-141.235617,-85.525651],[-141.235617,-85.525651],[-141.235617,-85.525651],[-141.235617,-85.525651],[-141.235617,-85.525651],[-141.235617,-85.525651],[-141.235617,-85.525651],[-141.235617,-85.525651],[-141.235617,-85.525651],[-141.235617,-85.525651],[-141.235617,-85.525651],[-141.235617,-85.525651],[-141.235617,-85.525651],[-141.235617,-85.525651],[-141.235617,-85.525651],[-141.235617,-85.525651],[-141.235617,-85.525651],[-141.235617,-85.525651],[-141.235617,-85.525651],[-141.235617,-85.525651],[-141.235617,-85.525651],[-141.235617,-85.525651],[-141.235617,-85.525651],[-141.235617,-85.525651],[-141.235617,-85.525651],[-141.235617,-85.525651],[-141.235617,-85.525651],[-141.235617,-85.525651],[-141.235617,-85.525651],[-141.235617,-85.525651],[-141.235617,-85.525651],[-141.235617,-85.525651],[-141.235617,-85.525651],[-141.235617,-85.525651],[-141.235617,-85.525651],[-141.235617,-85.525651],[-141.235617,-85.525651],[-141.235617,-85.525651],[-141.235617,-85.525651],[-141.235617,-85.525651],[-141.235617,-85.525651],[-141.235617,-85.525651],[-141.235617,-85.525651],[-141.235617,-85.525651],[-141.235617,-85.525651],[-141.235617,-85.525651],[-141.235617,-85.525651],[-141.235617,-85.525651],[-141.235617,-85.525651],[-141.235617,-85.525651],[-141.235617,-85.525651],[-141.235617,-85.525651]]]}},
{"type":"Feature","properties":{"name":"área 2"},"geometry":{"type":"Polygon","coordinates":[[[-141.235618,-85.525651],[-141.235618,-85.525651],[-141.235618,-85.525651],[-141.235618,-85.525651],[-141.235618,-85.525651],[-141.235618,-85.525651],[-141.235618,-85.525651],[-141.235618,-85.525651],[-141.235618,-85.525651],[-141.235618,-85.525651],[-141.235618,-85.525651],[-141.235618,-85.525651],[-141.235618,-85.525651],[-141.235618,-85.525651],[-141.235618,-85.525651],[-141.235618,-85.525651],[-141.235618,-85.525651],[-141.235618,-85.525651],[-141.235618,-85.525651],[-141.235618,-85.525651],[-141.235618,-85.525651],[-141.235618,-85.525651],[-141.235618,-85.525651],[-141.235618,-85.525651],[-141.235618,-85.525651],[-141.235618,-85.525651],[-141.235618,-85.525651],[-141.235618,-85.525651],[-141.235618,-85.525651],[-141.235618,-85.525651],[-141.235618,-85.525651],[-141.235618,-85.525651],[-141.235618,-85.525651],[-141.235618,-85.525651],[-141.235618,-85.525651],[-141.235618,-85.525651],[-141.235618,-85.525651],[-141.235618,-85.525651],[-141.235618,-85.525651],[-141.235618,-85.525651],[-141.235618,-85.525651],[-141.235618,-85.525651],[-141.235618,-85.525651],[-141.235618,-85.525651],[-141.235618,-85.525651],[-141.235618,-85.525651],[-141.235618,-85.525651],[-141.235618,-85.525651],[-141.235618,-85.525651],[-141.235618,-85.525651],[-141.235618,-85.525651],[-141.235618,-85.525651],[-141.235618,-85.525651],[-141.235618,-85.525651],[-141.235618,-85.525651],[-141.235618,-85.525651],[-141.235618,-85.525651],[-141.235618,-85.525651],[-141.235618,-85.525651],[-141.235618,-85.525651],[-141.235618,-85.525651],[-141.235618,-85.525651],[-141.235618,-85.525651],[-141.235618,-85.525651],[-141.235618,-85.525651],[-141.235618,-85.525651],[-141.235618,-85.525651],[-141.235618,-85.525651],[-141.235618,-85.525651],[-141.235618,-85.525651],[-141.235618,-85.525651],[-141.235618,-85.525651],[-141.235618,-85.525651],[-141.235618,-85.525651],[-141.235618,-85.525651],[-141.235618,-85.525651],[-141.235618,-85.525651],[-141.235618,-85.525651],[-141.235618,-85.525651],[-141.235618,-85.525651],[-141.235618,-85.525651],[-141.235618,-85.525651],[-141.235618,-85.525651],[-141.235618,-85.525651],[-141.235618,-85.525651],[-141.235618,-85.525651],[-141.235618,-85.525651],[-141.235618,-85.525651],[-141.235618,-85.525651],[-141.235618,-85.525651],[-141.235618,-85.525651],[-141.235618,-85.525651],[-141.235618,-85.525651],[-141.235618,-85.525651],[-141.235618,-85.525651],[-141.235618,-85.525651],[-141.235618,-85.525651],[-141.235618,-85.525651],[-141.235618,-85.525651],[-141.235618,-85.525651],[-141.235618,-85.525651],[-141.235618,-85.525651],[-141.235618,-85.525651],[-141.235618,-85.525651],[-141.235618,-85.525651],[-141.235618,-85.525651],[-141.235618,-85.525651],[-141.235618,-85.525651],[-141.235618,-85.525651],[-141.235618,-85.525651],[-141.235618,-85.525651],[-141.235618,-85.525651],[-141.235618,-85.525651],[-141.235618,-85.525651],[-141.235618,-85.525651],[-141.235618,-85.525651],[-141.235618,-85.525651],[-141.235618,-85.525651],[-141.235618,-85.525651],[-141.235618,-85.525651],[-141.235618,-85.525651],[-141.235618,-85.525651],[-141.235618,-85.525651],[-141.235618,-85.525651],[-141.235618,-85.525651],[-141.235618,-85.525651],[-141.235618,-85.525651],[-141.235618,-85.525651],[-141.235618,-85.525651],[-141.235618,-85.525651],[-141.235618,-85.525651],[-141.235618,-85.525651],[-141.235618,-85.525651],[-141.235618,-85.525651],[-141.235618,-85.525651],[-141.235618,-85.525651],[-141.235618,-85.525651],[-141.235618,-85.525651],[-141.235618,-85.525651],[-141.235618,-85.525651],[-141.235618,-85.525651],[-141.235618,-85.525651],[-141.235618,-85.525651],[-141.235618,-85.525651],[-141.235618,-85.525651],[-141.235618,-85.525651],[-141.235618,-85.525651],[-141.235618,-85.525651],[-141.235618,-85.525651],[-141.235618,-85.525651],[-141.235618,-85.525651],[-141.235618,-85.525651],[-141.235618,-85.525651],[-141.235618,-85.525651],[-141.235618,-85.525651],[-141.235618,-85.525651],[-141.235618,-85.525651],[-141.235618,-85.525651],[-141.235618,-85.525651],[-141.235618,-85.525651],[-141.235618,-85.525651],[-141.235618,-85.525651],[-141.235618,-85.525651],[-141.235618,-85.525651],[-141.235618,-85.525651],[-141.235618,-85.525651],[-141.235618,-85.525651],[-141.235618,-85.525651],[-141.235618,-85.525651],[-141.235618,-85.525651],[-141.235618,-85.525651],[-141.235618,-85.525651],[-141.235618,-85.525651],[-141.235618,-85.525651],[-141.235618,-85.525651]]]}},
{"type":"Feature","properties":{"name":"área 3"},"geometry":{"type":"Polygon","coordinates":[[[-141.235617,-85.525651],[-141.235617,-85.525651],[-141.235617,-85.525651],[-141.235617,-85.525651],[-141.235618,-85.525651],[-141.235618,-85.525651],[-141.235618,-85.525651],[-141.235617,-85.525651]]]}},
{"type":"Feature","properties":{"name":"área 4"},"geometry":{"type":"Polygon","coordinates":[[[-141.235617,-85.525651],[-141.235618,-85.525651],[-141.235619,-85.525651],[-141.235619,-85.525651],[-141.235619,-85.525651],[-141.23562,-85.525651],[-141.23562,-85.525651],[-141.23562,-85.525651],[-141.23562,-85.525651],[-141.23562,-85.525651],[-141.23562,-85.525651],[-141.23562,-85.525651],[-141.23562,-85.525651],[-141.23562,-85.525651],[-141.235619,-85.525651],[-141.235619,-85.525651],[-141.235619,-85.525651],[-141.235619,-85.525651],[-141.235618,-85.525651],[-141.235618,-85.525651],[-141.235618,-85.525651],[-141.235618,-85.525651],[-141.235617,-85.525651]]]}},
{"type":"Feature","properties":{"name":"área 5"},"geometry":{"type":"Polygon","coordinates":[[[-141.235617,-85.525651],[-141.235617,-85.525651],[-141.235617,-85.525651],[-141.235618,-85.525651],[-141.235619,-85.525651],[-141.23562,-85.525651],[-141.23562,-85.525651],[-141.23562,-85.525651],[-141.235619,-85.525651],[-141.235618,-85.525651],[-141.235618,-85.525651],[-141.235617,-85.525651]]]}},
{"type":"Feature","properties":{"name":"área 6"},"geometry":{"type":"Polygon","coordinates":[[[-141.235613,-85.525651],[-141.235613,-85.525651],[-141.235614,-85.525651],[-141.235615,-85.525651],[-141.235616,-85.525651],[-141.235615,-85.525651],[-141.235615,-85.525651],[-141.235614,-85.525651],[-141.235614,-85.525651],[-141.235613,-85.525651],[-141.235613,-85.525651]]]}},
{"type":"Feature","properties":{"name":"área 7"},"geometry":{"type":"Polygon","coordinates":[[[-141.235614,-85.525651],[-141.235614,-85.525651],[-141.235615,-85.525651],[-141.235615,-85.525651],[-141.235615,-85.525651],[-141.235615,-85.525651],[-141.235615,-85.525651],[-141.235614,-85.525651]]]}},
{"type":"Feature","properties":{"name":"área 8"},"geometry":{"type":"Polygon","coordinates":[[[-141.235619,-85.525651],[-141.235618,-85.525651],[-141.235619,-85.525651],[-141.235619,-85.525651],[-141.235619,-85.525651],[-141.235619,-85.525651],[-141.235619,-85.525651],[-141.235619,-85.525651]]]}},
{"type":"Feature","properties":{"name":"área 9"},"geometry":{"type":"Polygon","coordinates":[[[-141.235618,-85.525652],[-141.235618,-85.525652],[-141.235618,-85.525652],[-141.235618,-85.525652],[-141.235618,-85.525652],[-141.235618,-85.525652],[-141.235618,-85.525652]]]}},
{"type":"Feature","properties":{"name":"área 10"},"geometry":{"type":"Polygon","coordinates":[[[-141.23562,-85.52565],[-141.235617,-85.525651],[-141.235618,-85.525651],[-141.235618,-85.525651],[-141.235618,-85.525651],[-141.235619,-85.525651],[-141.235619,-85.525651],[-141.23562,-85.525651],[-141.23562,-85.525651],[-141.235621,-85.525651],[-141.23562,-85.52565]]]}},
{"type":"Feature","properties":{"name":"área 11"},"geometry":{"type":"Polygon","coordinates":[[[-141.23562,-85.525651],[-141.235621,-85.525651],[-141.235623,-85.525651],[-141.235623,-85.52565],[-141.235622,-85.52565],[-141.235621,-85.52565],[-141.23562,-85.52565],[-141.23562,-85.525651]]]}},
{"type":"Feature","properties":{"name":"AREA 12"},"geometry":{"type":"Polygon","coordinates":[[[-141.23562,-85.525651],[-141.235621,-85.525651],[-141.235621,-85.525651],[-141.235621,-85.525651],[-141.235621,-85.525651],[-141.235621,-85.525651],[-141.235621,-85.525651],[-141.235621,-85.525651],[-141.235621,-85.525651],[-141.235621,-85.525651],[-141.235621,-85.525651],[-141.235621,-85.525651],[-141.235621,-85.525651],[-141.235621,-85.525651],[-141.235621,-85.525651],[-141.235621,-85.525651],[-141.235621,-85.525651],[-141.235621,-85.525651],[-141.235621,-85.525651],[-141.235621,-85.525651],[-141.235621,-85.525651],[-141.235621,-85.525651],[-141.235621,-85.525651],[-141.235621,-85.525651],[-141.235621,-85.525651],[-141.235621,-85.525651],[-141.235621,-85.525651],[-141.235621,-85.525651],[-141.235621,-85.525651],[-141.235621,-85.525651],[-141.235621,-85.525651],[-141.235621,-85.525651],[-141.235621,-85.525651],[-141.235621,-85.525651],[-141.235621,-85.525651],[-141.235621,-85.525651],[-141.235621,-85.525651],[-141.235621,-85.525651],[-141.235621,-85.525651],[-141.235621,-85.525651],[-141.235621,-85.525651],[-141.235621,-85.525651],[-141.235621,-85.525651],[-141.235621,-85.525651],[-141.235621,-85.525651],[-141.235621,-85.525651],[-141.235621,-85.525651],[-141.235621,-85.525651],[-141.235622,-85.525651],[-141.235622,-85.525651],[-141.235622,-85.525651],[-141.235622,-85.525651],[-141.235622,-85.525651],[-141.235622,-85.525651],[-141.235622,-85.525651],[-141.235622,-85.525651],[-141.235622,-85.525651],[-141.235622,-85.525651],[-141.235622,-85.525651],[-141.235622,-85.525651],[-141.235622,-85.525651],[-141.235622,-85.525651],[-141.235622,-85.525651],[-141.235622,-85.525651],[-141.235622,-85.525651],[-141.235622,-85.525651],[-141.235622,-85.525651],[-141.235622,-85.525651],[-141.235622,-85.525651],[-141.235622,-85.525651],[-141.235622,-85.525651],[-141.235622,-85.525651],[-141.235622,-85.525651],[-141.235622,-85.525651],[-141.235622,-85.525651],[-141.235622,-85.525651],[-141.235622,-85.525651],[-141.235622,-85.525651],[-141.235622,-85.525651],[-141.235622,-85.525651],[-141.235622,-85.525651],[-141.235622,-85.525651],[-141.235622,-85.525651],[-141.235622,-85.525651],[-141.235622,-85.525651],[-141.235622,-85.525651],[-141.235622,-85.525651],[-141.235622,-85.525651],[-141.235622,-85.525651],[-141.235622,-85.525651],[-141.235622,-85.525651],[-141.235622,-85.525651],[-141.235622,-85.525651],[-141.235622,-85.525651],[-141.235622,-85.525651],[-141.235622,-85.525651],[-141.235622,-85.525651],[-141.235622,-85.525651],[-141.235622,-85.525651],[-141.235622,-85.525651],[-141.235622,-85.525651],[-141.235621,-85.525651],[-141.235621,-85.525651],[-141.235621,-85.525651],[-141.235621,-85.525651],[-141.235621,-85.525651],[-141.235621,-85.525651],[-141.235621,-85.525651],[-141.235621,-85.525651],[-141.235621,-85.525651],[-141.235621,-85.525651],[-141.235621,-85.525651],[-141.235621,-85.525651],[-141.235621,-85.525651],[-141.235621,-85.525651],[-141.235621,-85.525651],[-141.235621,-85.525651],[-141.235621,-85.525651],[-141.235621,-85.525651],[-141.235621,-85.525651],[-141.235621,-85.525651],[-141.235621,-85.525651],[-141.235621,-85.525651],[-141.235621,-85.525651],[-141.235621,-85.525651],[-141.235621,-85.525651],[-141.235621,-85.525651],[-141.235621,-85.525651],[-141.235621,-85.525651],[-141.235621,-85.525651],[-141.235621,-85.525651],[-141.235621,-85.525651],[-141.235621,-85.525651],[-141.235621,-85.525651],[-141.235621,-85.525651],[-141.235621,-85.525651],[-141.235621,-85.525651],[-141.235621,-85.525651],[-141.235621,-85.525651],[-141.235621,-85.525651],[-141.235621,-85.525651],[-141.235621,-85.525651],[-141.235621,-85.525651],[-141.235621,-85.525651],[-141.235621,-85.525651],[-141.235621,-85.525651],[-141.235621,-85.525651],[-141.235621,-85.525651],[-141.235621,-85.525651],[-141.235621,-85.525651],[-141.235621,-85.525651],[-141.235621,-85.525651],[-141.235621,-85.525651],[-141.235621,-85.525651],[-141.235621,-85.525651],[-141.235621,-85.525651],[-141.235621,-85.525651],[-141.235621,-85.525651],[-141.235621,-85.525651],[-141.235621,-85.525651],[-141.235621,-85.525651],[-141.235621,-85.525651],[-141.235621,-85.525651],[-141.235621,-85.525651],[-141.235621,-85.525651],[-141.235621,-85.525651],[-141.235621,-85.525651],[-141.235621,-85.525651],[-141.235621,-85.525651],[-141.235621,-85.525651],[-141.235621,-85.525651],[-141.235621,-85.525651],[-141.235621,-85.525651],[-141.235621,-85.525651],[-141.235621,-85.525651],[-141.235621,-85.525651],[-141.235621,-85.525651],[-141.235621,-85.525651],[-141.235621,-85.525651],[-141.235621,-85.525651],[-141.235621,-85.525651],[-141.235621,-85.525651],[-141.235621,-85.525651],[-141.235621,-85.525651],[-141.235621,-85.525651],[-141.235621,-85.525651],[-141.235621,-85.525651],[-141.23562,-85.525651],[-141.23562,-85.525651],[-141.23562,-85.525651],[-141.23562,-85.525651]]]}},
{"type":"Feature","properties":{"name":"area 13"},"geometry":{"type":"Polygon","coordinates":[[[-141.235614,-85.525651],[-141.235615,-85.525651],[-141.235615,-85.525651],[-141.235615,-85.525651],[-141.235615,-85.525651],[-141.235614,-85.525651]]]}},
{"type":"Feature","properties":{"name":"area 14"},"geometry":{"type":"Polygon","coordinates":[[[-141.235614,-85.525651],[-141.235613,-85.525651],[-141.235613,-85.525651],[-141.235614,-85.525651],[-141.235614,-85.525651],[-141.235614,-85.525651]]]}},
{"type":"Feature","properties":{"name":"area 15"},"geometry":{"type":"Polygon","coordinates":[[[-141.235615,-85.525651],[-141.235614,-85.525651],[-141.235615,-85.525651],[-141.235615,-85.525651],[-141.235615,-85.525651]]]}}
]}
