{"type":"FeatureCollection","name":"ac_pontos","features":[
{"type":"Feature","properties":{"name":"Av colombo 421"},"geometry":{"type":"Point","coordinates":[-51.888947,-23.431199]}},
{"type":"Feature","properties":{"name":"Avenida Tuiuti, 710"},"geometry":{"type":"Point","coordinates":[-51.906255,-23.421603]}},
{"type":"Feature","properties":{"name":"Córrego Moscados"},"geometry":{"type":"Point","coordinates":[-51.920661,-23.443584]}},
{"type":"Feature","properties":{"name":"Avenida Brasil 4170"},"geometry":{"type":"Point","coordinates":[-51.942592,-23.420609]}},
{"type":"Feature","properties":{"name":"Avenida Laguna"},"geometry":{"type":"Point","coordinates":[-51.918433,-23.430657]}},
{"type":"Feature","properties":{"name":"Avenida Pedro Taques"},"geometry":{"type":"Point","coordinates":[-51.918912,-23.397576]}},
{"type":"Feature","properties":{"name":"Atacadao"},"geometry":{"type":"Point","coordinates":[-51.888279,-23.433836]}},
{"type":"Feature","properties":{"name":"Avenida Morangueira"},"geometry":{"type":"Point","coordinates":[-51.923721,-23.394082]}},
{"type":"Feature","properties":{"name":"Rua Cuba"},"geometry":{"type":"Point","coordinates":[-51.896466,-23.409957]}},
{"type":"Feature","properties":{"name":"Rua La paz"},"geometry":{"type":"Point","coordinates":[-51.912916,-23.416263]}},
{"type":"Feature","properties":{"name":"ID: 01 - ALAGAMENTO"},"geometry":{"type":"Point","coordinates":[-51.938111,-23.389627]}},
{"type":"Feature","properties":{"name":"ID: 02 - ALAGAMENTO"},"geometry":{"type":"Point","coordinates":[-51.92271,-23.390025]}},
{"type":"Feature","properties":{"name":"ID: 03 - ALAGAMENTO"},"geometry":{"type":"Point","coordinates":[-51.889551,-23.403203]}},
{"type":"Feature","properties":{"name":"ID: 05 - ALAGAMENTO"},"geometry":{"type":"Point","coordinates":[-51.925243,-23.460061]}},
{"type":"Feature","properties":{"name":"ID: 06 - ALAGAMENTO"},"geometry":{"type":"Point","coordinates":[-51.899826,-23.391036]}},
{"type":"Feature","properties":{"name":"ID: 07 - ALAGAMENTO"},"geometry":{"type":"Point","coordinates":[-51.897422,-23.392121]}},
{"type":"Feature","properties":{"name":"ID: 08 - ALAGAMENTO"},"geometry":{"type":"Point","coordinates":[-51.907201,-23.454636]}},
{"type":"Feature","properties":{"name":"ID: 09 - ALAGAMENTO"},"geometry":{"type":"Point","coordinates":[-51.937683,-23.447673]}},
{"type":"Feature","properties":{"name":"ID: 10 - ALAGAMENTO"},"geometry":{"type":"Point","coordinates":[-51.917499,-23.386392]}},
{"type":"Feature","properties":{"name":"ID: 11 - ALAGAMENTO"},"geometry":{"type":"Point","coordinates":[-51.89558,-23.432403]}},
{"type":"Feature","properties":{"name":"ID: 12 - ALAGAMENTO"},"geometry":{"type":"Point","coordinates":[-51.924416,-23.418829]}},
{"type":"Feature","properties":{"name":"ID: 13 - ALAGAMENTO"},"geometry":{"type":"Point","coordinates":[-51.870088,-23.409635]}},
{"type":"Feature","properties":{"name":"ID: 15 - ALAGAMENTO"},"geometry":{"type":"Point","coordinates":[-51.898223,-23.417904]}},
{"type":"Feature","properties":{"name":"ID: 14 - ALAGAMENTO"},"geometry":{"type":"Point","coordinates":[-51.869168,-23.411376]}},
{"type":"Feature","properties":{"name":"ID: 16 - ALAGAMENTO"},"geometry":{"type":"Point","coordinates":[-51.959538,-23.421805]}},
{"type":"Feature","properties":{"name":"ID: 17 - ALAGAMENTO"},"geometry":{"type":"Point","coordinates":[-51.952889,-23.458602]}},
{"type":"Feature","properties":{"name":"ID: 18 - ALAGAMENTO"},"geometry":{"type":"Point","coordinates":[-51.927435,-23.377704]}},
{"type":"Feature","properties":{"name":"ID: 19 - ALAGAMENTO"},"geometry":{"type":"Point","coordinates":[-51.91816,-23.385123]}},
{"type":"Feature","properties":{"name":"ID: 20 - ALAGAMENTO"},"geometry":{"type":"Point","coordinates":[-51.977435,-23.422527]}},
{"type":"Feature","properties":{"name":"ID: 21 - ALAGAMENTO"},"geometry":{"type":"Point","coordinates":[-51.978883,-23.423669]}},
{"type":"Feature","properties":{"name":"ID: 22 - ALAGAMENTO"},"geometry":{"type":"Point","coordinates":[-51.980237,-23.412128]}},
{"type":"Feature","properties":{"name":"ID: 23 - ALAGAMENTO"},"geometry":{"type":"Point","coordinates":[-51.869275,-23.414132]}},
{"type":"Feature","properties":{"name":"ID: 24 - ALAGAMENTO"},"geometry":{"type":"Point","coordinates":[-51.874633,-23.413198]}},
{"type":"Feature","properties":{"name":"ID: 25 - ALAGAMENTO"},"geometry":{"type":"Point","coordinates":[-51.987401,-23.410405]}},
{"type":"Feature","properties":{"name":"ID: 26 - ALAGAMENTO"},"geometry":{"type":"Point","coordinates":[-52.000325,-23.44788]}},
{"type":"Feature","properties":{"name":"ID: 27 - ALAGAMENTO"},"geometry":{"type":"Point","coordinates":[-51.940758,-23.464477]}},
{"type":"Feature","properties":{"name":"ID: 28 - ALAGAMENTO"},"geometry":{"type":"Point","coordinates":[-51.924171,-23.451506]}},
{"type":"Feature","properties":{"name":"ID: 29 - ALAGAMENTO"},"geometry":{"type":"Point","coordinates":[-51.942352,-23.458444]}},
{"type":"Feature","properties":{"name":"ID: 31 - ALAGAMENTO"},"geometry":{"type":"Point","coordinates":[-51.947921,-23.414149]}},
{"type":"Feature","properties":{"name":"ID: 32 - ALAGAMENTO"},"geometry":{"type":"Point","coordinates":[-51.888574,-23.430923]}},
{"type":"Feature","properties":{"name":"ID: 33 - ALAGAMENTO"},"geometry":{"type":"Point","coordinates":[-51.925655,-23.414677]}},
{"type":"Feature","properties":{"name":"ID: 34 - ALAGAMENTO"},"geometry":{"type":"Point","coordinates":[-51.900851,-23.42357]}},
{"type":"Feature","properties":{"name":"ID: 35 - ALAGAMENTO"},"geometry":{"type":"Point","coordinates":[-51.942952,-23.412468]}},
{"type":"Feature","properties":{"name":"ID: 36 - ALAGAMENTO"},"geometry":{"type":"Point","coordinates":[-51.965013,-23.419039]}},
{"type":"Feature","properties":{"name":"Ponto 17"},"geometry":{"type":"Point","coordinates":[-51.977058,-23.422928]}},
{"type":"Feature","properties":{"name":"Ponto 16"},"geometry":{"type":"Point","coordinates":[-51.918819,-23.385881]}},
{"type":"Feature","properties":{"name":"Ponto 15"},"geometry":{"type":"Point","coordinates":[-51.927294,-23.377581]}},
{"type":"Feature","properties":{"name":"Ponto 14"},"geometry":{"type":"Point","coordinates":[-51.952822,-23.458886]}},
{"type":"Feature","properties":{"name":"Ponto 13"},"geometry":{"type":"Point","coordinates":[-51.959267,-23.422006]}},
{"type":"Feature","properties":{"name":"Ponto 12"},"geometry":{"type":"Point","coordinates":[-51.897731,-23.417761]}},
{"type":"Feature","properties":{"name":"Ponto 11"},"geometry":{"type":"Point","coordinates":[-51.924564,-23.418547]}},
{"type":"Feature","properties":{"name":"Ponto 10"},"geometry":{"type":"Point","coordinates":[-51.896378,-23.432319]}},
{"type":"Feature","properties":{"name":"Ponto 1"},"geometry":{"type":"Point","coordinates":[-51.937819,-23.389883]}},
{"type":"Feature","properties":{"name":"Ponto 8"},"geometry":{"type":"Point","coordinates":[-51.937364,-23.447853]}},
{"type":"Feature","properties":{"name":"Ponto 34"},"geometry":{"type":"Point","coordinates":[-51.899903,-23.412861]}},
{"type":"Feature","properties":{"name":"Ponto 33"},"geometry":{"type":"Point","coordinates":[-51.903344,-23.438339]}},
{"type":"Feature","properties":{"name":"Ponto 32"},"geometry":{"type":"Point","coordinates":[-51.962119,-23.418244]}},
{"type":"Feature","properties":{"name":"Ponto 31"},"geometry":{"type":"Point","coordinates":[-51.943289,-23.412756]}},
{"type":"Feature","properties":{"name":"Ponto 30"},"geometry":{"type":"Point","coordinates":[-51.900914,-23.423497]}},
{"type":"Feature","properties":{"name":"Ponto 3"},"geometry":{"type":"Point","coordinates":[-51.888386,-23.401364]}},
{"type":"Feature","properties":{"name":"Ponto 29"},"geometry":{"type":"Point","coordinates":[-51.925697,-23.414681]}},
{"type":"Feature","properties":{"name":"Ponto 28"},"geometry":{"type":"Point","coordinates":[-51.889889,-23.430589]}},
{"type":"Feature","properties":{"name":"Ponto 27"},"geometry":{"type":"Point","coordinates":[-51.948681,-23.414175]}},
{"type":"Feature","properties":{"name":"Ponto 26"},"geometry":{"type":"Point","coordinates":[-51.941719,-23.459642]}},
{"type":"Feature","properties":{"name":"Ponto 25"},"geometry":{"type":"Point","coordinates":[-51.923928,-23.4512]}},
{"type":"Feature","properties":{"name":"Ponto 24"},"geometry":{"type":"Point","coordinates":[-51.941039,-23.465744]}},
{"type":"Feature","properties":{"name":"Ponto 23"},"geometry":{"type":"Point","coordinates":[-51.999772,-23.448453]}},
{"type":"Feature","properties":{"name":"Ponto 22"},"geometry":{"type":"Point","coordinates":[-51.987378,-23.410364]}},
{"type":"Feature","properties":{"name":"Ponto 21"},"geometry":{"type":"Point","coordinates":[-51.874683,-23.413172]}},
{"type":"Feature","properties":{"name":"Ponto 20"},"geometry":{"type":"Point","coordinates":[-51.869053,-23.414164]}},
{"type":"Feature","properties":{"name":"Ponto 2"},"geometry":{"type":"Point","coordinates":[-51.922642,-23.389814]}},
{"type":"Feature","properties":{"name":"Ponto 19"},"geometry":{"type":"Point","coordinates":[-51.980111,-23.412061]}},
{"type":"Feature","properties":{"name":"Ponto 18"},"geometry":{"type":"Point","coordinates":[-51.977189,-23.422856]}},
{"type":"Feature","properties":{"name":"Ponto 9"},"geometry":{"type":"Point","coordinates":[-51.917033,-23.384814]}},
{"type":"Feature","properties":{"name":"Ponto 35"},"geometry":{"type":"Point","coordinates":[-51.890419,-23.399875]}},
{"type":"Feature","properties":{"name":"Ponto 36"},"geometry":{"type":"Point","coordinates":[-51.892056,-23.395444]}},
{"type":"Feature","properties":{"name":"Ponto 37"},"geometry":{"type":"Point","coordinates":[-51.895753,-23.388894]}},
{"type":"Feature","properties":{"name":"Ponto 38"},"geometry":{"type":"Point","coordinates":[-51.873803,-23.414778]}},
{"type":"Feature","properties":{"name":"Ponto 7"},"geometry":{"type":"Point","coordinates":[-51.907467,-23.455594]}},
{"type":"Feature","properties":{"name":"Ponto 6"},"geometry":{"type":"Point","coordinates":[-51.900244,-23.390689]}},
{"type":"Feature","properties":{"name":"Ponto 5"},"geometry":{"type":"Point","coordinates":[-51.897094,-23.392478]}},
{"type":"Feature","properties":{"name":"Ponto 4"},"geometry":{"type":"Point","coordinates":[-51.931889,-23.459764]}}
]}
