{"type":"FeatureCollection","name":"areas_contribuicao","features":[
{"type":"Feature","properties":{"id":1,"status":"Aprovado","bacia":"Bandeirantes do Sul","area_ha":7.23},"geometry":{"type":"Polygon","coordinates":[[[-51.9975207,-23.4475643],[-51.9971129,-23.4479697],[-51.9987772,-23.4490135],[-51.9981184,-23.4502024],[-51.9985832,-23.450543],[-51.9994219,-23.4493766],[-52.0045951,-23.4525539],[-52.0050025,-23.4520893],[-51.9997527,-23.4489717],[-52.0003492,-23.4480319],[-51.9999231,-23.4477266],[-51.9992242,-23.4487026],[-51.9975207,-23.4475643]]]}},
{"type":"Feature","properties":{"id":2,"status":"Aprovado","bacia":"Córrego Borba Gato","area_ha":23.98},"geometry":{"type":"Polygon","coordinates":[[[-51.9544876,-23.4487242],[-51.9542659,-23.4487019],[-51.9541029,-23.4492538],[-51.9522388,-23.4489512],[-51.9521392,-23.4493783],[-51.9540474,-23.4495621],[-51.9539795,-23.4499535],[-51.9534911,-23.4525747],[-51.9528553,-23.452549],[-51.9529649,-23.4517072],[-51.9521042,-23.4516591],[-51.9521036,-23.451588],[-51.9523411,-23.4515807],[-51.952359,-23.4513792],[-51.9521723,-23.4513151],[-51.9521898,-23.4510662],[-51.9518816,-23.4510681],[-51.9516923,-23.4515254],[-51.9499642,-23.4513997],[-51.9498893,-23.4516963],[-51.9526454,-23.4519224],[-51.9525345,-23.4525747],[-51.9514059,-23.452777],[-51.9514988,-23.4523085],[-51.9512228,-23.4523161],[-51.9510402,-23.4528207],[-51.9507327,-23.4529055],[-51.950773,-23.4522655],[-51.9504905,-23.4522613],[-51.9503413,-23.4529434],[-51.9500327,-23.4528861],[-51.9500799,-23.4523053],[-51.949823,-23.4523009],[-51.9496604,-23.4529061],[-51.9494033,-23.4528662],[-51.9495635,-23.4519293],[-51.949281,-23.4519192],[-51.9490199,-23.4531292],[-51.9510557,-23.4531879],[-51.9525491,-23.4528293],[-51.9533392,-23.4528718],[-51.9529597,-23.4545624],[-51.9505832,-23.4544466],[-51.9505147,-23.454755],[-51.9526081,-23.4547837],[-51.9525726,-23.4552045],[-51.9495222,-23.4551283],[-51.9494984,-23.455395],[-51.9528831,-23.4555284],[-51.9527528,-23.456163],[-51.9494009,-23.4561242],[-51.9494007,-23.4551942],[-51.9486244,-23.4552819],[-51.9485871,-23.4554598],[-51.9491138,-23.4554862],[-51.9490839,-23.4557826],[-51.9472995,-23.4558645],[-51.9473846,-23.456095],[-51.9490029,-23.4561326],[-51.9488891,-23.456388],[-51.9468922,-23.4563764],[-51.9468366,-23.4566789],[-51.951633,-23.4566911],[-51.9511084,-23.456955],[-51.9468198,-23.4570373],[-51.9467669,-23.4572687],[-51.9507123,-23.4572417],[-51.9502457,-23.4575348],[-51.9487243,-23.4575767],[-51.9486967,-23.4577694],[-51.9502599,-23.4577243],[-51.9523289,-23.4565862],[-51.9526532,-23.456599],[-51.9525755,-23.4574021],[-51.9527746,-23.4574098],[-51.952767,-23.4576912],[-51.9525873,-23.4577042],[-51.952535,-23.4577948],[-51.9525706,-23.4578376],[-51.9526216,-23.4577839],[-51.9527645,-23.4577919],[-51.9527781,-23.457897],[-51.9526635,-23.4578118],[-51.95264,-23.457883],[-51.9527499,-23.457986],[-51.9524682,-23.4589977],[-51.952937,-23.4590067],[-51.9529162,-23.4587995],[-51.9527983,-23.4584685],[-51.9529417,-23.4578812],[-51.9529664,-23.4568474],[-51.9531275,-23.4564762],[-51.9534698,-23.4567584],[-51.9536159,-23.4565324],[-51.953261,-23.4562858],[-51.9553674,-23.456344],[-51.9554549,-23.4560117],[-51.9532707,-23.4558592],[-51.953492,-23.4544836],[-51.9570642,-23.4548053],[-51.9571385,-23.4544257],[-51.9566375,-23.4543933],[-51.9567568,-23.4531249],[-51.95641,-23.4531152],[-51.9562773,-23.4543007],[-51.9535917,-23.4540565],[-51.9538553,-23.4523193],[-51.956811,-23.4526329],[-51.9571149,-23.4502557],[-51.9567936,-23.4502162],[-51.9565455,-23.4523206],[-51.9539494,-23.4520166],[-51.9539864,-23.4517972],[-51.9553484,-23.4519133],[-51.9553788,-23.4516761],[-51.9540358,-23.4515244],[-51.9540472,-23.4513229],[-51.9559745,-23.4514829],[-51.9560046,-23.4512043],[-51.954122,-23.4510204],[-51.9541459,-23.4507714],[-51.9555534,-23.4509583],[-51.955577,-23.4506679],[-51.9541635,-23.4505403],[-51.9542258,-23.4502674],[-51.9556458,-23.4504187],[-51.9557139,-23.4500629],[-51.9542744,-23.449888],[-51.9544876,-23.4487242]]]}},
{"type":"Feature","properties":{"id":3,"status":"Aprovado","bacia":"Córrego Cleópatra","area_ha":10.95},"geometry":{"type":"Polygon","coordinates":[[[-51.9196651,-23.461524],[-51.9199762,-23.4619487],[-51.9214976,-23.4609564],[-51.9223447,-23.4608922],[-51.9202348,-23.462196],[-51.9206883,-23.4627738],[-51.923796,-23.4609073],[-51.9238844,-23.4606935],[-51.9255661,-23.4606124],[-51.9248245,-23.4610789],[-51.9245264,-23.4606897],[-51.9242837,-23.4608688],[-51.9248657,-23.4614577],[-51.9257994,-23.4609191],[-51.9259296,-23.461179],[-51.9246374,-23.4618738],[-51.9240409,-23.461048],[-51.923708,-23.4611803],[-51.9246155,-23.462407],[-51.9261111,-23.4614148],[-51.9261764,-23.4615684],[-51.925626,-23.4618324],[-51.9258203,-23.46208],[-51.9266005,-23.4616252],[-51.9261178,-23.4605381],[-51.9321244,-23.4600403],[-51.9321347,-23.4596848],[-51.9213021,-23.4605429],[-51.9196651,-23.461524]]]}},
{"type":"Feature","properties":{"id":4,"status":"Aprovado","bacia":"Ribeirão Morangueiro","area_ha":1.88},"geometry":{"type":"Polygon","coordinates":[[[-51.9002345,-23.3905946],[-51.8988633,-23.3913904],[-51.89898,-23.3915704],[-51.8998524,-23.3910293],[-51.9003417,-23.3912634],[-51.8992071,-23.3919304],[-51.8999982,-23.3931313],[-51.9002284,-23.3930056],[-51.8995247,-23.3919227],[-51.9005127,-23.3913927],[-51.9008736,-23.3916187],[-51.9002986,-23.39201],[-51.9004054,-23.3921397],[-51.9010414,-23.3917658],[-51.9013705,-23.3920305],[-51.9003959,-23.3926374],[-51.9004932,-23.392779],[-51.9015129,-23.3921985],[-51.9015903,-23.3922632],[-51.9017724,-23.3921348],[-51.9013685,-23.3917343],[-51.9007076,-23.3912731],[-51.9000216,-23.390895],[-51.9003476,-23.3907154],[-51.9002345,-23.3905946]]]}},
{"type":"Feature","properties":{"id":5,"status":"Aprovado","bacia":"Ribeirão Morangueiro","area_ha":6.86},"geometry":{"type":"Polygon","coordinates":[[[-51.8985529,-23.3915225],[-51.8947875,-23.3937003],[-51.8949692,-23.3940014],[-51.8965223,-23.3930328],[-51.8966207,-23.3933522],[-51.8951825,-23.3942193],[-51.8953573,-23.3944494],[-51.8967442,-23.3935943],[-51.8968681,-23.3938779],[-51.8949629,-23.3949729],[-51.8951441,-23.3951851],[-51.8956875,-23.394874],[-51.8958819,-23.3951454],[-51.8952748,-23.3955457],[-51.8954943,-23.3957281],[-51.8960245,-23.3953578],[-51.8961083,-23.3954106],[-51.896345,-23.3952967],[-51.8959686,-23.3946887],[-51.8969085,-23.3941561],[-51.8970516,-23.3944456],[-51.8966107,-23.3947265],[-51.8967086,-23.3949747],[-51.8972137,-23.3946875],[-51.8972659,-23.3948175],[-51.8975217,-23.3946739],[-51.8967779,-23.3928774],[-51.8978775,-23.3922431],[-51.8984955,-23.3944254],[-51.8982167,-23.3949602],[-51.8982951,-23.3951611],[-51.8986795,-23.3950641],[-51.898864,-23.3957798],[-51.9004177,-23.394906],[-51.9002687,-23.3947055],[-51.8989963,-23.3954118],[-51.8989109,-23.395122],[-51.9001256,-23.394422],[-51.8999699,-23.3941741],[-51.8993498,-23.3945331],[-51.8991874,-23.3942437],[-51.8998139,-23.3938788],[-51.8996775,-23.3936426],[-51.8988533,-23.3941864],[-51.8991132,-23.3946648],[-51.8985567,-23.3949286],[-51.8987197,-23.394359],[-51.8985371,-23.3939276],[-51.8986203,-23.3938916],[-51.8988834,-23.3938901],[-51.898972,-23.3937118],[-51.8988419,-23.393452],[-51.8985034,-23.3936908],[-51.8984367,-23.393318],[-51.8988777,-23.3930489],[-51.8987866,-23.3928599],[-51.8983384,-23.3930165],[-51.8983174,-23.3927619],[-51.8989244,-23.3923615],[-51.8988201,-23.3921252],[-51.8981934,-23.3924605],[-51.8981145,-23.3921707],[-51.8986961,-23.3918119],[-51.8985529,-23.3915225]]]}},
{"type":"Feature","properties":{"id":6,"status":"Aprovado","bacia":"Ribeirão Morangueiro","area_ha":6.05},"geometry":{"type":"Polygon","coordinates":[[[-51.8919741,-23.3952625],[-51.8920854,-23.3955876],[-51.8928017,-23.3952044],[-51.8919975,-23.3977977],[-51.8922856,-23.3976835],[-51.893269,-23.3969433],[-51.8934699,-23.3972384],[-51.8920059,-23.398082],[-51.8917421,-23.3979946],[-51.891692,-23.3981786],[-51.8919566,-23.3983962],[-51.8925453,-23.3981263],[-51.8927435,-23.3980245],[-51.8935358,-23.3974868],[-51.8951558,-23.3997878],[-51.8940372,-23.4004754],[-51.8941356,-23.4007888],[-51.8953564,-23.4000413],[-51.8955054,-23.4002478],[-51.8943485,-23.4009534],[-51.8944592,-23.4011898],[-51.8955839,-23.4004666],[-51.8956934,-23.4005192],[-51.8958854,-23.4004352],[-51.8946668,-23.3986651],[-51.8940059,-23.3977329],[-51.8934866,-23.3968532],[-51.8939403,-23.3965545],[-51.8938171,-23.3963715],[-51.8933696,-23.3966347],[-51.8929741,-23.3960387],[-51.8928142,-23.3961107],[-51.8928409,-23.3962646],[-51.892611,-23.3964436],[-51.8926422,-23.3963131],[-51.8928269,-23.3960988],[-51.8927618,-23.395957],[-51.8931149,-23.3950131],[-51.8936199,-23.3947259],[-51.8937243,-23.39498],[-51.892932,-23.395494],[-51.8929786,-23.3957425],[-51.8938994,-23.3952456],[-51.8946381,-23.3962898],[-51.8948489,-23.3961465],[-51.8937524,-23.3943815],[-51.8919741,-23.3952625]]]}},
{"type":"Feature","properties":{"id":7,"status":"Aprovado","bacia":"Ribeirão Sarandi","area_ha":19.53},"geometry":{"type":"Polygon","coordinates":[[[-51.8746177,-23.4134575],[-51.8749626,-23.4132068],[-51.876152,-23.4125248],[-51.8759576,-23.4122416],[-51.8747422,-23.4128763],[-51.8745613,-23.4126996],[-51.8758786,-23.411934],[-51.8756847,-23.4117337],[-51.8744182,-23.4124042],[-51.8742497,-23.4121564],[-51.8755158,-23.4114266],[-51.8754247,-23.4112376],[-51.8740812,-23.4119204],[-51.8739256,-23.4116725],[-51.8780953,-23.4093625],[-51.8779139,-23.4091029],[-51.875509,-23.4103959],[-51.8753681,-23.4100716],[-51.8784572,-23.4083927],[-51.8782754,-23.4080738],[-51.8778057,-23.4069273],[-51.8774981,-23.4070119],[-51.8778915,-23.4082656],[-51.8767024,-23.4089831],[-51.8764313,-23.4087476],[-51.8775822,-23.4080777],[-51.8774138,-23.4078536],[-51.8762367,-23.4084407],[-51.8761068,-23.4082163],[-51.8772834,-23.4075344],[-51.8770891,-23.4072749],[-51.8759381,-23.4079329],[-51.875757,-23.4077325],[-51.8770231,-23.4070028],[-51.8769188,-23.4067545],[-51.875332,-23.4075217],[-51.8763183,-23.4091392],[-51.8751417,-23.4098093],[-51.8750826,-23.4105916],[-51.8737528,-23.4113928],[-51.873315,-23.411182],[-51.8731823,-23.4105311],[-51.8760858,-23.4089155],[-51.8759046,-23.4086914],[-51.8745867,-23.4093504],[-51.8744569,-23.4091378],[-51.8755567,-23.4084919],[-51.8754009,-23.4082321],[-51.8743004,-23.4087596],[-51.8741965,-23.4085825],[-51.8753092,-23.4079483],[-51.8751024,-23.4077362],[-51.8739633,-23.4082639],[-51.8737953,-23.4080871],[-51.8769928,-23.4062921],[-51.876227,-23.4050168],[-51.8759717,-23.4052315],[-51.8765684,-23.4061878],[-51.876402,-23.4062598],[-51.8758979,-23.4057295],[-51.8757064,-23.4058846],[-51.8759414,-23.4064875],[-51.875711,-23.4065836],[-51.8753354,-23.4060763],[-51.8751049,-23.4061723],[-51.8754553,-23.4067509],[-51.8752125,-23.4069063],[-51.8748238,-23.4063635],[-51.8745937,-23.4065069],[-51.8749437,-23.4070263],[-51.8747009,-23.4071935],[-51.8743128,-23.4067454],[-51.8741082,-23.4068651],[-51.8744324,-23.4073608],[-51.8741254,-23.4075284],[-51.8737888,-23.4071038],[-51.8736226,-23.4071995],[-51.8738699,-23.4077194],[-51.8736008,-23.407792],[-51.873238,-23.4072727],[-51.8756892,-23.4052213],[-51.8755209,-23.405009],[-51.8727744,-23.4070502],[-51.8743309,-23.409494],[-51.8740622,-23.4096376],[-51.8728176,-23.4077727],[-51.8725236,-23.4079639],[-51.8737553,-23.4098171],[-51.8734994,-23.4099488],[-51.8726034,-23.40839],[-51.8722452,-23.4085697],[-51.8731665,-23.4100691],[-51.8729877,-23.4102242],[-51.8718977,-23.4084413],[-51.8727909,-23.407607],[-51.8725709,-23.4073476],[-51.8714994,-23.4083843],[-51.8713705,-23.4083021],[-51.8728103,-23.4105687],[-51.8729307,-23.4113144],[-51.8735625,-23.4117374],[-51.8747029,-23.413366],[-51.8746177,-23.4134575]]]}},
{"type":"Feature","properties":{"id":8,"status":"Aprovado","bacia":"Ribeirão Sarandi","area_ha":3.44},"geometry":{"type":"Polygon","coordinates":[[[-51.8749656,-23.4132875],[-51.8747232,-23.413514],[-51.874904,-23.4136907],[-51.8746897,-23.4142842],[-51.8743573,-23.4144875],[-51.8743623,-23.4133027],[-51.8740415,-23.4133164],[-51.8740243,-23.4146197],[-51.8737026,-23.414503],[-51.8737069,-23.4131998],[-51.8744772,-23.4132073],[-51.874386,-23.4130064],[-51.8740394,-23.4129965],[-51.8733395,-23.4119934],[-51.8734025,-23.4118035],[-51.8732221,-23.4116979],[-51.8730436,-23.4118884],[-51.873628,-23.4129159],[-51.8732816,-23.4129415],[-51.8728931,-23.4124342],[-51.8726757,-23.4125539],[-51.8729735,-23.4129432],[-51.8727555,-23.41298],[-51.8729109,-23.4131924],[-51.8734503,-23.4132249],[-51.8732538,-23.4145766],[-51.8738473,-23.4150353],[-51.8749349,-23.4144724],[-51.8751739,-23.4137365],[-51.8763506,-23.4130665],[-51.8763232,-23.412806],[-51.8749656,-23.4132875]]]}},
{"type":"Feature","properties":{"id":9,"status":"Aprovado","bacia":"Ribeirão Sarandi","area_ha":5.73},"geometry":{"type":"Polygon","coordinates":[[[-51.8681561,-23.4144036],[-51.8700698,-23.414547],[-51.8701062,-23.4142151],[-51.8702179,-23.4136221],[-51.8704582,-23.4130757],[-51.8708661,-23.4126351],[-51.8713131,-23.4122772],[-51.8710805,-23.4120415],[-51.8707097,-23.4122687],[-51.8703014,-23.412662],[-51.8699582,-23.4131852],[-51.8695921,-23.4141231],[-51.8692712,-23.4141249],[-51.8695475,-23.4131993],[-51.8701833,-23.4122598],[-51.8708094,-23.411818],[-51.8708594,-23.4116163],[-51.8706541,-23.4116174],[-51.8706751,-23.4109064],[-51.8704311,-23.410896],[-51.8703986,-23.4118084],[-51.8697985,-23.4123093],[-51.8692783,-23.41326],[-51.8694385,-23.4122284],[-51.8699006,-23.4122258],[-51.8700534,-23.4120354],[-51.8700944,-23.4104476],[-51.8698248,-23.4104491],[-51.8697187,-23.4118951],[-51.8693723,-23.4119207],[-51.8694278,-23.4105935],[-51.8692349,-23.4105472],[-51.8689761,-23.4141621],[-51.8686036,-23.4141286],[-51.868802,-23.4110946],[-51.8685196,-23.4110962],[-51.8681561,-23.4144036]]]}},
{"type":"Feature","properties":{"id":10,"status":"Aprovado","bacia":"Ribeirão Maringá","area_ha":7.4},"geometry":{"type":"Polygon","coordinates":[[[-51.9793452,-23.4094311],[-51.9781404,-23.4101106],[-51.9761089,-23.4114626],[-51.97627,-23.4116727],[-51.9780493,-23.410629],[-51.9796885,-23.4130387],[-51.9812506,-23.4121141],[-51.9793452,-23.4094311]]]}},
{"type":"Feature","properties":{"id":11,"status":"Aprovado","bacia":"Ribeirão Pinguim","area_ha":2.26},"geometry":{"type":"Polygon","coordinates":[[[-51.8952924,-23.4297898],[-51.8949632,-23.4299018],[-51.8957547,-23.4319473],[-51.8953975,-23.4321995],[-51.8954643,-23.4326709],[-51.8956781,-23.4329599],[-51.8965094,-23.4324812],[-51.8976251,-23.4320069],[-51.8972678,-23.4315866],[-51.896098,-23.432112],[-51.8952924,-23.4297898]]]}},
{"type":"Feature","properties":{"id":12,"status":"Aprovado","bacia":"Ribeirão Morangueiro","area_ha":4.55},"geometry":{"type":"Polygon","coordinates":[[[-51.9167882,-23.3820092],[-51.9157695,-23.3831881],[-51.9155507,-23.3830946],[-51.9152832,-23.3833924],[-51.9168741,-23.385172],[-51.9178326,-23.384574],[-51.9190649,-23.3827423],[-51.9187173,-23.3825903],[-51.9184253,-23.3830422],[-51.9177264,-23.3822051],[-51.9174204,-23.3824913],[-51.9181836,-23.3833635],[-51.9179925,-23.383566],[-51.9173062,-23.3826934],[-51.9170903,-23.3830145],[-51.9178534,-23.3838749],[-51.9176629,-23.3841603],[-51.9169119,-23.3832051],[-51.9166187,-23.383503],[-51.917382,-23.3843752],[-51.9168581,-23.38471],[-51.9159904,-23.3835778],[-51.9170854,-23.3823037],[-51.9167882,-23.3820092]]]}},
{"type":"Feature","properties":{"id":13,"status":"Aprovado","bacia":"Ribeirão Maringá","area_ha":26.61},"geometry":{"type":"Polygon","coordinates":[[[-51.9282831,-23.3765656],[-51.9289626,-23.3762014],[-51.9294774,-23.3761418],[-51.929516,-23.3754623],[-51.9290116,-23.3755849],[-51.9287559,-23.3760402],[-51.9279573,-23.376359],[-51.9273199,-23.3772977],[-51.9257867,-23.3785442],[-51.9250027,-23.3802312],[-51.9237894,-23.3829395],[-51.9230364,-23.3854082],[-51.9248105,-23.3858243],[-51.9256071,-23.3857914],[-51.9264232,-23.3856688],[-51.9265668,-23.3847967],[-51.9270642,-23.3824289],[-51.9275545,-23.3799421],[-51.9282831,-23.3765656]]]}},
{"type":"Feature","properties":{"id":14,"status":"Realizada","bacia":"Ribeirão Maringá","area_ha":7.05},"geometry":{"type":"Polygon","coordinates":[[[-51.970454,-23.417938],[-51.970457,-23.4183408],[-51.9698411,-23.418392],[-51.9679172,-23.4186409],[-51.9657376,-23.4190335],[-51.963962,-23.4184758],[-51.9618524,-23.4178964],[-51.9617807,-23.4186314],[-51.966436,-23.41974],[-51.9707177,-23.4188841],[-51.970454,-23.417938]]]}},
{"type":"Feature","properties":{"id":15,"status":"Aprovado","bacia":"Ribeirão Morangueiro","area_ha":4.88},"geometry":{"type":"Polygon","coordinates":[[[-51.9283465,-23.4125191],[-51.9249656,-23.4137002],[-51.9255927,-23.4152603],[-51.9276168,-23.4146559],[-51.9272528,-23.4139946],[-51.9260484,-23.4143335],[-51.9260208,-23.4140493],[-51.9285317,-23.4132999],[-51.9283465,-23.4125191]]]}},
{"type":"Feature","properties":{"id":16,"status":"Aprovado","bacia":"Córrego Cleópatra","area_ha":6.17},"geometry":{"type":"Polygon","coordinates":[[[-51.9422535,-23.4601862],[-51.9413297,-23.4603102],[-51.9408045,-23.465929],[-51.9418064,-23.4659466],[-51.9422535,-23.4601862]]]}},
{"type":"Feature","properties":{"id":17,"status":"Aprovado","bacia":"Córrego Cleópatra","area_ha":2.4},"geometry":{"type":"Polygon","coordinates":[[[-51.9426273,-23.4585727],[-51.9406252,-23.4587507],[-51.9409942,-23.4600753],[-51.9421491,-23.4599499],[-51.9426273,-23.4585727]]]}},
{"type":"Feature","properties":{"id":18,"status":"Aprovado","bacia":"Córrego Cleópatra","area_ha":19.01},"geometry":{"type":"Polygon","coordinates":[[[-51.9374436,-23.448285],[-51.9375463,-23.4482725],[-51.9396015,-23.4483786],[-51.9448172,-23.4487026],[-51.9451026,-23.4491036],[-51.9453602,-23.4492206],[-51.9457169,-23.4488156],[-51.9483378,-23.4490129],[-51.9482446,-23.4503404],[-51.9523816,-23.4506469],[-51.9528646,-23.4499568],[-51.952221,-23.4497475],[-51.9517879,-23.450224],[-51.9488841,-23.4499811],[-51.9516798,-23.4494783],[-51.9517778,-23.4488143],[-51.9448106,-23.4477667],[-51.9387475,-23.4474479],[-51.9390726,-23.4462138],[-51.9385573,-23.4459799],[-51.9378242,-23.4476193],[-51.9376444,-23.4476203],[-51.9374436,-23.448285]]]}},
{"type":"Feature","properties":{"id":19,"status":"Aprovado","bacia":"Ribeirão Pinguim","area_ha":23.84},"geometry":{"type":"Polygon","coordinates":[[[-51.9179271,-23.4596559],[-51.9175367,-23.4589119],[-51.9170395,-23.4594479],[-51.9164111,-23.4595701],[-51.9148728,-23.4599701],[-51.9137154,-23.4597281],[-51.9122595,-23.4590376],[-51.9133218,-23.4585101],[-51.9131534,-23.4582978],[-51.9117055,-23.4587683],[-51.9106431,-23.4574121],[-51.9111551,-23.4571722],[-51.9117264,-23.4580811],[-51.9121495,-23.4579838],[-51.9115139,-23.4570516],[-51.9118213,-23.4569432],[-51.9124951,-23.4578159],[-51.9127515,-23.4577552],[-51.9121288,-23.4568348],[-51.9123206,-23.4567152],[-51.9129948,-23.4576472],[-51.9133535,-23.4575266],[-51.9127051,-23.4566063],[-51.9129228,-23.4565102],[-51.9133504,-23.4570764],[-51.9137216,-23.4568965],[-51.9133324,-23.4563183],[-51.9136142,-23.4562219],[-51.9140812,-23.4568944],[-51.9143361,-23.4566204],[-51.9138423,-23.4557703],[-51.9101022,-23.4571783],[-51.9099082,-23.4569899],[-51.9135961,-23.4554519],[-51.9134014,-23.4551568],[-51.9100461,-23.4564915],[-51.9098388,-23.4562202],[-51.9134761,-23.4548128],[-51.9133327,-23.4545056],[-51.9092719,-23.455951],[-51.9091676,-23.4557265],[-51.9134972,-23.4541493],[-51.9141859,-23.4553181],[-51.9148141,-23.4551723],[-51.913711,-23.4534964],[-51.909087,-23.4552057],[-51.908842,-23.455065],[-51.9137231,-23.4533779],[-51.9135016,-23.4529171],[-51.9086722,-23.4546395],[-51.9074453,-23.4554996],[-51.907447,-23.4557484],[-51.9085367,-23.4573652],[-51.9091009,-23.4572434],[-51.9078693,-23.4555327],[-51.9082536,-23.4554001],[-51.9096534,-23.4572876],[-51.9106224,-23.4581349],[-51.9116829,-23.4592187],[-51.9130888,-23.4601108],[-51.9149788,-23.4604433],[-51.9167367,-23.4602198],[-51.9165991,-23.4607537],[-51.9169213,-23.4609177],[-51.9172635,-23.4602641],[-51.9180591,-23.4601764],[-51.9179271,-23.4596559]]]}},
{"type":"Feature","properties":{"id":20,"status":"Aprovado","bacia":"Ribeirão Pinguim","area_ha":5.39},"geometry":{"type":"Polygon","coordinates":[[[-51.8877198,-23.4322941],[-51.8888337,-23.4356425],[-51.8894081,-23.4353483],[-51.8884134,-23.43214],[-51.8886305,-23.4316917],[-51.889317,-23.4311312],[-51.8900736,-23.4306269],[-51.8899915,-23.4302764],[-51.889739,-23.4299521],[-51.8883013,-23.430837],[-51.8876498,-23.4310822],[-51.8877198,-23.4322941]]]}},
{"type":"Feature","properties":{"id":21,"status":"Aprovado","bacia":"Ribeirão Morangueiro","area_ha":19.46},"geometry":{"type":"Polygon","coordinates":[[[-51.8903311,-23.4292201],[-51.8907215,-23.4299998],[-51.9011826,-23.4239094],[-51.9006661,-23.4234622],[-51.8971369,-23.4255795],[-51.8950001,-23.4228432],[-51.8947054,-23.4229278],[-51.8939932,-23.4220196],[-51.8927787,-23.4227967],[-51.8934018,-23.423812],[-51.8927874,-23.424088],[-51.8921514,-23.4230609],[-51.8910005,-23.4237428],[-51.8917526,-23.4248521],[-51.891278,-23.4249141],[-51.8905661,-23.4240533],[-51.8895421,-23.4245093],[-51.8904892,-23.4259967],[-51.8947094,-23.4235201],[-51.8963176,-23.4259278],[-51.8904868,-23.429468],[-51.8903311,-23.4292201]]]}},
{"type":"Feature","properties":{"id":22,"status":"Realizada","bacia":"Ribeirão Morangueiro","area_ha":76.56},"geometry":{"type":"Polygon","coordinates":[[[-51.8887603,-23.4189573],[-51.8886876,-23.4195975],[-51.8884123,-23.4206653],[-51.8899594,-23.4216517],[-51.8893737,-23.4223659],[-51.888455,-23.4232241],[-51.8892858,-23.4245937],[-51.8946825,-23.4214352],[-51.8950243,-23.4226179],[-51.8966562,-23.4247411],[-51.9007924,-23.4212579],[-51.8985647,-23.4183799],[-51.9015461,-23.418813],[-51.9016464,-23.418457],[-51.8982494,-23.4173155],[-51.8970706,-23.417654],[-51.896579,-23.4170881],[-51.8943521,-23.4181198],[-51.8934945,-23.4165845],[-51.8899978,-23.4158699],[-51.8890437,-23.4190979],[-51.8887603,-23.4189573]]]}},
{"type":"Feature","properties":{"id":23,"status":"Aprovado","bacia":"Ribeirão Morangueiro","area_ha":10.71},"geometry":{"type":"Polygon","coordinates":[[[-51.8996968,-23.4130303],[-51.8968882,-23.4153448],[-51.8977278,-23.4161101],[-51.8995914,-23.4145236],[-51.9004724,-23.4138196],[-51.9006277,-23.4140082],[-51.8976404,-23.4164778],[-51.8982212,-23.4169365],[-51.9025616,-23.4133336],[-51.9020206,-23.4130524],[-51.9009213,-23.4137577],[-51.9007916,-23.4135571],[-51.9017229,-23.4126987],[-51.9014394,-23.4125463],[-51.9004307,-23.4133459],[-51.9002748,-23.4130743],[-51.9015396,-23.4121785],[-51.9013059,-23.4117889],[-51.8998503,-23.4129464],[-51.8996968,-23.4130303]]]}},
{"type":"Feature","properties":{"id":24,"status":"Aprovado","bacia":"Ribeirão Morangueiro","area_ha":10.52},"geometry":{"type":"Polygon","coordinates":[[[-51.8814064,-23.4037987],[-51.8812281,-23.4040248],[-51.8819532,-23.4049567],[-51.8884361,-23.4011643],[-51.8877877,-23.4001728],[-51.8814064,-23.4037987]]]}},
{"type":"Feature","properties":{"id":25,"status":"Aprovado","bacia":"Ribeirão Morangueiro","area_ha":17.01},"geometry":{"type":"Polygon","coordinates":[[[-51.890013,-23.4027903],[-51.8912815,-23.4043588],[-51.8940683,-23.4026368],[-51.8931524,-23.4019549],[-51.8939705,-23.4014527],[-51.8931957,-23.4007581],[-51.8923387,-23.4012132],[-51.8912924,-23.4002358],[-51.8929416,-23.3992431],[-51.8927092,-23.3990311],[-51.8912642,-23.3998569],[-51.8919012,-23.3991305],[-51.8927845,-23.3987819],[-51.8932882,-23.3992411],[-51.8936459,-23.3989784],[-51.8930872,-23.3979864],[-51.8913079,-23.3987193],[-51.8905716,-23.3999437],[-51.8889136,-23.4015526],[-51.8884001,-23.4015318],[-51.8826063,-23.4047279],[-51.8830438,-23.4048795],[-51.8885429,-23.4017798],[-51.889005,-23.4017772],[-51.8906513,-23.4003461],[-51.8909745,-23.4006878],[-51.890362,-23.4012245],[-51.8908563,-23.402205],[-51.890013,-23.4027903]]]}},
{"type":"Feature","properties":{"id":26,"status":"Aprovado","bacia":"Ribeirão Maringá","area_ha":23.73},"geometry":{"type":"Polygon","coordinates":[[[-51.9445244,-23.3893909],[-51.9422778,-23.3893334],[-51.9424113,-23.3882426],[-51.9419229,-23.3881508],[-51.9417395,-23.3894314],[-51.9406617,-23.3894853],[-51.9406912,-23.3882056],[-51.9401771,-23.3881139],[-51.9399945,-23.3895249],[-51.9395199,-23.3895633],[-51.9395884,-23.3883544],[-51.9392284,-23.3882736],[-51.939109,-23.389542],[-51.9387888,-23.3896269],[-51.9387825,-23.3887384],[-51.9380121,-23.3886956],[-51.9378922,-23.3880803],[-51.9366465,-23.3879693],[-51.936589,-23.3889292],[-51.9384259,-23.3891315],[-51.9384289,-23.389558],[-51.9379802,-23.3896317],[-51.9379573,-23.3900347],[-51.9383167,-23.3900325],[-51.9387244,-23.3914281],[-51.9379519,-23.3916626],[-51.9369712,-23.3892878],[-51.9367173,-23.3893123],[-51.9368714,-23.3897817],[-51.9364721,-23.3897887],[-51.9363039,-23.3891582],[-51.9360167,-23.3892563],[-51.9361498,-23.3900409],[-51.9369274,-23.3900199],[-51.9373057,-23.3909796],[-51.9374826,-23.3914384],[-51.9371393,-23.3915925],[-51.9366069,-23.3903736],[-51.9333705,-23.3905768],[-51.9332515,-23.3911092],[-51.9357103,-23.3923771],[-51.9375876,-23.3917256],[-51.9377207,-23.3920198],[-51.9363758,-23.3924822],[-51.9364038,-23.3928254],[-51.9389095,-23.392197],[-51.9376812,-23.3927494],[-51.9380762,-23.3938131],[-51.9397648,-23.3933529],[-51.9419418,-23.392629],[-51.9429907,-23.3921251],[-51.9429628,-23.3918054],[-51.9420272,-23.3920124],[-51.9410234,-23.3916275],[-51.9394481,-23.3921227],[-51.9386242,-23.3899596],[-51.9444376,-23.389818],[-51.9445244,-23.3893909]]]}},
{"type":"Feature","properties":{"id":27,"status":"Aprovado","bacia":"Ribeirão Maringá","area_ha":5.63},"geometry":{"type":"Polygon","coordinates":[[[-51.9438537,-23.416087],[-51.9436266,-23.4130317],[-51.9421095,-23.4127092],[-51.9422359,-23.4160493],[-51.9438537,-23.416087]]]}},
{"type":"Feature","properties":{"id":28,"status":"Aprovado","bacia":"Ribeirão Maringá","area_ha":7.36},"geometry":{"type":"Polygon","coordinates":[[[-51.9484408,-23.4184523],[-51.9498523,-23.4147711],[-51.9485403,-23.4144],[-51.947733,-23.4164189],[-51.9467071,-23.4165673],[-51.9463289,-23.4175411],[-51.9484408,-23.4184523]]]}},
{"type":"Feature","properties":{"id":29,"status":"Aprovado","bacia":"Ribeirão Morangueiro","area_ha":9.95},"geometry":{"type":"Polygon","coordinates":[[[-51.904076,-23.3858019],[-51.9036767,-23.3848072],[-51.9001881,-23.3863693],[-51.8982267,-23.387308],[-51.8965594,-23.3885269],[-51.8965665,-23.3892344],[-51.8974701,-23.3889542],[-51.904076,-23.3858019]]]}},
{"type":"Feature","properties":{"id":30,"status":"Aprovado","bacia":"Córrego Cleópatra","area_ha":0.97},"geometry":{"type":"Polygon","coordinates":[[[-51.9268701,-23.4180339],[-51.9265308,-23.4181603],[-51.9258836,-23.4183241],[-51.9251587,-23.4183935],[-51.9235082,-23.418267],[-51.9234005,-23.418475],[-51.9252634,-23.4186772],[-51.9269619,-23.4183058],[-51.9268701,-23.4180339]]]}},
{"type":"Feature","properties":{"id":31,"status":"Aprovado","bacia":"Bandeirantes do Sul","area_ha":4.94},"geometry":{"type":"Polygon","coordinates":[[[-51.9875553,-23.4104223],[-51.9873241,-23.4101474],[-51.9890439,-23.408904],[-51.9888932,-23.4087148],[-51.9872575,-23.4097551],[-51.9841558,-23.4063042],[-51.9839529,-23.406559],[-51.9870596,-23.4099985],[-51.9860132,-23.410984],[-51.9849149,-23.4100076],[-51.9837544,-23.4110456],[-51.9839613,-23.4112576],[-51.9849201,-23.4107184],[-51.9858618,-23.4115887],[-51.9861832,-23.4113976],[-51.9875553,-23.4104223]]]}},
{"type":"Feature","properties":{"id":32,"status":"Não aprovado","bacia":"","area_ha":22.46},"geometry":{"type":"Polygon","coordinates":[[[-51.9268558,-23.3986546],[-51.9270064,-23.3981782],[-51.9270064,-23.3981747],[-51.9270589,-23.3979891],[-51.9270589,-23.3979365],[-51.9270966,-23.3979015],[-51.9271395,-23.3975478],[-51.9269573,-23.3970714],[-51.9262638,-23.3966231],[-51.9259696,-23.3960697],[-51.9255493,-23.3958595],[-51.9246316,-23.3943254],[-51.923693,-23.3934638],[-51.9230975,-23.3940452],[-51.9188524,-23.3954882],[-51.9189785,-23.3958805],[-51.9235458,-23.3944305],[-51.9238331,-23.3947737],[-51.9193218,-23.3963289],[-51.9193568,-23.3966301],[-51.9241063,-23.395089],[-51.9244495,-23.3954392],[-51.9195599,-23.3971485],[-51.9201484,-23.3985635],[-51.9199522,-23.3987386],[-51.9200013,-23.3990469],[-51.9202604,-23.3990398],[-51.9206107,-23.3998384],[-51.9209539,-23.3996703],[-51.9200923,-23.3973096],[-51.9244005,-23.3958805],[-51.9245686,-23.3962588],[-51.9208138,-23.3975197],[-51.9208419,-23.397898],[-51.9251991,-23.396518],[-51.9255143,-23.3968402],[-51.9211851,-23.3983113],[-51.9212762,-23.3986896],[-51.9246597,-23.3975407],[-51.9256789,-23.3970854],[-51.9259031,-23.3974777],[-51.9211116,-23.399299],[-51.9211256,-23.3996633],[-51.9260432,-23.397912],[-51.9262113,-23.3983323],[-51.921742,-23.3998174],[-51.9217841,-23.4002097],[-51.9252166,-23.399187],[-51.9268558,-23.3986546]]]}},
{"type":"Feature","properties":{"id":33,"status":"Não aprovado","bacia":"","area_ha":5.51},"geometry":{"type":"Polygon","coordinates":[[[-51.8961391,-23.4091745],[-51.8952355,-23.4097209],[-51.8955437,-23.4100081],[-51.8960901,-23.4096929],[-51.8964053,-23.4102113],[-51.8993125,-23.4083759],[-51.8992774,-23.4088173],[-51.8975332,-23.409861],[-51.8977713,-23.4101833],[-51.8992424,-23.4092376],[-51.8992424,-23.40977],[-51.8995576,-23.4096509],[-51.8996207,-23.4082148],[-51.8997608,-23.4077735],[-51.8995576,-23.4076264],[-51.8993615,-23.4079977],[-51.8991093,-23.4082428],[-51.8984929,-23.4077665],[-51.8970988,-23.4085861],[-51.8966505,-23.4088453],[-51.8966505,-23.4088453],[-51.8961391,-23.4091745]]]}},
{"type":"Feature","properties":{"id":34,"status":"Não aprovado","bacia":"","area_ha":27.45},"geometry":{"type":"Polygon","coordinates":[[[-51.9290309,-23.44161],[-51.9284564,-23.4410601],[-51.9275458,-23.4411687],[-51.9274967,-23.4404612],[-51.9259836,-23.4406013],[-51.9257525,-23.4404402],[-51.9244495,-23.4417221],[-51.9222219,-23.4421004],[-51.9217525,-23.4425838],[-51.9204216,-23.4431652],[-51.9205477,-23.4440899],[-51.9217876,-23.4432703],[-51.9229574,-23.4458552],[-51.9268523,-23.4440759],[-51.9295563,-23.4425908],[-51.9290309,-23.44161]]]}},
{"type":"Feature","properties":{"id":35,"status":"Não aprovado","bacia":"","area_ha":2.95},"geometry":{"type":"Polygon","coordinates":[[[-51.9077353,-23.4216804],[-51.9072064,-23.4216209],[-51.906758,-23.4215088],[-51.9056092,-23.4218941],[-51.9029122,-23.4227837],[-51.9013851,-23.4238135],[-51.9015042,-23.4240447],[-51.9028632,-23.423134],[-51.9040961,-23.4226787],[-51.9049612,-23.4228503],[-51.9055146,-23.4225841],[-51.9066425,-23.4218346],[-51.9076092,-23.4221428],[-51.9077353,-23.4216804]]]}},
{"type":"Feature","properties":{"id":36,"status":"Não aprovado","bacia":"","area_ha":53.93},"geometry":{"type":"Polygon","coordinates":[[[-51.924439,-23.450468],[-51.923735,-23.4504961],[-51.9229714,-23.4497885],[-51.9201974,-23.4510495],[-51.9186913,-23.451757],[-51.9176755,-23.4522193],[-51.9174023,-23.4524225],[-51.9175915,-23.4528638],[-51.9159313,-23.4500057],[-51.9147264,-23.4483525],[-51.9140679,-23.4472247],[-51.9133604,-23.446377],[-51.9108946,-23.4477991],[-51.9107194,-23.4477851],[-51.9104673,-23.4478271],[-51.9106844,-23.4482544],[-51.9118613,-23.4481844],[-51.9124217,-23.4493402],[-51.914194,-23.4485556],[-51.9145723,-23.449081],[-51.9135495,-23.4496204],[-51.9136406,-23.4498796],[-51.9145793,-23.4495083],[-51.9146984,-23.4498376],[-51.9127019,-23.4508533],[-51.912856,-23.4512736],[-51.9149646,-23.4502018],[-51.9158612,-23.4514347],[-51.9141625,-23.4523104],[-51.9143516,-23.4528148],[-51.916215,-23.4519671],[-51.9167894,-23.4527377],[-51.914884,-23.4536063],[-51.9143866,-23.4537184],[-51.9147229,-23.4543559],[-51.9152763,-23.4546431],[-51.9155495,-23.4551335],[-51.914863,-23.4554137],[-51.9141064,-23.4556658],[-51.9142675,-23.455932],[-51.9146458,-23.455806],[-51.9159418,-23.4570949],[-51.9155215,-23.4571369],[-51.9150311,-23.4563453],[-51.9145127,-23.4563313],[-51.9150731,-23.4573471],[-51.913581,-23.4579916],[-51.9136581,-23.4584189],[-51.9156055,-23.4577324],[-51.9164181,-23.4578374],[-51.9167824,-23.4577534],[-51.9172657,-23.4582297],[-51.9178752,-23.4583208],[-51.9185267,-23.4548112],[-51.919045,-23.454461],[-51.9215249,-23.4533542],[-51.9219662,-23.4539006],[-51.923073,-23.4533331],[-51.9227718,-23.4526677],[-51.9233252,-23.4525275],[-51.9248943,-23.4514558],[-51.924439,-23.450468]]]}},
{"type":"Feature","properties":{"id":37,"status":"Não aprovado","bacia":"","area_ha":59.83},"geometry":{"type":"Polygon","coordinates":[[[-51.91925,-23.4339552],[-51.91932,-23.4332547],[-51.9185494,-23.4328204],[-51.9194461,-23.4314754],[-51.9208892,-23.4310411],[-51.9177789,-23.4233704],[-51.9139401,-23.4246734],[-51.9117545,-23.4254439],[-51.9108718,-23.4248555],[-51.9100032,-23.4252618],[-51.9108858,-23.4259343],[-51.9123989,-23.4274054],[-51.913842,-23.4281619],[-51.9147807,-23.4289465],[-51.916616,-23.4299272],[-51.9143674,-23.430964],[-51.9164899,-23.4328274],[-51.9163218,-23.4346277],[-51.9166721,-23.434999],[-51.9169733,-23.4349849],[-51.917933,-23.433654],[-51.91925,-23.4339552]]]}},
{"type":"Feature","properties":{"id":38,"status":"Não aprovado","bacia":"","area_ha":48.36},"geometry":{"type":"Polygon","coordinates":[[[-51.9461283,-23.4255417],[-51.9467941,-23.4243748],[-51.9477846,-23.4235575],[-51.9487978,-23.4217935],[-51.9487451,-23.4205439],[-51.9489062,-23.4194861],[-51.9455472,-23.4195982],[-51.9455822,-23.4192129],[-51.9481321,-23.4192059],[-51.9487766,-23.4191989],[-51.9487976,-23.4187646],[-51.9454702,-23.4188171],[-51.9435788,-23.4188801],[-51.9433266,-23.4185999],[-51.9417259,-23.41867],[-51.9416839,-23.4183337],[-51.9428292,-23.4183688],[-51.9428923,-23.4181586],[-51.9414527,-23.4181166],[-51.9414632,-23.418719],[-51.9400167,-23.4187435],[-51.9399816,-23.4190237],[-51.9431164,-23.4190272],[-51.943169,-23.4195912],[-51.9424089,-23.4197032],[-51.9423179,-23.4199729],[-51.9431234,-23.4199449],[-51.9431585,-23.4206174],[-51.9417294,-23.420698],[-51.9416734,-23.4207855],[-51.9418345,-23.4208381],[-51.9418765,-23.4211113],[-51.9431199,-23.4210973],[-51.943225,-23.4216191],[-51.9423354,-23.4216927],[-51.9422618,-23.4219624],[-51.943155,-23.4219764],[-51.943134,-23.4224878],[-51.9423073,-23.4225368],[-51.9422303,-23.4228906],[-51.943169,-23.4229046],[-51.943218,-23.4233809],[-51.9424019,-23.423472],[-51.9422933,-23.4238678],[-51.9430814,-23.4238748],[-51.9432215,-23.4243476],[-51.9423914,-23.4245088],[-51.9423003,-23.424803],[-51.943134,-23.4247785],[-51.943176,-23.4250937],[-51.9429798,-23.4256401],[-51.9431024,-23.4258818],[-51.9430744,-23.4267224],[-51.9428537,-23.4273739],[-51.9430674,-23.4277872],[-51.9435122,-23.4280394],[-51.9438345,-23.4280394],[-51.9455167,-23.4276244],[-51.9460114,-23.4271346],[-51.9465799,-23.426712],[-51.9463976,-23.4263243],[-51.9459558,-23.4260025],[-51.9461283,-23.4255417]]]}},
{"type":"Feature","properties":{"id":39,"status":"Não aprovado","bacia":"","area_ha":48.87},"geometry":{"type":"Polygon","coordinates":[[[-51.9608254,-23.4216139],[-51.9600549,-23.4209344],[-51.958836,-23.420346],[-51.9566784,-23.4202129],[-51.956132,-23.4206402],[-51.9563772,-23.421747],[-51.9556486,-23.4230499],[-51.9552633,-23.4247662],[-51.9542336,-23.4246751],[-51.9531898,-23.4263774],[-51.9529096,-23.4269938],[-51.9571968,-23.4286751],[-51.9589761,-23.4288432],[-51.9597186,-23.428633],[-51.9606293,-23.4276523],[-51.9598447,-23.4276383],[-51.958892,-23.4268958],[-51.9597466,-23.4270639],[-51.9599288,-23.4264474],[-51.958948,-23.4261252],[-51.9597046,-23.4238135],[-51.9615399,-23.4240657],[-51.9620023,-23.4225246],[-51.9608254,-23.4216139]]]}},
{"type":"Feature","properties":{"id":40,"status":"Não aprovado","bacia":"","area_ha":46.97},"geometry":{"type":"Polygon","coordinates":[[[-51.9262207,-23.3866716],[-51.9253381,-23.3866016],[-51.9249458,-23.3860692],[-51.9240912,-23.3859431],[-51.9209248,-23.3853967],[-51.9213031,-23.384486],[-51.9209949,-23.3839676],[-51.9193557,-23.3827908],[-51.9175063,-23.3852286],[-51.9174783,-23.3856068],[-51.9185571,-23.3861813],[-51.9194678,-23.3868257],[-51.9195658,-23.3879466],[-51.9227462,-23.3916313],[-51.9230404,-23.3928642],[-51.9247777,-23.3936768],[-51.9262207,-23.3866716]]]}},
{"type":"Feature","properties":{"id":41,"status":"Não aprovado","bacia":"","area_ha":6.66},"geometry":{"type":"Polygon","coordinates":[[[-51.9267799,-23.4309854],[-51.925637,-23.4310057],[-51.9250584,-23.4320908],[-51.9277069,-23.4336301],[-51.9292386,-23.4326339],[-51.9267799,-23.4309854]]]}},
{"type":"Feature","properties":{"id":42,"status":"Não aprovado","bacia":"","area_ha":7.63},"geometry":{"type":"Polygon","coordinates":[[[-51.9270522,-23.4280089],[-51.9263555,-23.4268637],[-51.9246991,-23.4267789],[-51.9235449,-23.4272725],[-51.9246419,-23.4290914],[-51.926142,-23.4298668],[-51.9270522,-23.4280089]]]}},
{"type":"Feature","properties":{"id":43,"status":"Não aprovado","bacia":"","area_ha":80.88},"geometry":{"type":"Polygon","coordinates":[[[-51.939623,-23.4214974],[-51.939426,-23.4205791],[-51.9390559,-23.4200404],[-51.9395177,-23.419037],[-51.9394093,-23.4182129],[-51.9355103,-23.4180064],[-51.9316296,-23.4183271],[-51.9288402,-23.4196553],[-51.9290505,-23.4203842],[-51.9290826,-23.4207897],[-51.928885,-23.4218726],[-51.9290416,-23.4233185],[-51.9312709,-23.4236027],[-51.9322295,-23.4244759],[-51.9324185,-23.4263543],[-51.9338955,-23.4259263],[-51.9372361,-23.4258793],[-51.9388774,-23.4258965],[-51.9393299,-23.4256504],[-51.9396847,-23.4240121],[-51.9390171,-23.4228532],[-51.939623,-23.4214974]]]}},
{"type":"Feature","properties":{"id":44,"status":"Não aprovado","bacia":"","area_ha":154.82},"geometry":{"type":"Polygon","coordinates":[[[-51.9438828,-23.3973551],[-51.9417897,-23.3985713],[-51.9369474,-23.4000779],[-51.9300478,-23.4026731],[-51.9297409,-23.4027434],[-51.9238845,-23.4052244],[-51.9230422,-23.4060611],[-51.9244026,-23.4065423],[-51.9255368,-23.4095494],[-51.9251253,-23.4113621],[-51.9268906,-23.4109749],[-51.9274679,-23.4116613],[-51.9284034,-23.4112546],[-51.9296641,-23.4099652],[-51.9304881,-23.4095445],[-51.9312877,-23.4094174],[-51.9316446,-23.4088966],[-51.934179,-23.4074529],[-51.9348435,-23.4054528],[-51.9366242,-23.4053834],[-51.9391537,-23.4062489],[-51.9437887,-23.4050076],[-51.943961,-23.4024037],[-51.9451772,-23.4004785],[-51.9467408,-23.3997058],[-51.9461926,-23.397165],[-51.9443496,-23.3973914],[-51.9438828,-23.3973551]]]}},
{"type":"Feature","properties":{"id":45,"status":"Não aprovado","bacia":"","area_ha":67.46},"geometry":{"type":"Polygon","coordinates":[[[-51.9073664,-23.4091325],[-51.9068156,-23.409214],[-51.9063559,-23.4133264],[-51.8990458,-23.4173414],[-51.901639,-23.4182267],[-51.9022178,-23.4191431],[-51.9059447,-23.4214504],[-51.9068347,-23.4213474],[-51.9081096,-23.4217118],[-51.9084333,-23.4225319],[-51.9091537,-23.4224298],[-51.9087419,-23.4211406],[-51.9080946,-23.4202931],[-51.9093973,-23.4192923],[-51.9101649,-23.4199043],[-51.9129332,-23.4184791],[-51.912169,-23.4183661],[-51.9110665,-23.4183921],[-51.9073593,-23.4127579],[-51.9073021,-23.4105859],[-51.9074441,-23.4096457],[-51.9073664,-23.4091325]]]}},
{"type":"Feature","properties":{"id":46,"status":"Não aprovado","bacia":"","area_ha":14.94},"geometry":{"type":"Polygon","coordinates":[[[-51.9891628,-23.4623609],[-51.9882357,-23.4621446],[-51.9864588,-23.4627626],[-51.9825804,-23.4640915],[-51.9815606,-23.4644778],[-51.9810198,-23.4650804],[-51.9817306,-23.4652504],[-51.9863043,-23.4650804],[-51.9893792,-23.4635352],[-51.9891628,-23.4623609]]]}},
{"type":"Feature","properties":{"id":47,"status":"Não aprovado","bacia":"","area_ha":30.06},"geometry":{"type":"Polygon","coordinates":[[[-51.9828122,-23.4450086],[-51.9823795,-23.4435871],[-51.9799073,-23.4435407],[-51.9777904,-23.4438188],[-51.9770642,-23.4439424],[-51.9756271,-23.4441433],[-51.973742,-23.4456267],[-51.9738502,-23.4462448],[-51.9747464,-23.4471873],[-51.9734021,-23.4483307],[-51.9739738,-23.448717],[-51.976477,-23.448238],[-51.976477,-23.44762],[-51.9776822,-23.4472028],[-51.9788256,-23.4464302],[-51.9805253,-23.4461675],[-51.9815606,-23.4459357],[-51.9828122,-23.4450086]]]}},
{"type":"Feature","properties":{"id":48,"status":"Realizada","bacia":"","area_ha":44.61},"geometry":{"type":"Polygon","coordinates":[[[-51.9832294,-23.4224646],[-51.9801236,-23.4231444],[-51.9823795,-23.4209966],[-51.9825495,-23.4204404],[-51.9799845,-23.4192661],[-51.9819933,-23.4179218],[-51.981607,-23.4174118],[-51.9775741,-23.4194669],[-51.9763843,-23.4181072],[-51.9729231,-23.4196678],[-51.9746228,-23.4223719],[-51.9760443,-23.4235462],[-51.9766006,-23.4231753],[-51.9782848,-23.4248132],[-51.9800772,-23.4238089],[-51.9825959,-23.4234689],[-51.9832294,-23.4224646]]]}},
{"type":"Feature","properties":{"id":49,"status":"Não aprovado","bacia":"","area_ha":19.51},"geometry":{"type":"Polygon","coordinates":[[[-51.969261,-23.4137189],[-51.9696937,-23.4137807],[-51.9711307,-23.4184317],[-51.9720578,-23.4183853],[-51.9713779,-23.4167474],[-51.9709453,-23.413348],[-51.970698,-23.4127763],[-51.9695701,-23.4114784],[-51.9689829,-23.4112621],[-51.9640538,-23.4113702],[-51.9651509,-23.4117102],[-51.9651663,-23.4136571],[-51.969261,-23.4137189]]]}},
{"type":"Feature","properties":{"id":50,"status":"Não aprovado","bacia":"","area_ha":90.33},"geometry":{"type":"Polygon","coordinates":[[[-51.950014,-23.4534259],[-51.9486851,-23.4532869],[-51.9491178,-23.4513091],[-51.9489169,-23.4506292],[-51.9483452,-23.4504283],[-51.9474336,-23.4509537],[-51.9443123,-23.4507528],[-51.9442505,-23.4495321],[-51.9378226,-23.448914],[-51.9369882,-23.4499339],[-51.9362465,-23.4512009],[-51.9339133,-23.4535959],[-51.9334188,-23.4553265],[-51.9436015,-23.4556046],[-51.9481289,-23.4555428],[-51.9482061,-23.4548784],[-51.9498131,-23.4547857],[-51.950014,-23.4534259]]]}},
{"type":"Feature","properties":{"id":51,"status":"Não aprovado","bacia":"","area_ha":25.85},"geometry":{"type":"Polygon","coordinates":[[[-51.9337279,-23.4619089],[-51.9328471,-23.4608273],[-51.9286134,-23.4621716],[-51.9253376,-23.4637168],[-51.9235297,-23.4614763],[-51.9225872,-23.4618471],[-51.92234,-23.4621098],[-51.9232053,-23.4632687],[-51.9239006,-23.4630215],[-51.926481,-23.4664054],[-51.9337279,-23.4619089]]]}},
{"type":"Feature","properties":{"id":52,"status":"Não aprovado","bacia":"","area_ha":21.27},"geometry":{"type":"Polygon","coordinates":[[[-51.8865074,-23.4290431],[-51.8847768,-23.4241295],[-51.8836025,-23.4227388],[-51.8810684,-23.4240059],[-51.8830462,-23.4265709],[-51.8842515,-23.4304956],[-51.8865074,-23.4290431]]]}},
{"type":"Feature","properties":{"id":53,"status":"Não aprovado","bacia":"","area_ha":13.66},"geometry":{"type":"Polygon","coordinates":[[[-51.8711793,-23.4083996],[-51.8691706,-23.409883],[-51.8640715,-23.4141013],[-51.8633144,-23.4153993],[-51.867919,-23.4145649],[-51.868089,-23.4114745],[-51.8688307,-23.410841],[-51.8714111,-23.4087396],[-51.8711793,-23.4083996]]]}},
{"type":"Feature","properties":{"id":54,"status":"Não aprovado","bacia":"","area_ha":6.92},"geometry":{"type":"Polygon","coordinates":[[[-51.890803,-23.4045831],[-51.8901927,-23.4036328],[-51.8892347,-23.4021726],[-51.8888947,-23.4025666],[-51.8881608,-23.4035632],[-51.8877358,-23.4047221],[-51.8883616,-23.405966],[-51.890803,-23.4045831]]]}},
{"type":"Feature","properties":{"id":55,"status":"Não aprovado","bacia":"","area_ha":3.71},"geometry":{"type":"Polygon","coordinates":[[[-51.891112,-23.3975834],[-51.8897986,-23.3975139],[-51.8886243,-23.398611],[-51.8898914,-23.399793],[-51.8904553,-23.3994222],[-51.891112,-23.3975834]]]}},
{"type":"Feature","properties":{"id":56,"status":"Não aprovado","bacia":"","area_ha":4.77},"geometry":{"type":"Polygon","coordinates":[[[-51.9055439,-23.3892395],[-51.9046941,-23.3895176],[-51.905992,-23.3935505],[-51.9070273,-23.3931642],[-51.9055439,-23.3892395]]]}},
{"type":"Feature","properties":{"id":57,"status":"Não aprovado","bacia":"","area_ha":5.38},"geometry":{"type":"Polygon","coordinates":[[[-51.9083871,-23.3887296],[-51.9075836,-23.389085],[-51.9089433,-23.3922526],[-51.9070582,-23.3929325],[-51.9070119,-23.3931333],[-51.9059766,-23.393566],[-51.9062393,-23.3938596],[-51.9097932,-23.3925462],[-51.9083871,-23.3887296]]]}},
{"type":"Feature","properties":{"id":58,"status":"Não aprovado","bacia":"","area_ha":14.17},"geometry":{"type":"Polygon","coordinates":[[[-51.9319355,-23.372768],[-51.9295791,-23.3725362],[-51.9291387,-23.3722194],[-51.9281112,-23.3721576],[-51.9281575,-23.3713928],[-51.9279103,-23.3711996],[-51.9272382,-23.372598],[-51.9256698,-23.3755956],[-51.9251985,-23.3773108],[-51.9254998,-23.3777202],[-51.9265351,-23.3767931],[-51.9280416,-23.3754643],[-51.928876,-23.3732392],[-51.9316496,-23.3736101],[-51.9319355,-23.372768]]]}},
{"type":"Feature","properties":{"id":59,"status":"Não aprovado","bacia":"","area_ha":10.54},"geometry":{"type":"Polygon","coordinates":[[[-51.9481289,-23.3793968],[-51.9404339,-23.3763991],[-51.9399086,-23.3768627],[-51.9419482,-23.3777125],[-51.9415928,-23.3783151],[-51.9477735,-23.3804629],[-51.9481289,-23.3793968]]]}},
{"type":"Feature","properties":{"id":60,"status":"Não aprovado","bacia":"","area_ha":5.82},"geometry":{"type":"Polygon","coordinates":[[[-51.8942796,-23.4331687],[-51.89241,-23.4338177],[-51.8936616,-23.4357492],[-51.8954231,-23.4370935],[-51.8960411,-23.437248],[-51.8963811,-23.4366917],[-51.8951758,-23.4360737],[-51.8940942,-23.4338795],[-51.8942796,-23.4331687]]]}},
{"type":"Feature","properties":{"id":61,"status":"Não aprovado","bacia":"","area_ha":12.15},"geometry":{"type":"Polygon","coordinates":[[[-51.9144055,-23.437472],[-51.9140192,-23.4369312],[-51.913293,-23.4349689],[-51.9136638,-23.4349998],[-51.915039,-23.4351388],[-51.9160125,-23.4351079],[-51.9164915,-23.4349534],[-51.9162752,-23.4347371],[-51.9135402,-23.4344899],[-51.9132312,-23.4338872],[-51.9128294,-23.433501],[-51.9104808,-23.4345517],[-51.9089356,-23.4355406],[-51.9097236,-23.4369158],[-51.9113152,-23.4366067],[-51.9111761,-23.4357105],[-51.9127676,-23.4353397],[-51.913432,-23.4377038],[-51.9144055,-23.437472]]]}},
{"type":"Feature","properties":{"id":62,"status":"Não aprovado","bacia":"","area_ha":11.03},"geometry":{"type":"Polygon","coordinates":[[[-51.8999813,-23.4276061],[-51.897679,-23.428456],[-51.8981889,-23.4309128],[-51.905992,-23.4267717],[-51.9056521,-23.4264781],[-51.9011557,-23.428765],[-51.9006767,-23.4275443],[-51.8999813,-23.4276061]]]}},
{"type":"Feature","properties":{"id":63,"status":"Não aprovado","bacia":"","area_ha":8.45},"geometry":{"type":"Polygon","coordinates":[[[-51.9056212,-23.3998239],[-51.9056135,-23.3980084],[-51.9058762,-23.3976298],[-51.9056985,-23.3972976],[-51.9054435,-23.3974289],[-51.9025309,-23.3989432],[-51.9027704,-23.4000016],[-51.9024613,-23.400357],[-51.9030021,-23.40123],[-51.9056212,-23.3998239]]]}},
{"type":"Feature","properties":{"id":64,"status":"Não aprovado","bacia":"","area_ha":19.88},"geometry":{"type":"Polygon","coordinates":[[[-51.9201458,-23.4109801],[-51.9177701,-23.4121312],[-51.9178976,-23.412869],[-51.9183766,-23.4136262],[-51.9177122,-23.4138889],[-51.9177199,-23.4147503],[-51.9180444,-23.4163573],[-51.9192033,-23.4164809],[-51.9197286,-23.4172844],[-51.9221236,-23.4163573],[-51.9213201,-23.4142558],[-51.9201458,-23.4109801]]]}},
{"type":"Feature","properties":{"id":65,"status":"Não aprovado","bacia":"","area_ha":6.07},"geometry":{"type":"Polygon","coordinates":[[[-51.928594,-23.4353474],[-51.9259209,-23.433895],[-51.924677,-23.4348143],[-51.9277597,-23.4368849],[-51.928594,-23.4353474]]]}},
{"type":"Feature","properties":{"id":66,"status":"Não aprovado","bacia":"","area_ha":39.3},"geometry":{"type":"Polygon","coordinates":[[[-51.9521656,-23.425018],[-51.9509141,-23.4247244],[-51.9518103,-23.4242608],[-51.9529073,-23.423241],[-51.95317,-23.4227002],[-51.9518721,-23.4229165],[-51.9492298,-23.4221285],[-51.9484572,-23.4235346],[-51.9470511,-23.4244153],[-51.9464794,-23.4254352],[-51.9468502,-23.4265322],[-51.9465258,-23.4276293],[-51.9473447,-23.4287882],[-51.9491989,-23.4289118],[-51.951903,-23.4300707],[-51.9524283,-23.4292981],[-51.9527219,-23.4272585],[-51.9521656,-23.425018]]]}},
{"type":"Feature","properties":{"id":67,"status":"Não aprovado","bacia":"","area_ha":11.3},"geometry":{"type":"Polygon","coordinates":[[[-51.9696802,-23.3916191],[-51.9689539,-23.3902052],[-51.9640866,-23.3935505],[-51.9649983,-23.3951421],[-51.9696802,-23.3916191]]]}}
]}
