{"type":"FeatureCollection","name":"areas_prio","features":[
{"type":"Feature","properties":{"name":"Área 28"},"geometry":{"type":"Polygon","coordinates":[[[-51.89985,-23.412946],[-51.901306,-23.411789],[-51.90154,-23.412178],[-51.900275,-23.413074],[-51.900431,-23.413346],[-51.901439,-23.412546],[-51.901723,-23.412699],[-51.900792,-23.413557],[-51.900921,-23.413758],[-51.902021,-23.413052],[-51.902562,-23.413334],[-51.898221,-23.416937],[-51.89764,-23.416478],[-51.900628,-23.414008],[-51.900472,-23.41382],[-51.897728,-23.41611],[-51.896888,-23.415345],[-51.899697,-23.41303],[-51.89985,-23.412946]]]}},
{"type":"Feature","properties":{"name":""},"geometry":{"type":"Polygon","coordinates":[[[-51.999224,-23.448703],[-51.999923,-23.447727],[-52.000349,-23.448032],[-51.999753,-23.448972],[-52.005003,-23.452089],[-52.004595,-23.452554],[-51.999422,-23.449377],[-51.998583,-23.450543],[-51.998118,-23.450202],[-51.998777,-23.449013],[-51.997113,-23.44797],[-51.997521,-23.447564],[-51.999224,-23.448703]]]}},
{"type":"Feature","properties":{"name":""},"geometry":{"type":"Polygon","coordinates":[[[-51.954274,-23.449888],[-51.955714,-23.450063],[-51.955646,-23.450419],[-51.954226,-23.450267],[-51.954164,-23.45054],[-51.955577,-23.450668],[-51.955553,-23.450958],[-51.954146,-23.450771],[-51.954122,-23.45102],[-51.956005,-23.451204],[-51.955974,-23.451483],[-51.954047,-23.451323],[-51.954036,-23.451524],[-51.955379,-23.451676],[-51.955348,-23.451913],[-51.953986,-23.451797],[-51.953949,-23.452017],[-51.956546,-23.452321],[-51.956794,-23.450216],[-51.957115,-23.450256],[-51.956811,-23.452633],[-51.953855,-23.452319],[-51.953592,-23.454057],[-51.956277,-23.454301],[-51.95641,-23.453115],[-51.956757,-23.453125],[-51.956637,-23.454393],[-51.957139,-23.454426],[-51.957064,-23.454805],[-51.953492,-23.454484],[-51.953271,-23.455859],[-51.955455,-23.456012],[-51.955367,-23.456344],[-51.953261,-23.456286],[-51.953616,-23.456532],[-51.95347,-23.456758],[-51.953127,-23.456476],[-51.952966,-23.456847],[-51.952942,-23.457881],[-51.952798,-23.458469],[-51.952916,-23.4588],[-51.952937,-23.459007],[-51.952468,-23.458998],[-51.95275,-23.457986],[-51.95264,-23.457883],[-51.952664,-23.457812],[-51.952778,-23.457897],[-51.952765,-23.457792],[-51.952622,-23.457784],[-51.952571,-23.457838],[-51.952535,-23.457795],[-51.952587,-23.457704],[-51.952767,-23.457691],[-51.952775,-23.45741],[-51.952576,-23.457402],[-51.952653,-23.456599],[-51.952329,-23.456586],[-51.95026,-23.457724],[-51.948697,-23.457769],[-51.948724,-23.457577],[-51.950246,-23.457535],[-51.950712,-23.457242],[-51.946767,-23.457269],[-51.94682,-23.457037],[-51.951108,-23.456955],[-51.951633,-23.456691],[-51.946837,-23.456679],[-51.946892,-23.456376],[-51.948889,-23.456388],[-51.949003,-23.456133],[-51.947385,-23.456095],[-51.947299,-23.455865],[-51.949084,-23.455783],[-51.949114,-23.455486],[-51.948587,-23.45546],[-51.948624,-23.455282],[-51.949401,-23.455194],[-51.949401,-23.456124],[-51.952753,-23.456163],[-51.952883,-23.455528],[-51.949498,-23.455395],[-51.949522,-23.455128],[-51.952573,-23.455205],[-51.952608,-23.454784],[-51.950515,-23.454755],[-51.950583,-23.454447],[-51.95296,-23.454562],[-51.953339,-23.452872],[-51.952549,-23.452829],[-51.951056,-23.453188],[-51.94902,-23.453129],[-51.949281,-23.451919],[-51.949564,-23.451929],[-51.949403,-23.452866],[-51.94966,-23.452906],[-51.949823,-23.452301],[-51.95008,-23.452305],[-51.950033,-23.452886],[-51.950341,-23.452943],[-51.95049,-23.452261],[-51.950773,-23.452266],[-51.950733,-23.452906],[-51.95104,-23.452821],[-51.951223,-23.452316],[-51.951499,-23.452308],[-51.951406,-23.452777],[-51.952534,-23.452575],[-51.952645,-23.451922],[-51.949889,-23.451696],[-51.949964,-23.4514],[-51.951692,-23.451525],[-51.951882,-23.451068],[-51.95219,-23.451066],[-51.952172,-23.451315],[-51.952359,-23.451379],[-51.952341,-23.451581],[-51.952104,-23.451588],[-51.952104,-23.451659],[-51.952965,-23.451707],[-51.952855,-23.452549],[-51.953491,-23.452575],[-51.954047,-23.449562],[-51.952139,-23.449378],[-51.952239,-23.448951],[-51.954103,-23.449254],[-51.954266,-23.448702],[-51.954488,-23.448724],[-51.954274,-23.449888]]]}},
{"type":"Feature","properties":{"name":""},"geometry":{"type":"Polygon","coordinates":[[[-51.921302,-23.460543],[-51.932135,-23.459685],[-51.932124,-23.46004],[-51.926118,-23.460538],[-51.926601,-23.461625],[-51.92582,-23.46208],[-51.925626,-23.461832],[-51.926176,-23.461568],[-51.926111,-23.461415],[-51.924615,-23.462407],[-51.923708,-23.46118],[-51.924041,-23.461048],[-51.924637,-23.461874],[-51.92593,-23.461179],[-51.925799,-23.460919],[-51.924866,-23.461458],[-51.924284,-23.460869],[-51.924526,-23.46069],[-51.924825,-23.461079],[-51.925566,-23.460612],[-51.923884,-23.460693],[-51.923796,-23.460907],[-51.920688,-23.462774],[-51.920235,-23.462196],[-51.922345,-23.460892],[-51.921498,-23.460956],[-51.919976,-23.461949],[-51.919665,-23.461524],[-51.921302,-23.460543]]]}},
{"type":"Feature","properties":{"name":""},"geometry":{"type":"Polygon","coordinates":[[[-51.9235,-23.45094],[-51.923338,-23.450698],[-51.92106,-23.45173],[-51.920968,-23.451529],[-51.921704,-23.451163],[-51.921366,-23.45062],[-51.921603,-23.450501],[-51.92196,-23.451067],[-51.923157,-23.450491],[-51.922962,-23.450214],[-51.922335,-23.450467],[-51.922211,-23.450266],[-51.922794,-23.449954],[-51.922947,-23.449817],[-51.923731,-23.450832],[-51.924402,-23.450472],[-51.924545,-23.450708],[-51.923067,-23.451487],[-51.922918,-23.451287],[-51.9235,-23.45094]]]}},
{"type":"Feature","properties":{"name":""},"geometry":{"type":"Polygon","coordinates":[[[-51.960836,-23.422053],[-51.959719,-23.421725],[-51.959789,-23.421579],[-51.960889,-23.421854],[-51.960836,-23.422053]]]}},
{"type":"Feature","properties":{"name":""},"geometry":{"type":"Polygon","coordinates":[[[-51.900348,-23.390715],[-51.900022,-23.390895],[-51.900708,-23.391273],[-51.901369,-23.391734],[-51.901772,-23.392135],[-51.90159,-23.392263],[-51.901513,-23.392199],[-51.900493,-23.392779],[-51.900396,-23.392637],[-51.901371,-23.392031],[-51.901041,-23.391766],[-51.900405,-23.39214],[-51.900299,-23.39201],[-51.900874,-23.391619],[-51.900513,-23.391393],[-51.899525,-23.391923],[-51.900228,-23.393006],[-51.899998,-23.393131],[-51.899207,-23.39193],[-51.900342,-23.391263],[-51.899852,-23.391029],[-51.89898,-23.39157],[-51.898863,-23.39139],[-51.900235,-23.390595],[-51.900348,-23.390715]]]}},
{"type":"Feature","properties":{"name":""},"geometry":{"type":"Polygon","coordinates":[[[-51.898696,-23.391812],[-51.898114,-23.392171],[-51.898193,-23.39246],[-51.89882,-23.392125],[-51.898924,-23.392362],[-51.898317,-23.392762],[-51.898338,-23.393016],[-51.898787,-23.39286],[-51.898878,-23.393049],[-51.898437,-23.393318],[-51.898503,-23.393691],[-51.898842,-23.393452],[-51.898972,-23.393712],[-51.898883,-23.39389],[-51.898537,-23.393928],[-51.89872,-23.394359],[-51.898557,-23.394929],[-51.899113,-23.394665],[-51.898853,-23.394186],[-51.899678,-23.393643],[-51.899814,-23.393879],[-51.899187,-23.394244],[-51.89935,-23.394533],[-51.89997,-23.394174],[-51.900126,-23.394422],[-51.898911,-23.395122],[-51.898996,-23.395412],[-51.900269,-23.394705],[-51.900418,-23.394906],[-51.898864,-23.39578],[-51.89868,-23.395064],[-51.898295,-23.395161],[-51.898217,-23.39496],[-51.898496,-23.394425],[-51.897878,-23.392243],[-51.896778,-23.392877],[-51.897522,-23.394674],[-51.897266,-23.394818],[-51.897214,-23.394688],[-51.896709,-23.394975],[-51.896611,-23.394727],[-51.897052,-23.394446],[-51.896908,-23.394156],[-51.895969,-23.394689],[-51.896345,-23.395297],[-51.896108,-23.395411],[-51.896024,-23.395358],[-51.895494,-23.395728],[-51.895275,-23.395546],[-51.895882,-23.395145],[-51.895687,-23.394874],[-51.895144,-23.395185],[-51.894963,-23.394973],[-51.896868,-23.393878],[-51.896744,-23.393594],[-51.895357,-23.394449],[-51.895182,-23.394219],[-51.896621,-23.393352],[-51.896522,-23.393033],[-51.894969,-23.394001],[-51.894788,-23.3937],[-51.898553,-23.391522],[-51.898696,-23.391812]]]}},
{"type":"Feature","properties":{"name":""},"geometry":{"type":"Polygon","coordinates":[[[-51.893752,-23.394382],[-51.894849,-23.396146],[-51.894638,-23.39629],[-51.893899,-23.395246],[-51.892979,-23.395742],[-51.892932,-23.395494],[-51.893724,-23.39498],[-51.89362,-23.394726],[-51.893115,-23.395013],[-51.892762,-23.395957],[-51.892827,-23.396099],[-51.892642,-23.396313],[-51.892611,-23.396444],[-51.892841,-23.396265],[-51.892814,-23.396111],[-51.892974,-23.396039],[-51.89337,-23.396635],[-51.893817,-23.396372],[-51.89394,-23.396554],[-51.893487,-23.396853],[-51.894006,-23.397733],[-51.895885,-23.400435],[-51.895693,-23.400519],[-51.895584,-23.400467],[-51.894459,-23.40119],[-51.894348,-23.400953],[-51.895505,-23.400248],[-51.895356,-23.400041],[-51.894136,-23.400789],[-51.894037,-23.400475],[-51.895156,-23.399788],[-51.893536,-23.397487],[-51.892744,-23.398024],[-51.891957,-23.398396],[-51.891692,-23.398179],[-51.891742,-23.397995],[-51.892006,-23.398082],[-51.89347,-23.397238],[-51.893269,-23.396943],[-51.892286,-23.397684],[-51.891998,-23.397798],[-51.892802,-23.395204],[-51.892085,-23.395588],[-51.891974,-23.395262],[-51.893752,-23.394382]]]}},
{"type":"Feature","properties":{"name":""},"geometry":{"type":"Polygon","coordinates":[[[-51.874703,-23.413366],[-51.873563,-23.411737],[-51.872931,-23.411314],[-51.87281,-23.410569],[-51.87137,-23.408302],[-51.871499,-23.408384],[-51.872571,-23.407348],[-51.872791,-23.407607],[-51.871898,-23.408441],[-51.872988,-23.410224],[-51.873166,-23.410069],[-51.872245,-23.40857],[-51.872603,-23.40839],[-51.873499,-23.409949],[-51.873755,-23.409817],[-51.872524,-23.407964],[-51.872818,-23.407773],[-51.874062,-23.409638],[-51.874331,-23.409494],[-51.872774,-23.40705],[-51.875521,-23.405009],[-51.875689,-23.405221],[-51.873238,-23.407273],[-51.873601,-23.407792],[-51.87387,-23.407719],[-51.873623,-23.4072],[-51.873789,-23.407104],[-51.874125,-23.407528],[-51.874432,-23.407361],[-51.874108,-23.406865],[-51.874313,-23.406745],[-51.874701,-23.407193],[-51.874944,-23.407026],[-51.874594,-23.406507],[-51.874824,-23.406363],[-51.875212,-23.406906],[-51.875455,-23.406751],[-51.875105,-23.406172],[-51.875335,-23.406076],[-51.875711,-23.406584],[-51.875941,-23.406488],[-51.875706,-23.405885],[-51.875898,-23.40573],[-51.876402,-23.40626],[-51.876568,-23.406188],[-51.875972,-23.405232],[-51.876227,-23.405017],[-51.876993,-23.406292],[-51.873795,-23.408087],[-51.873963,-23.408264],[-51.875102,-23.407736],[-51.875309,-23.407948],[-51.874197,-23.408582],[-51.8743,-23.40876],[-51.875401,-23.408232],[-51.875557,-23.408492],[-51.874457,-23.409138],[-51.874587,-23.40935],[-51.875905,-23.408691],[-51.876086,-23.408915],[-51.873182,-23.410531],[-51.873315,-23.411182],[-51.873753,-23.411393],[-51.875083,-23.410592],[-51.875142,-23.409809],[-51.876318,-23.409139],[-51.875332,-23.407522],[-51.876919,-23.406755],[-51.877023,-23.407003],[-51.875757,-23.407733],[-51.875938,-23.407933],[-51.877089,-23.407275],[-51.877283,-23.407534],[-51.876107,-23.408216],[-51.876237,-23.408441],[-51.877414,-23.407854],[-51.877582,-23.408078],[-51.876431,-23.408748],[-51.876702,-23.408983],[-51.877892,-23.408266],[-51.877498,-23.407012],[-51.877806,-23.406927],[-51.878275,-23.408074],[-51.878457,-23.408393],[-51.875368,-23.410072],[-51.875509,-23.410396],[-51.877914,-23.409103],[-51.878095,-23.409363],[-51.873926,-23.411672],[-51.874081,-23.41192],[-51.875425,-23.411238],[-51.875516,-23.411427],[-51.87425,-23.412156],[-51.874418,-23.412404],[-51.875685,-23.411734],[-51.875879,-23.411934],[-51.874561,-23.4127],[-51.874742,-23.412876],[-51.875958,-23.412242],[-51.876152,-23.412525],[-51.874963,-23.413207],[-51.874618,-23.413458],[-51.874703,-23.413366]]]}},
{"type":"Feature","properties":{"name":""},"geometry":{"type":"Polygon","coordinates":[[[-51.876323,-23.412806],[-51.876351,-23.413066],[-51.875174,-23.413737],[-51.874935,-23.414472],[-51.873847,-23.415035],[-51.873254,-23.414577],[-51.87345,-23.413225],[-51.872911,-23.413192],[-51.872755,-23.41298],[-51.872973,-23.412943],[-51.872676,-23.412554],[-51.872893,-23.412434],[-51.873282,-23.412942],[-51.873628,-23.412916],[-51.873044,-23.411888],[-51.873222,-23.411698],[-51.873402,-23.411803],[-51.87334,-23.411993],[-51.874039,-23.412997],[-51.874386,-23.413006],[-51.874477,-23.413207],[-51.873707,-23.4132],[-51.873703,-23.414503],[-51.874024,-23.41462],[-51.874041,-23.413316],[-51.874362,-23.413303],[-51.874357,-23.414488],[-51.87469,-23.414284],[-51.874904,-23.413691],[-51.874723,-23.413514],[-51.874966,-23.413288],[-51.876323,-23.412806]]]}},
{"type":"Feature","properties":{"name":""},"geometry":{"type":"Polygon","coordinates":[[[-51.86852,-23.411096],[-51.868802,-23.411095],[-51.868604,-23.414129],[-51.868976,-23.414162],[-51.869235,-23.410547],[-51.869428,-23.410594],[-51.869372,-23.411921],[-51.869719,-23.411895],[-51.869825,-23.410449],[-51.870094,-23.410448],[-51.870053,-23.412035],[-51.869901,-23.412226],[-51.869438,-23.412228],[-51.869278,-23.41326],[-51.869798,-23.412309],[-51.870399,-23.411808],[-51.870431,-23.410896],[-51.870675,-23.410906],[-51.870654,-23.411617],[-51.870859,-23.411616],[-51.870809,-23.411818],[-51.870183,-23.41226],[-51.869548,-23.413199],[-51.869271,-23.414125],[-51.869592,-23.414123],[-51.869958,-23.413185],[-51.870301,-23.412662],[-51.87071,-23.412269],[-51.87108,-23.412042],[-51.871313,-23.412277],[-51.870866,-23.412635],[-51.870458,-23.413076],[-51.870218,-23.413622],[-51.87007,-23.414547],[-51.868156,-23.414404],[-51.86852,-23.411096]]]}},
{"type":"Feature","properties":{"name":""},"geometry":{"type":"Polygon","coordinates":[[[-51.980546,-23.412504],[-51.980358,-23.412634],[-51.979976,-23.412219],[-51.980312,-23.412019],[-51.980546,-23.412504]]]}},
{"type":"Feature","properties":{"name":""},"geometry":{"type":"Polygon","coordinates":[[[-51.896509,-23.432481],[-51.895678,-23.43296],[-51.895464,-23.432671],[-51.896289,-23.432186],[-51.896509,-23.432481]]]}},
{"type":"Feature","properties":{"name":""},"geometry":{"type":"Polygon","coordinates":[[[-51.917085,-23.382304],[-51.91599,-23.383578],[-51.916858,-23.38471],[-51.917382,-23.384375],[-51.916619,-23.383503],[-51.916912,-23.383205],[-51.917663,-23.38416],[-51.917853,-23.383875],[-51.91709,-23.383015],[-51.917306,-23.382693],[-51.917992,-23.383566],[-51.918184,-23.383364],[-51.91742,-23.382491],[-51.917726,-23.382205],[-51.918425,-23.383042],[-51.918717,-23.38259],[-51.919065,-23.382742],[-51.917833,-23.384574],[-51.916874,-23.385172],[-51.915283,-23.383392],[-51.915551,-23.383095],[-51.915769,-23.383188],[-51.916788,-23.382009],[-51.917085,-23.382304]]]}},
{"type":"Feature","properties":{"name":""},"geometry":{"type":"Polygon","coordinates":[[[-51.919245,-23.384625],[-51.919477,-23.384825],[-51.919009,-23.385858],[-51.919139,-23.386059],[-51.919937,-23.384538],[-51.919458,-23.383901],[-51.919675,-23.383686],[-51.920115,-23.384229],[-51.920241,-23.383944],[-51.920498,-23.384013],[-51.92036,-23.384393],[-51.920592,-23.384546],[-51.920859,-23.38413],[-51.921129,-23.384235],[-51.920849,-23.384663],[-51.921146,-23.384803],[-51.920968,-23.385077],[-51.920208,-23.384726],[-51.919423,-23.38633],[-51.919693,-23.386399],[-51.920174,-23.385307],[-51.920457,-23.385435],[-51.920002,-23.386516],[-51.920285,-23.386633],[-51.920817,-23.385587],[-51.921191,-23.385763],[-51.920774,-23.386713],[-51.921134,-23.386817],[-51.921678,-23.385677],[-51.921961,-23.385746],[-51.92157,-23.38685],[-51.921866,-23.386908],[-51.922346,-23.385732],[-51.922654,-23.385801],[-51.922187,-23.386942],[-51.922521,-23.387011],[-51.922988,-23.385882],[-51.923233,-23.385928],[-51.922932,-23.387056],[-51.923318,-23.387136],[-51.923618,-23.386033],[-51.923901,-23.386102],[-51.923665,-23.387253],[-51.923909,-23.387275],[-51.924363,-23.386016],[-51.924697,-23.386062],[-51.924495,-23.386644],[-51.925767,-23.386837],[-51.926016,-23.385746],[-51.92639,-23.38591],[-51.928009,-23.388009],[-51.927601,-23.388414],[-51.926801,-23.387755],[-51.925487,-23.394469],[-51.925049,-23.394234],[-51.926435,-23.386857],[-51.926179,-23.38693],[-51.924636,-23.393953],[-51.924246,-23.393291],[-51.923011,-23.392872],[-51.922952,-23.391783],[-51.921376,-23.390228],[-51.919743,-23.388081],[-51.919633,-23.386897],[-51.918575,-23.386122],[-51.918699,-23.385588],[-51.919245,-23.384625]]]}},
{"type":"Feature","properties":{"name":""},"geometry":{"type":"Polygon","coordinates":[[[-51.926977,-23.379864],[-51.925364,-23.38421],[-51.924811,-23.385824],[-51.923036,-23.385408],[-51.923789,-23.38294],[-51.925787,-23.378544],[-51.926705,-23.377733],[-51.927527,-23.377847],[-51.926977,-23.379864]]]}},
{"type":"Feature","properties":{"name":""},"geometry":{"type":"Polygon","coordinates":[[[-51.978928,-23.423376],[-51.979445,-23.423776],[-51.978577,-23.424528],[-51.978241,-23.424151],[-51.978304,-23.423996],[-51.978928,-23.423376]]]}},
{"type":"Feature","properties":{"name":""},"geometry":{"type":"Polygon","coordinates":[[[-51.970718,-23.418884],[-51.966436,-23.41974],[-51.961781,-23.418631],[-51.961852,-23.417896],[-51.963962,-23.418476],[-51.965738,-23.419033],[-51.967917,-23.418641],[-51.970457,-23.418341],[-51.970454,-23.417938],[-51.970718,-23.418884]]]}},
{"type":"Feature","properties":{"name":""},"geometry":{"type":"Polygon","coordinates":[[[-51.928532,-23.4133],[-51.926021,-23.414049],[-51.926048,-23.414334],[-51.927253,-23.413995],[-51.927617,-23.414656],[-51.925593,-23.41526],[-51.924966,-23.4137],[-51.928347,-23.412519],[-51.928532,-23.4133]]]}},
{"type":"Feature","properties":{"name":""},"geometry":{"type":"Polygon","coordinates":[[[-51.977238,-23.423079],[-51.976435,-23.423854],[-51.97608,-23.423625],[-51.976844,-23.422791],[-51.977238,-23.423079]]]}},
{"type":"Feature","properties":{"name":""},"geometry":{"type":"Polygon","coordinates":[[[-51.941806,-23.465947],[-51.940805,-23.465929],[-51.94133,-23.46031],[-51.942253,-23.460186],[-51.941806,-23.465947]]]}},
{"type":"Feature","properties":{"name":""},"geometry":{"type":"Polygon","coordinates":[[[-51.942149,-23.45995],[-51.940994,-23.460075],[-51.940625,-23.458751],[-51.942627,-23.458573],[-51.942149,-23.45995]]]}},
{"type":"Feature","properties":{"name":""},"geometry":{"type":"Polygon","coordinates":[[[-51.937644,-23.44762],[-51.937824,-23.447619],[-51.938557,-23.44598],[-51.939073,-23.446214],[-51.938747,-23.447448],[-51.944811,-23.447767],[-51.951778,-23.448814],[-51.95168,-23.449478],[-51.948884,-23.449981],[-51.951788,-23.450224],[-51.952221,-23.449748],[-51.952865,-23.449957],[-51.952382,-23.450647],[-51.948245,-23.45034],[-51.948338,-23.449013],[-51.945717,-23.448816],[-51.94536,-23.449221],[-51.945103,-23.449104],[-51.944817,-23.448703],[-51.937444,-23.448285],[-51.937644,-23.44762]]]}},
{"type":"Feature","properties":{"name":""},"geometry":{"type":"Polygon","coordinates":[[[-51.918059,-23.460176],[-51.917263,-23.460264],[-51.916921,-23.460918],[-51.916599,-23.460754],[-51.916737,-23.46022],[-51.914979,-23.460443],[-51.913089,-23.460111],[-51.911683,-23.459219],[-51.910622,-23.458135],[-51.909653,-23.457288],[-51.908254,-23.4554],[-51.907869,-23.455533],[-51.909101,-23.457243],[-51.908537,-23.457365],[-51.907447,-23.455748],[-51.907445,-23.4555],[-51.908672,-23.454639],[-51.913502,-23.452917],[-51.913723,-23.453378],[-51.908842,-23.455065],[-51.909087,-23.455206],[-51.913711,-23.453496],[-51.914814,-23.455172],[-51.914186,-23.455318],[-51.913497,-23.454149],[-51.909168,-23.455727],[-51.909272,-23.455951],[-51.913333,-23.454506],[-51.913476,-23.454813],[-51.909839,-23.45622],[-51.910046,-23.456492],[-51.913401,-23.455157],[-51.913596,-23.455452],[-51.909908,-23.45699],[-51.910102,-23.457178],[-51.913842,-23.45577],[-51.914336,-23.45662],[-51.914081,-23.456894],[-51.913614,-23.456222],[-51.913332,-23.456318],[-51.913722,-23.456897],[-51.91335,-23.457076],[-51.912923,-23.45651],[-51.912705,-23.456606],[-51.913354,-23.457527],[-51.912995,-23.457647],[-51.912321,-23.456715],[-51.912129,-23.456835],[-51.912752,-23.457755],[-51.912495,-23.457816],[-51.911821,-23.456943],[-51.911514,-23.457052],[-51.91215,-23.457984],[-51.911726,-23.458081],[-51.911155,-23.457172],[-51.910643,-23.457412],[-51.911705,-23.458768],[-51.913153,-23.458298],[-51.913322,-23.45851],[-51.91226,-23.459038],[-51.913715,-23.459728],[-51.914873,-23.45997],[-51.91704,-23.459448],[-51.917537,-23.458912],[-51.917927,-23.459656],[-51.918059,-23.460176]]]}},
{"type":"Feature","properties":{"name":""},"geometry":{"type":"Polygon","coordinates":[[[-51.889739,-23.429952],[-51.889991,-23.430276],[-51.889681,-23.43093],[-51.889329,-23.430126],[-51.889739,-23.429952]]]}},
{"type":"Feature","properties":{"name":""},"geometry":{"type":"Polygon","coordinates":[[[-51.890487,-23.429468],[-51.896318,-23.425928],[-51.894709,-23.42352],[-51.890489,-23.425997],[-51.889542,-23.424509],[-51.890566,-23.424053],[-51.891278,-23.424914],[-51.891753,-23.424852],[-51.891001,-23.423743],[-51.892151,-23.423061],[-51.892787,-23.424088],[-51.893402,-23.423812],[-51.892779,-23.422797],[-51.893993,-23.42202],[-51.894705,-23.422928],[-51.895,-23.422843],[-51.897137,-23.42558],[-51.900666,-23.423462],[-51.901183,-23.423909],[-51.890721,-23.43],[-51.890331,-23.42922],[-51.890487,-23.429468]]]}},
{"type":"Feature","properties":{"name":""},"geometry":{"type":"Polygon","coordinates":[[[-51.889044,-23.419098],[-51.889998,-23.41587],[-51.893494,-23.416585],[-51.894352,-23.41812],[-51.896579,-23.417088],[-51.897071,-23.417654],[-51.898249,-23.417315],[-51.901646,-23.418457],[-51.901546,-23.418813],[-51.898565,-23.41838],[-51.900792,-23.421258],[-51.896656,-23.424741],[-51.895024,-23.422618],[-51.894683,-23.421435],[-51.889286,-23.424594],[-51.888455,-23.423224],[-51.889374,-23.422366],[-51.889959,-23.421652],[-51.888412,-23.420665],[-51.888688,-23.419597],[-51.88876,-23.418957],[-51.889044,-23.419098]]]}},
{"type":"Feature","properties":{"name":""},"geometry":{"type":"Polygon","coordinates":[[[-51.89985,-23.412946],[-51.901306,-23.411789],[-51.90154,-23.412178],[-51.900275,-23.413074],[-51.900431,-23.413346],[-51.901439,-23.412546],[-51.901723,-23.412699],[-51.900792,-23.413557],[-51.900921,-23.413758],[-51.902021,-23.413052],[-51.902562,-23.413334],[-51.898221,-23.416937],[-51.89764,-23.416478],[-51.900628,-23.414008],[-51.900472,-23.41382],[-51.897728,-23.41611],[-51.896888,-23.415345],[-51.899697,-23.41303],[-51.89985,-23.412946]]]}},
{"type":"Feature","properties":{"name":""},"geometry":{"type":"Polygon","coordinates":[[[-51.887788,-23.400173],[-51.888436,-23.401164],[-51.881953,-23.404957],[-51.881228,-23.404025],[-51.881406,-23.403799],[-51.887788,-23.400173]]]}},
{"type":"Feature","properties":{"name":""},"geometry":{"type":"Polygon","coordinates":[[[-51.890856,-23.402205],[-51.890362,-23.401224],[-51.890975,-23.400688],[-51.890651,-23.400346],[-51.889005,-23.401777],[-51.888543,-23.40178],[-51.883044,-23.404879],[-51.882606,-23.404728],[-51.8884,-23.401532],[-51.888914,-23.401553],[-51.890572,-23.399944],[-51.891308,-23.398719],[-51.893087,-23.397986],[-51.893646,-23.398978],[-51.893288,-23.399241],[-51.892785,-23.398782],[-51.891901,-23.399131],[-51.891264,-23.399857],[-51.892709,-23.399031],[-51.892942,-23.399243],[-51.891292,-23.400236],[-51.892339,-23.401213],[-51.893196,-23.400758],[-51.893971,-23.401453],[-51.893152,-23.401955],[-51.894068,-23.402637],[-51.891282,-23.404359],[-51.890013,-23.40279],[-51.890856,-23.402205]]]}},
{"type":"Feature","properties":{"name":""},"geometry":{"type":"Polygon","coordinates":[[[-51.944438,-23.389818],[-51.938624,-23.38996],[-51.939448,-23.392123],[-51.941023,-23.391627],[-51.942027,-23.392012],[-51.942963,-23.391805],[-51.942991,-23.392125],[-51.941942,-23.392629],[-51.939765,-23.393353],[-51.938034,-23.393671],[-51.937681,-23.392749],[-51.93891,-23.392197],[-51.938127,-23.392285],[-51.938009,-23.39193],[-51.938724,-23.391428],[-51.938317,-23.390033],[-51.937957,-23.390035],[-51.93798,-23.389632],[-51.938429,-23.389558],[-51.938426,-23.389131],[-51.936589,-23.388929],[-51.936646,-23.387969],[-51.937892,-23.38808],[-51.938012,-23.388696],[-51.938782,-23.388738],[-51.938789,-23.389627],[-51.939109,-23.389542],[-51.939228,-23.388274],[-51.939588,-23.388354],[-51.93952,-23.389563],[-51.939995,-23.389525],[-51.940177,-23.388114],[-51.940691,-23.388206],[-51.940662,-23.389485],[-51.941739,-23.389431],[-51.941923,-23.388151],[-51.942411,-23.388243],[-51.942278,-23.389333],[-51.944524,-23.389391],[-51.944438,-23.389818]]]}},
{"type":"Feature","properties":{"name":""},"geometry":{"type":"Polygon","coordinates":[[[-51.942236,-23.416049],[-51.94211,-23.412709],[-51.943627,-23.413032],[-51.943854,-23.416087],[-51.942236,-23.416049]]]}},
{"type":"Feature","properties":{"name":""},"geometry":{"type":"Polygon","coordinates":[[[-51.946329,-23.417541],[-51.946707,-23.416567],[-51.947733,-23.416419],[-51.94854,-23.4144],[-51.949852,-23.414771],[-51.948441,-23.418452],[-51.946329,-23.417541]]]}},
{"type":"Feature","properties":{"name":""},"geometry":{"type":"Polygon","coordinates":[[[-51.894415,-23.39029],[-51.894227,-23.389971],[-51.896181,-23.388443],[-51.896612,-23.388571],[-51.894415,-23.39029]]]}},
{"type":"Feature","properties":{"name":""},"geometry":{"type":"Polygon","coordinates":[[[-51.926962,-23.418306],[-51.925263,-23.418677],[-51.923401,-23.418475],[-51.923508,-23.418267],[-51.925159,-23.418394],[-51.925884,-23.418324],[-51.92687,-23.418034],[-51.926962,-23.418306]]]}},
{"type":"Feature","properties":{"name":""},"geometry":{"type":"Polygon","coordinates":[[[-51.986183,-23.411398],[-51.985669,-23.411365],[-51.98492,-23.410718],[-51.983961,-23.411258],[-51.983754,-23.411046],[-51.984915,-23.410008],[-51.986013,-23.410984],[-51.986894,-23.410374],[-51.9838,-23.406816],[-51.984156,-23.406304],[-51.987729,-23.410381],[-51.986183,-23.411398]]]}}
]}
