{"type":"FeatureCollection","name":"ble_guaipo","features":[
{"type":"Feature","properties":{"name":"BLE (ID 9)"},"geometry":{"type":"Point","coordinates":[-51.979497,-23.423241]}},
{"type":"Feature","properties":{"name":"BLE (ID 17)"},"geometry":{"type":"Point","coordinates":[-51.980199,-23.422448]}},
{"type":"Feature","properties":{"name":"BLE (ID 18)"},"geometry":{"type":"Point","coordinates":[-51.980906,-23.421781]}},
{"type":"Feature","properties":{"name":"BLE (ID 45)"},"geometry":{"type":"Point","coordinates":[-51.979995,-23.421051]}},
{"type":"Feature","properties":{"name":"BLE (ID 47)"},"geometry":{"type":"Point","coordinates":[-51.980817,-23.42179]}},
{"type":"Feature","properties":{"name":"BLE (ID 48)"},"geometry":{"type":"Point","coordinates":[-51.980494,-23.420176]}},
{"type":"Feature","properties":{"name":"BLE (ID 52)"},"geometry":{"type":"Point","coordinates":[-51.980438,-23.420251]}},
{"type":"Feature","properties":{"name":"BLE (ID 59)"},"geometry":{"type":"Point","coordinates":[-51.982052,-23.419976]}},
{"type":"Feature","properties":{"name":"BLE (ID 70)"},"geometry":{"type":"Point","coordinates":[-51.980911,-23.419233]}},
{"type":"Feature","properties":{"name":"BLE (ID 81)"},"geometry":{"type":"Point","coordinates":[-51.978958,-23.421168]}},
{"type":"Feature","properties":{"name":"BLE (ID 88)"},"geometry":{"type":"Point","coordinates":[-51.977062,-23.422831]}},
{"type":"Feature","properties":{"name":"BLE (ID 93)"},"geometry":{"type":"Point","coordinates":[-51.977784,-23.422137]}},
{"type":"Feature","properties":{"name":"BLE (ID 99)"},"geometry":{"type":"Point","coordinates":[-51.979998,-23.427234]}},
{"type":"Feature","properties":{"name":"BLE (ID 101)"},"geometry":{"type":"Point","coordinates":[-51.980854,-23.428005]}},
{"type":"Feature","properties":{"name":"BLE (ID 114)"},"geometry":{"type":"Point","coordinates":[-51.981765,-23.428955]}},
{"type":"Feature","properties":{"name":"BLE (ID 117)"},"geometry":{"type":"Point","coordinates":[-51.980297,-23.427634]}},
{"type":"Feature","properties":{"name":"BLE (ID 130)"},"geometry":{"type":"Point","coordinates":[-51.97573,-23.423523]}},
{"type":"Feature","properties":{"name":"BLE (ID 132)"},"geometry":{"type":"Point","coordinates":[-51.975186,-23.423032]}},
{"type":"Feature","properties":{"name":"BLE (ID 138)"},"geometry":{"type":"Point","coordinates":[-51.976293,-23.423897]}},
{"type":"Feature","properties":{"name":"BLE (ID 168)"},"geometry":{"type":"Point","coordinates":[-51.979267,-23.419269]}},
{"type":"Feature","properties":{"name":"BLE (ID 171)"},"geometry":{"type":"Point","coordinates":[-51.980914,-23.418376]}},
{"type":"Feature","properties":{"name":"BLE (ID 173)"},"geometry":{"type":"Point","coordinates":[-51.980862,-23.418303]}},
{"type":"Feature","properties":{"name":"BLE (ID 225)"},"geometry":{"type":"Point","coordinates":[-51.973492,-23.421187]}},
{"type":"Feature","properties":{"name":"BLE (ID 226)"},"geometry":{"type":"Point","coordinates":[-51.97364,-23.421398]}},
{"type":"Feature","properties":{"name":"BLE (ID 234)"},"geometry":{"type":"Point","coordinates":[-51.974549,-23.422497]}},
{"type":"Feature","properties":{"name":"BLE (ID 238)"},"geometry":{"type":"Point","coordinates":[-51.973584,-23.42216]}},
{"type":"Feature","properties":{"name":"BLE (ID 240)"},"geometry":{"type":"Point","coordinates":[-51.973611,-23.422303]}},
{"type":"Feature","properties":{"name":"BLE (ID 242)"},"geometry":{"type":"Point","coordinates":[-51.973824,-23.422865]}},
{"type":"Feature","properties":{"name":"BLE (ID 250)"},"geometry":{"type":"Point","coordinates":[-51.974706,-23.423748]}},
{"type":"Feature","properties":{"name":"BLE (ID 251)"},"geometry":{"type":"Point","coordinates":[-51.974525,-23.423434]}},
{"type":"Feature","properties":{"name":"BLE (ID 252)"},"geometry":{"type":"Point","coordinates":[-51.974744,-23.423284]}},
{"type":"Feature","properties":{"name":"BLE (ID 253)"},"geometry":{"type":"Point","coordinates":[-51.975181,-23.424426]}},
{"type":"Feature","properties":{"name":"BLE (ID 256)"},"geometry":{"type":"Point","coordinates":[-51.975529,-23.425828]}},
{"type":"Feature","properties":{"name":"BLE (ID 258)"},"geometry":{"type":"Point","coordinates":[-51.97554,-23.427116]}},
{"type":"Feature","properties":{"name":"BLE (ID 263)"},"geometry":{"type":"Point","coordinates":[-51.975274,-23.428812]}},
{"type":"Feature","properties":{"name":"BLE (ID 266)"},"geometry":{"type":"Point","coordinates":[-51.975226,-23.42935]}},
{"type":"Feature","properties":{"name":"BLE (ID 270)"},"geometry":{"type":"Point","coordinates":[-51.975196,-23.429346]}},
{"type":"Feature","properties":{"name":"BLE (ID 279)"},"geometry":{"type":"Point","coordinates":[-51.975626,-23.433786]}},
{"type":"Feature","properties":{"name":"BLE (ID 284)"},"geometry":{"type":"Point","coordinates":[-51.975173,-23.428711]}},
{"type":"Feature","properties":{"name":"BLE (ID 289)"},"geometry":{"type":"Point","coordinates":[-51.975401,-23.426493]}},
{"type":"Feature","properties":{"name":"BLE (ID 290)"},"geometry":{"type":"Point","coordinates":[-51.975243,-23.425123]}},
{"type":"Feature","properties":{"name":"BLE (ID 296)"},"geometry":{"type":"Point","coordinates":[-51.975009,-23.424403]}},
{"type":"Feature","properties":{"name":"BLE (ID 306)"},"geometry":{"type":"Point","coordinates":[-51.977432,-23.431913]}},
{"type":"Feature","properties":{"name":"BLEDI (ID 311)"},"geometry":{"type":"Point","coordinates":[-51.978372,-23.432408]}},
{"type":"Feature","properties":{"name":"BLE (ID 316)"},"geometry":{"type":"Point","coordinates":[-51.979756,-23.43308]}},
{"type":"Feature","properties":{"name":"BLE (ID 317)"},"geometry":{"type":"Point","coordinates":[-51.979856,-23.433187]}},
{"type":"Feature","properties":{"name":"BLE (ID 323)"},"geometry":{"type":"Point","coordinates":[-51.981647,-23.434396]}},
{"type":"Feature","properties":{"name":"BLE (ID 335)"},"geometry":{"type":"Point","coordinates":[-51.983523,-23.434368]}},
{"type":"Feature","properties":{"name":"BLE (ID 343)"},"geometry":{"type":"Point","coordinates":[-51.977057,-23.431617]}},
{"type":"Feature","properties":{"name":"BLE (ID 352)"},"geometry":{"type":"Point","coordinates":[-51.975188,-23.433602]}},
{"type":"Feature","properties":{"name":"BLE (ID 365)"},"geometry":{"type":"Point","coordinates":[-51.973573,-23.426404]}},
{"type":"Feature","properties":{"name":"BLE (ID 366)"},"geometry":{"type":"Point","coordinates":[-51.973504,-23.426337]}},
{"type":"Feature","properties":{"name":"BLE (ID 370)"},"geometry":{"type":"Point","coordinates":[-51.973139,-23.426683]}},
{"type":"Feature","properties":{"name":"BLE (ID 374)"},"geometry":{"type":"Point","coordinates":[-51.972708,-23.427222]}},
{"type":"Feature","properties":{"name":"BLE (ID 384)"},"geometry":{"type":"Point","coordinates":[-51.972878,-23.422993]}},
{"type":"Feature","properties":{"name":"BLE (ID 386)"},"geometry":{"type":"Point","coordinates":[-51.972826,-23.422926]}},
{"type":"Feature","properties":{"name":"BLE (ID 387)"},"geometry":{"type":"Point","coordinates":[-51.972817,-23.422914]}},
{"type":"Feature","properties":{"name":"BLED (ID 389)"},"geometry":{"type":"Point","coordinates":[-51.973458,-23.422507]}},
{"type":"Feature","properties":{"name":"BLED (ID 390)"},"geometry":{"type":"Point","coordinates":[-51.973447,-23.422496]}},
{"type":"Feature","properties":{"name":"BLED (ID 391)"},"geometry":{"type":"Point","coordinates":[-51.9734,-23.422421]}},
{"type":"Feature","properties":{"name":"BLE (ID 399)"},"geometry":{"type":"Point","coordinates":[-51.972009,-23.423275]}},
{"type":"Feature","properties":{"name":"BLE (ID 409)"},"geometry":{"type":"Point","coordinates":[-51.971734,-23.422631]}},
{"type":"Feature","properties":{"name":"BLE (ID 413)"},"geometry":{"type":"Point","coordinates":[-51.971273,-23.422144]}},
{"type":"Feature","properties":{"name":"BLE (ID 417)"},"geometry":{"type":"Point","coordinates":[-51.971656,-23.421068]}},
{"type":"Feature","properties":{"name":"BLE (ID 420)"},"geometry":{"type":"Point","coordinates":[-51.972547,-23.420429]}},
{"type":"Feature","properties":{"name":"BLE (ID 435)"},"geometry":{"type":"Point","coordinates":[-51.972924,-23.42073]}},
{"type":"Feature","properties":{"name":"BLE (ID 469)"},"geometry":{"type":"Point","coordinates":[-51.96535,-23.419114]}},
{"type":"Feature","properties":{"name":"BLE (ID 534)"},"geometry":{"type":"Point","coordinates":[-51.970531,-23.419088]}},
{"type":"Feature","properties":{"name":"BLE (ID 544)"},"geometry":{"type":"Point","coordinates":[-51.967884,-23.419424]}},
{"type":"Feature","properties":{"name":"BLE (ID 553)"},"geometry":{"type":"Point","coordinates":[-51.96009,-23.421723]}},
{"type":"Feature","properties":{"name":"BLE (ID 563)"},"geometry":{"type":"Point","coordinates":[-51.888382,-23.423587]}},
{"type":"Feature","properties":{"name":"BLE (ID 568)"},"geometry":{"type":"Point","coordinates":[-51.892938,-23.420904]}},
{"type":"Feature","properties":{"name":"BLE (ID 574)"},"geometry":{"type":"Point","coordinates":[-51.892618,-23.420422]}},
{"type":"Feature","properties":{"name":"BLE (ID 578)"},"geometry":{"type":"Point","coordinates":[-51.889839,-23.421855]}},
{"type":"Feature","properties":{"name":"BLE (ID 588)"},"geometry":{"type":"Point","coordinates":[-51.892533,-23.420321]}},
{"type":"Feature","properties":{"name":"BLE (ID 591)"},"geometry":{"type":"Point","coordinates":[-51.892584,-23.420257]}},
{"type":"Feature","properties":{"name":"BLE (ID 597)"},"geometry":{"type":"Point","coordinates":[-51.893341,-23.419854]}},
{"type":"Feature","properties":{"name":"BLE (ID 630)"},"geometry":{"type":"Point","coordinates":[-51.896932,-23.418015]}},
{"type":"Feature","properties":{"name":"BLE (ID 654)"},"geometry":{"type":"Point","coordinates":[-51.889404,-23.421677]}},
{"type":"Feature","properties":{"name":"BLE (ID 663)"},"geometry":{"type":"Point","coordinates":[-51.889655,-23.420957]}},
{"type":"Feature","properties":{"name":"BLE (ID 686)"},"geometry":{"type":"Point","coordinates":[-51.889423,-23.419443]}},
{"type":"Feature","properties":{"name":"BLE (ID 712)"},"geometry":{"type":"Point","coordinates":[-51.890799,-23.417411]}},
{"type":"Feature","properties":{"name":"BLE (ID 713)"},"geometry":{"type":"Point","coordinates":[-51.890824,-23.41734]}},
{"type":"Feature","properties":{"name":"BLE (ID 719)"},"geometry":{"type":"Point","coordinates":[-51.890988,-23.416801]}},
{"type":"Feature","properties":{"name":"BLE (ID 729)"},"geometry":{"type":"Point","coordinates":[-51.890439,-23.416156]}},
{"type":"Feature","properties":{"name":"BLE (ID 733)"},"geometry":{"type":"Point","coordinates":[-51.891875,-23.416527]}},
{"type":"Feature","properties":{"name":"BLE (ID 741)"},"geometry":{"type":"Point","coordinates":[-51.893671,-23.417462]}},
{"type":"Feature","properties":{"name":"BLE (ID 745)"},"geometry":{"type":"Point","coordinates":[-51.893652,-23.417492]}},
{"type":"Feature","properties":{"name":"BLE (ID 746)"},"geometry":{"type":"Point","coordinates":[-51.893634,-23.417564]}},
{"type":"Feature","properties":{"name":"BLE (ID 751)"},"geometry":{"type":"Point","coordinates":[-51.894215,-23.418218]}},
{"type":"Feature","properties":{"name":"BLE (ID 757)"},"geometry":{"type":"Point","coordinates":[-51.89454,-23.41896]}},
{"type":"Feature","properties":{"name":"BLE (ID 761)"},"geometry":{"type":"Point","coordinates":[-51.893031,-23.41733]}},
{"type":"Feature","properties":{"name":"BLE (ID 762)"},"geometry":{"type":"Point","coordinates":[-51.893013,-23.417402]}},
{"type":"Feature","properties":{"name":"BLE (ID 766)"},"geometry":{"type":"Point","coordinates":[-51.891653,-23.416973]}},
{"type":"Feature","properties":{"name":"BLE (ID 769)"},"geometry":{"type":"Point","coordinates":[-51.891636,-23.417045]}},
{"type":"Feature","properties":{"name":"BLE (ID 771)"},"geometry":{"type":"Point","coordinates":[-51.893116,-23.417454]}},
{"type":"Feature","properties":{"name":"BLE (ID 772)"},"geometry":{"type":"Point","coordinates":[-51.892873,-23.41787]}},
{"type":"Feature","properties":{"name":"BLE (ID 773)"},"geometry":{"type":"Point","coordinates":[-51.892854,-23.417941]}},
{"type":"Feature","properties":{"name":"BLE (ID 775)"},"geometry":{"type":"Point","coordinates":[-51.892229,-23.41778]}},
{"type":"Feature","properties":{"name":"BLE (ID 777)"},"geometry":{"type":"Point","coordinates":[-51.892253,-23.417709]}},
{"type":"Feature","properties":{"name":"BLE (ID 779)"},"geometry":{"type":"Point","coordinates":[-51.891581,-23.417536]}},
{"type":"Feature","properties":{"name":"BLE (ID 782)"},"geometry":{"type":"Point","coordinates":[-51.891559,-23.417607]}},
{"type":"Feature","properties":{"name":"BLE (ID 783)"},"geometry":{"type":"Point","coordinates":[-51.892873,-23.417975]}},
{"type":"Feature","properties":{"name":"BLE (ID 785)"},"geometry":{"type":"Point","coordinates":[-51.892951,-23.417994]}},
{"type":"Feature","properties":{"name":"BLE (ID 788)"},"geometry":{"type":"Point","coordinates":[-51.89367,-23.418658]}},
{"type":"Feature","properties":{"name":"BLE (ID 792)"},"geometry":{"type":"Point","coordinates":[-51.892716,-23.418412]}},
{"type":"Feature","properties":{"name":"BLE (ID 793)"},"geometry":{"type":"Point","coordinates":[-51.892687,-23.418482]}},
{"type":"Feature","properties":{"name":"BLE (ID 799)"},"geometry":{"type":"Point","coordinates":[-51.891334,-23.418131]}},
{"type":"Feature","properties":{"name":"BLE (ID 804)"},"geometry":{"type":"Point","coordinates":[-51.891768,-23.419369]}},
{"type":"Feature","properties":{"name":"BLE (ID 806)"},"geometry":{"type":"Point","coordinates":[-51.891744,-23.419439]}},
{"type":"Feature","properties":{"name":"BLE (ID 810)"},"geometry":{"type":"Point","coordinates":[-51.892369,-23.419525]}},
{"type":"Feature","properties":{"name":"BLE (ID 811)"},"geometry":{"type":"Point","coordinates":[-51.892345,-23.419596]}},
{"type":"Feature","properties":{"name":"BLE (ID 814)"},"geometry":{"type":"Point","coordinates":[-51.892368,-23.419629]}},
{"type":"Feature","properties":{"name":"BLE (ID 815)"},"geometry":{"type":"Point","coordinates":[-51.892445,-23.419649]}},
{"type":"Feature","properties":{"name":"BLE (ID 818)"},"geometry":{"type":"Point","coordinates":[-51.89261,-23.419111]}},
{"type":"Feature","properties":{"name":"BLE (ID 821)"},"geometry":{"type":"Point","coordinates":[-51.892544,-23.418961]}},
{"type":"Feature","properties":{"name":"BLE (ID 824)"},"geometry":{"type":"Point","coordinates":[-51.893514,-23.419209]}},
{"type":"Feature","properties":{"name":"BLE (ID 826)"},"geometry":{"type":"Point","coordinates":[-51.891998,-23.418916]}},
{"type":"Feature","properties":{"name":"BLE (ID 831)"},"geometry":{"type":"Point","coordinates":[-51.888663,-23.423999]}},
{"type":"Feature","properties":{"name":"BLE (ID 833)"},"geometry":{"type":"Point","coordinates":[-51.888708,-23.424059]}},
{"type":"Feature","properties":{"name":"BLE (ID 834)"},"geometry":{"type":"Point","coordinates":[-51.8898,-23.42335]}},
{"type":"Feature","properties":{"name":"BLE (ID 835)"},"geometry":{"type":"Point","coordinates":[-51.890681,-23.422849]}},
{"type":"Feature","properties":{"name":"BLE (ID 838)"},"geometry":{"type":"Point","coordinates":[-51.890722,-23.422912]}},
{"type":"Feature","properties":{"name":"BLE (ID 839)"},"geometry":{"type":"Point","coordinates":[-51.89132,-23.422484]}},
{"type":"Feature","properties":{"name":"BLE (ID 842)"},"geometry":{"type":"Point","coordinates":[-51.891362,-23.422548]}},
{"type":"Feature","properties":{"name":"BLE (ID 843)"},"geometry":{"type":"Point","coordinates":[-51.89142,-23.422561]}},
{"type":"Feature","properties":{"name":"BLE (ID 846)"},"geometry":{"type":"Point","coordinates":[-51.891023,-23.421969]}},
{"type":"Feature","properties":{"name":"BLE (ID 847)"},"geometry":{"type":"Point","coordinates":[-51.891092,-23.422072]}},
{"type":"Feature","properties":{"name":"BLE (ID 851)"},"geometry":{"type":"Point","coordinates":[-51.892356,-23.421893]}},
{"type":"Feature","properties":{"name":"BLE (ID 853)"},"geometry":{"type":"Point","coordinates":[-51.893263,-23.421375]}},
{"type":"Feature","properties":{"name":"BLE (ID 856)"},"geometry":{"type":"Point","coordinates":[-51.893301,-23.421441]}},
{"type":"Feature","properties":{"name":"BLE (ID 857)"},"geometry":{"type":"Point","coordinates":[-51.89302,-23.420976]}},
{"type":"Feature","properties":{"name":"BLE (ID 858)"},"geometry":{"type":"Point","coordinates":[-51.89309,-23.42094]}},
{"type":"Feature","properties":{"name":"BLE (ID 859)"},"geometry":{"type":"Point","coordinates":[-51.894255,-23.420807]}},
{"type":"Feature","properties":{"name":"BLE (ID 862)"},"geometry":{"type":"Point","coordinates":[-51.894383,-23.420824]}},
{"type":"Feature","properties":{"name":"BLE (ID 863)"},"geometry":{"type":"Point","coordinates":[-51.894244,-23.420761]}},
{"type":"Feature","properties":{"name":"BLE (ID 867)"},"geometry":{"type":"Point","coordinates":[-51.894284,-23.420688]}},
{"type":"Feature","properties":{"name":"BLE (ID 870)"},"geometry":{"type":"Point","coordinates":[-51.893468,-23.420485]}},
{"type":"Feature","properties":{"name":"BLE (ID 872)"},"geometry":{"type":"Point","coordinates":[-51.893497,-23.420408]}},
{"type":"Feature","properties":{"name":"BLE (ID 875)"},"geometry":{"type":"Point","coordinates":[-51.895035,-23.420965]}},
{"type":"Feature","properties":{"name":"BLE (ID 876)"},"geometry":{"type":"Point","coordinates":[-51.895047,-23.421017]}},
{"type":"Feature","properties":{"name":"BLE (ID 879)"},"geometry":{"type":"Point","coordinates":[-51.895057,-23.421009]}},
{"type":"Feature","properties":{"name":"BLE (ID 880)"},"geometry":{"type":"Point","coordinates":[-51.89509,-23.421079]}},
{"type":"Feature","properties":{"name":"BLE (ID 883)"},"geometry":{"type":"Point","coordinates":[-51.895164,-23.421037]}},
{"type":"Feature","properties":{"name":"BLE (ID 884)"},"geometry":{"type":"Point","coordinates":[-51.895217,-23.421042]}},
{"type":"Feature","properties":{"name":"BLE (ID 887)"},"geometry":{"type":"Point","coordinates":[-51.895371,-23.421095]}},
{"type":"Feature","properties":{"name":"BLE (ID 891)"},"geometry":{"type":"Point","coordinates":[-51.895205,-23.420847]}},
{"type":"Feature","properties":{"name":"BLE (ID 895)"},"geometry":{"type":"Point","coordinates":[-51.895111,-23.420907]}},
{"type":"Feature","properties":{"name":"BLE (ID 899)"},"geometry":{"type":"Point","coordinates":[-51.889018,-23.424541]}},
{"type":"Feature","properties":{"name":"BLE (ID 902)"},"geometry":{"type":"Point","coordinates":[-51.888976,-23.424478]}},
{"type":"Feature","properties":{"name":"BLE (ID 903)"},"geometry":{"type":"Point","coordinates":[-51.890121,-23.423824]}},
{"type":"Feature","properties":{"name":"BLE (ID 906)"},"geometry":{"type":"Point","coordinates":[-51.890163,-23.423889]}},
{"type":"Feature","properties":{"name":"BLE (ID 907)"},"geometry":{"type":"Point","coordinates":[-51.890227,-23.423897]}},
{"type":"Feature","properties":{"name":"BLE (ID 910)"},"geometry":{"type":"Point","coordinates":[-51.890312,-23.423849]}},
{"type":"Feature","properties":{"name":"BLE (ID 912)"},"geometry":{"type":"Point","coordinates":[-51.890142,-23.423771]}},
{"type":"Feature","properties":{"name":"BLE (ID 915)"},"geometry":{"type":"Point","coordinates":[-51.890993,-23.423329]}},
{"type":"Feature","properties":{"name":"BLE (ID 918)"},"geometry":{"type":"Point","coordinates":[-51.891637,-23.422961]}},
{"type":"Feature","properties":{"name":"BLE (ID 919)"},"geometry":{"type":"Point","coordinates":[-51.891679,-23.423024]}},
{"type":"Feature","properties":{"name":"BLE (ID 922)"},"geometry":{"type":"Point","coordinates":[-51.891737,-23.423034]}},
{"type":"Feature","properties":{"name":"BLE (ID 923)"},"geometry":{"type":"Point","coordinates":[-51.891805,-23.422997]}},
{"type":"Feature","properties":{"name":"BLE (ID 926)"},"geometry":{"type":"Point","coordinates":[-51.892685,-23.42245]}},
{"type":"Feature","properties":{"name":"BLE (ID 928)"},"geometry":{"type":"Point","coordinates":[-51.893389,-23.422049]}},
{"type":"Feature","properties":{"name":"BLE (ID 931)"},"geometry":{"type":"Point","coordinates":[-51.893348,-23.421985]}},
{"type":"Feature","properties":{"name":"BLE (ID 932)"},"geometry":{"type":"Point","coordinates":[-51.893456,-23.421628]}},
{"type":"Feature","properties":{"name":"BLE (ID 935)"},"geometry":{"type":"Point","coordinates":[-51.893524,-23.421587]}},
{"type":"Feature","properties":{"name":"BLE (ID 936)"},"geometry":{"type":"Point","coordinates":[-51.893857,-23.421664]}},
{"type":"Feature","properties":{"name":"BLE (ID 939)"},"geometry":{"type":"Point","coordinates":[-51.893929,-23.421767]}},
{"type":"Feature","properties":{"name":"BLE (ID 941)"},"geometry":{"type":"Point","coordinates":[-51.893841,-23.421779]}},
{"type":"Feature","properties":{"name":"BLE (ID 942)"},"geometry":{"type":"Point","coordinates":[-51.893985,-23.422273]}},
{"type":"Feature","properties":{"name":"BLE (ID 945)"},"geometry":{"type":"Point","coordinates":[-51.893915,-23.422313]}},
{"type":"Feature","properties":{"name":"BLE (ID 946)"},"geometry":{"type":"Point","coordinates":[-51.893905,-23.422343]}},
{"type":"Feature","properties":{"name":"BLE (ID 949)"},"geometry":{"type":"Point","coordinates":[-51.89395,-23.422404]}},
{"type":"Feature","properties":{"name":"BLE (ID 950)"},"geometry":{"type":"Point","coordinates":[-51.89477,-23.421937]}},
{"type":"Feature","properties":{"name":"BLE (ID 953)"},"geometry":{"type":"Point","coordinates":[-51.895462,-23.421455]}},
{"type":"Feature","properties":{"name":"BLE (ID 955)"},"geometry":{"type":"Point","coordinates":[-51.895505,-23.421518]}},
{"type":"Feature","properties":{"name":"BLE (ID 957)"},"geometry":{"type":"Point","coordinates":[-51.89554,-23.421525]}},
{"type":"Feature","properties":{"name":"BLE (ID 958)"},"geometry":{"type":"Point","coordinates":[-51.895851,-23.421321]}},
{"type":"Feature","properties":{"name":"BLE (ID 961)"},"geometry":{"type":"Point","coordinates":[-51.895788,-23.421249]}},
{"type":"Feature","properties":{"name":"BLE (ID 963)"},"geometry":{"type":"Point","coordinates":[-51.893034,-23.422928]}},
{"type":"Feature","properties":{"name":"BLE (ID 966)"},"geometry":{"type":"Point","coordinates":[-51.891965,-23.42345]}},
{"type":"Feature","properties":{"name":"BLE (ID 968)"},"geometry":{"type":"Point","coordinates":[-51.892009,-23.423513]}},
{"type":"Feature","properties":{"name":"BLE (ID 971)"},"geometry":{"type":"Point","coordinates":[-51.891369,-23.423878]}},
{"type":"Feature","properties":{"name":"BLE (ID 975)"},"geometry":{"type":"Point","coordinates":[-51.890491,-23.424378]}},
{"type":"Feature","properties":{"name":"BLE (ID 977)"},"geometry":{"type":"Point","coordinates":[-51.890807,-23.424855]}},
{"type":"Feature","properties":{"name":"BLE (ID 978)"},"geometry":{"type":"Point","coordinates":[-51.890766,-23.424791]}},
{"type":"Feature","properties":{"name":"BLE (ID 981)"},"geometry":{"type":"Point","coordinates":[-51.891685,-23.424354]}},
{"type":"Feature","properties":{"name":"BLE (ID 982)"},"geometry":{"type":"Point","coordinates":[-51.891641,-23.424292]}},
{"type":"Feature","properties":{"name":"BLE (ID 985)"},"geometry":{"type":"Point","coordinates":[-51.892325,-23.423989]}},
{"type":"Feature","properties":{"name":"BLE (ID 986)"},"geometry":{"type":"Point","coordinates":[-51.892282,-23.423927]}},
{"type":"Feature","properties":{"name":"BLE (ID 989)"},"geometry":{"type":"Point","coordinates":[-51.893308,-23.423341]}},
{"type":"Feature","properties":{"name":"BLE (ID 990)"},"geometry":{"type":"Point","coordinates":[-51.893352,-23.423404]}},
{"type":"Feature","properties":{"name":"BLE (ID 994)"},"geometry":{"type":"Point","coordinates":[-51.894257,-23.422887]}},
{"type":"Feature","properties":{"name":"BLE (ID 995)"},"geometry":{"type":"Point","coordinates":[-51.894236,-23.422788]}},
{"type":"Feature","properties":{"name":"BLE (ID 998)"},"geometry":{"type":"Point","coordinates":[-51.894304,-23.42275]}},
{"type":"Feature","properties":{"name":"BLE (ID 999)"},"geometry":{"type":"Point","coordinates":[-51.895049,-23.422348]}},
{"type":"Feature","properties":{"name":"BLE (ID 1002)"},"geometry":{"type":"Point","coordinates":[-51.895091,-23.422412]}},
{"type":"Feature","properties":{"name":"BLE (ID 1003)"},"geometry":{"type":"Point","coordinates":[-51.895772,-23.421937]}},
{"type":"Feature","properties":{"name":"BLE (ID 1007)"},"geometry":{"type":"Point","coordinates":[-51.895817,-23.421998]}},
{"type":"Feature","properties":{"name":"BLE (ID 1008)"},"geometry":{"type":"Point","coordinates":[-51.895855,-23.421999]}},
{"type":"Feature","properties":{"name":"BLED (ID 1010)"},"geometry":{"type":"Point","coordinates":[-51.896524,-23.421508]}},
{"type":"Feature","properties":{"name":"BLE (ID 1012)"},"geometry":{"type":"Point","coordinates":[-51.896519,-23.42146]}},
{"type":"Feature","properties":{"name":"BLED (ID 1016)"},"geometry":{"type":"Point","coordinates":[-51.896649,-23.421524]}},
{"type":"Feature","properties":{"name":"BLED (ID 1019)"},"geometry":{"type":"Point","coordinates":[-51.896666,-23.421343]}},
{"type":"Feature","properties":{"name":"BLE (ID 1024)"},"geometry":{"type":"Point","coordinates":[-51.890504,-23.425697]}},
{"type":"Feature","properties":{"name":"BLE (ID 1033)"},"geometry":{"type":"Point","coordinates":[-51.890563,-23.425664]}},
{"type":"Feature","properties":{"name":"BLE (ID 1034)"},"geometry":{"type":"Point","coordinates":[-51.890569,-23.425673]}},
{"type":"Feature","properties":{"name":"BLE (ID 1039)"},"geometry":{"type":"Point","coordinates":[-51.8911,-23.425269]}},
{"type":"Feature","properties":{"name":"BLE (ID 1044)"},"geometry":{"type":"Point","coordinates":[-51.891607,-23.425081]}},
{"type":"Feature","properties":{"name":"BLE (ID 1049)"},"geometry":{"type":"Point","coordinates":[-51.898114,-23.417629]}},
{"type":"Feature","properties":{"name":"BLE (ID 1053)"},"geometry":{"type":"Point","coordinates":[-51.898883,-23.417783]}},
{"type":"Feature","properties":{"name":"BLE (ID 1054)"},"geometry":{"type":"Point","coordinates":[-51.898894,-23.417787]}},
{"type":"Feature","properties":{"name":"BLE (ID 1057)"},"geometry":{"type":"Point","coordinates":[-51.899118,-23.417856]}},
{"type":"Feature","properties":{"name":"BLE (ID 1058)"},"geometry":{"type":"Point","coordinates":[-51.899128,-23.417859]}},
{"type":"Feature","properties":{"name":"BLE (ID 1065)"},"geometry":{"type":"Point","coordinates":[-51.899554,-23.41799]}},
{"type":"Feature","properties":{"name":"BLE (ID 1066)"},"geometry":{"type":"Point","coordinates":[-51.899544,-23.417987]}},
{"type":"Feature","properties":{"name":"BLE (ID 1069)"},"geometry":{"type":"Point","coordinates":[-51.900302,-23.418221]}},
{"type":"Feature","properties":{"name":"BLE (ID 1070)"},"geometry":{"type":"Point","coordinates":[-51.900883,-23.4184]}},
{"type":"Feature","properties":{"name":"BLE (ID 1071)"},"geometry":{"type":"Point","coordinates":[-51.901482,-23.418584]}},
{"type":"Feature","properties":{"name":"BLE (ID 1073)"},"geometry":{"type":"Point","coordinates":[-51.901516,-23.418516]}},
{"type":"Feature","properties":{"name":"BLE (ID 1076)"},"geometry":{"type":"Point","coordinates":[-51.900908,-23.41833]}},
{"type":"Feature","properties":{"name":"BLE (ID 1077)"},"geometry":{"type":"Point","coordinates":[-51.900358,-23.41816]}},
{"type":"Feature","properties":{"name":"BLE (ID 1078)"},"geometry":{"type":"Point","coordinates":[-51.899571,-23.417917]}},
{"type":"Feature","properties":{"name":"BLE (ID 1080)"},"geometry":{"type":"Point","coordinates":[-51.899562,-23.417914]}},
{"type":"Feature","properties":{"name":"BLE (ID 1086)"},"geometry":{"type":"Point","coordinates":[-51.899189,-23.417799]}},
{"type":"Feature","properties":{"name":"BLE (ID 1091)"},"geometry":{"type":"Point","coordinates":[-51.898989,-23.417737]}},
{"type":"Feature","properties":{"name":"BLE (ID 1099)"},"geometry":{"type":"Point","coordinates":[-51.89473,-23.420214]}},
{"type":"Feature","properties":{"name":"BLE (ID 1100)"},"geometry":{"type":"Point","coordinates":[-51.895406,-23.42039]}},
{"type":"Feature","properties":{"name":"BLE (ID 1103)"},"geometry":{"type":"Point","coordinates":[-51.895344,-23.420296]}},
{"type":"Feature","properties":{"name":"BLE (ID 1104)"},"geometry":{"type":"Point","coordinates":[-51.89558,-23.420685]}},
{"type":"Feature","properties":{"name":"BLE (ID 1107)"},"geometry":{"type":"Point","coordinates":[-51.895587,-23.420655]}},
{"type":"Feature","properties":{"name":"BLE (ID 1108)"},"geometry":{"type":"Point","coordinates":[-51.895657,-23.42062]}},
{"type":"Feature","properties":{"name":"BLE (ID 1111)"},"geometry":{"type":"Point","coordinates":[-51.895056,-23.419771]}},
{"type":"Feature","properties":{"name":"BLE (ID 1112)"},"geometry":{"type":"Point","coordinates":[-51.895126,-23.419735]}},
{"type":"Feature","properties":{"name":"BLE (ID 1115)"},"geometry":{"type":"Point","coordinates":[-51.895421,-23.420226]}},
{"type":"Feature","properties":{"name":"BLE (ID 1116)"},"geometry":{"type":"Point","coordinates":[-51.895496,-23.420834]}},
{"type":"Feature","properties":{"name":"BLE (ID 1119)"},"geometry":{"type":"Point","coordinates":[-51.895701,-23.420882]}},
{"type":"Feature","properties":{"name":"BLE (ID 1120)"},"geometry":{"type":"Point","coordinates":[-51.89572,-23.420726]}},
{"type":"Feature","properties":{"name":"BLE (ID 1123)"},"geometry":{"type":"Point","coordinates":[-51.895871,-23.42062]}},
{"type":"Feature","properties":{"name":"BLE (ID 1126)"},"geometry":{"type":"Point","coordinates":[-51.896111,-23.420412]}},
{"type":"Feature","properties":{"name":"BLE (ID 1129)"},"geometry":{"type":"Point","coordinates":[-51.896151,-23.420477]}},
{"type":"Feature","properties":{"name":"BLE (ID 1130)"},"geometry":{"type":"Point","coordinates":[-51.896253,-23.420452]}},
{"type":"Feature","properties":{"name":"BLE (ID 1131)"},"geometry":{"type":"Point","coordinates":[-51.89655,-23.420944]}},
{"type":"Feature","properties":{"name":"BLE (ID 1135)"},"geometry":{"type":"Point","coordinates":[-51.896479,-23.42098]}},
{"type":"Feature","properties":{"name":"BLE (ID 1138)"},"geometry":{"type":"Point","coordinates":[-51.896119,-23.42038]}},
{"type":"Feature","properties":{"name":"BLE (ID 1139)"},"geometry":{"type":"Point","coordinates":[-51.896189,-23.420345]}},
{"type":"Feature","properties":{"name":"BLE (ID 1141)"},"geometry":{"type":"Point","coordinates":[-51.895818,-23.419729]}},
{"type":"Feature","properties":{"name":"BLE (ID 1142)"},"geometry":{"type":"Point","coordinates":[-51.895745,-23.41976]}},
{"type":"Feature","properties":{"name":"BLE (ID 1144)"},"geometry":{"type":"Point","coordinates":[-51.895298,-23.418864]}},
{"type":"Feature","properties":{"name":"BLE (ID 1147)"},"geometry":{"type":"Point","coordinates":[-51.895226,-23.418899]}},
{"type":"Feature","properties":{"name":"BLE (ID 1149)"},"geometry":{"type":"Point","coordinates":[-51.894849,-23.418272]}},
{"type":"Feature","properties":{"name":"BLE_P (ID 3)"},"geometry":{"type":"Point","coordinates":[-51.979792,-23.422962]}},
{"type":"Feature","properties":{"name":"BLE_P (ID 12)"},"geometry":{"type":"Point","coordinates":[-51.979427,-23.423176]}},
{"type":"Feature","properties":{"name":"BLE_P (ID 13)"},"geometry":{"type":"Point","coordinates":[-51.979535,-23.423073]}},
{"type":"Feature","properties":{"name":"BLE_P (ID 14)"},"geometry":{"type":"Point","coordinates":[-51.97972,-23.422898]}},
{"type":"Feature","properties":{"name":"BLE_P (ID 19)"},"geometry":{"type":"Point","coordinates":[-51.981281,-23.421426]}},
{"type":"Feature","properties":{"name":"BLE_P (ID 21)"},"geometry":{"type":"Point","coordinates":[-51.981783,-23.420951]}},
{"type":"Feature","properties":{"name":"BLE_P (ID 31)"},"geometry":{"type":"Point","coordinates":[-51.982543,-23.420371]}},
{"type":"Feature","properties":{"name":"BLE_P (ID 33)"},"geometry":{"type":"Point","coordinates":[-51.982245,-23.420651]}},
{"type":"Feature","properties":{"name":"BLE_P (ID 37)"},"geometry":{"type":"Point","coordinates":[-51.981357,-23.421487]}},
{"type":"Feature","properties":{"name":"BLE_P (ID 38)"},"geometry":{"type":"Point","coordinates":[-51.980972,-23.421852]}},
{"type":"Feature","properties":{"name":"BLE_P (ID 39)"},"geometry":{"type":"Point","coordinates":[-51.980748,-23.421856]}},
{"type":"Feature","properties":{"name":"BLE_P (ID 40)"},"geometry":{"type":"Point","coordinates":[-51.980336,-23.421484]}},
{"type":"Feature","properties":{"name":"BLE_P (ID 41)"},"geometry":{"type":"Point","coordinates":[-51.979929,-23.421119]}},
{"type":"Feature","properties":{"name":"BLE_P (ID 43)"},"geometry":{"type":"Point","coordinates":[-51.979339,-23.420589]}},
{"type":"Feature","properties":{"name":"BLE_P (ID 44)"},"geometry":{"type":"Point","coordinates":[-51.979408,-23.420522]}},
{"type":"Feature","properties":{"name":"BLE_P (ID 46)"},"geometry":{"type":"Point","coordinates":[-51.980401,-23.421416]}},
{"type":"Feature","properties":{"name":"BLE_P (ID 50)"},"geometry":{"type":"Point","coordinates":[-51.979959,-23.419826]}},
{"type":"Feature","properties":{"name":"BLE_P (ID 51)"},"geometry":{"type":"Point","coordinates":[-51.979901,-23.419902]}},
{"type":"Feature","properties":{"name":"BLE_P (ID 54)"},"geometry":{"type":"Point","coordinates":[-51.981603,-23.421011]}},
{"type":"Feature","properties":{"name":"BLE_P (ID 55)"},"geometry":{"type":"Point","coordinates":[-51.982387,-23.420194]}},
{"type":"Feature","properties":{"name":"BLE_P (ID 56)"},"geometry":{"type":"Point","coordinates":[-51.982399,-23.420088]}},
{"type":"Feature","properties":{"name":"BLE_P (ID 62)"},"geometry":{"type":"Point","coordinates":[-51.981876,-23.419861]}},
{"type":"Feature","properties":{"name":"BLE_P (ID 65)"},"geometry":{"type":"Point","coordinates":[-51.981574,-23.419664]}},
{"type":"Feature","properties":{"name":"BLE_P (ID 66)"},"geometry":{"type":"Point","coordinates":[-51.981616,-23.419578]}},
{"type":"Feature","properties":{"name":"BLE_P (ID 67)"},"geometry":{"type":"Point","coordinates":[-51.981312,-23.41938]}},
{"type":"Feature","properties":{"name":"BLE_P (ID 73)"},"geometry":{"type":"Point","coordinates":[-51.980956,-23.419149]}},
{"type":"Feature","properties":{"name":"BLE_P (ID 74)"},"geometry":{"type":"Point","coordinates":[-51.980657,-23.418954]}},
{"type":"Feature","properties":{"name":"BLE_P (ID 75)"},"geometry":{"type":"Point","coordinates":[-51.98061,-23.419037]}},
{"type":"Feature","properties":{"name":"BLE_P (ID 84)"},"geometry":{"type":"Point","coordinates":[-51.977222,-23.422812]}},
{"type":"Feature","properties":{"name":"BLE_P (ID 92)"},"geometry":{"type":"Point","coordinates":[-51.977134,-23.422762]}},
{"type":"Feature","properties":{"name":"BLE_P (ID 95)"},"geometry":{"type":"Point","coordinates":[-51.977777,-23.425235]}},
{"type":"Feature","properties":{"name":"BLE_P (ID 96)"},"geometry":{"type":"Point","coordinates":[-51.978125,-23.425548]}},
{"type":"Feature","properties":{"name":"BLE_P (ID 97)"},"geometry":{"type":"Point","coordinates":[-51.97916,-23.426479]}},
{"type":"Feature","properties":{"name":"BLE_P (ID 98)"},"geometry":{"type":"Point","coordinates":[-51.979159,-23.426479]}},
{"type":"Feature","properties":{"name":"BLE_P (ID 103)"},"geometry":{"type":"Point","coordinates":[-51.98096,-23.427983]}},
{"type":"Feature","properties":{"name":"BLE_P (ID 104)"},"geometry":{"type":"Point","coordinates":[-51.981059,-23.428073]}},
{"type":"Feature","properties":{"name":"BLE_P (ID 106)"},"geometry":{"type":"Point","coordinates":[-51.981344,-23.428446]}},
{"type":"Feature","properties":{"name":"BLE_P (ID 107)"},"geometry":{"type":"Point","coordinates":[-51.981835,-23.428889]}},
{"type":"Feature","properties":{"name":"BLE_P (ID 108)"},"geometry":{"type":"Point","coordinates":[-51.98237,-23.42937]}},
{"type":"Feature","properties":{"name":"BLE_P (ID 109)"},"geometry":{"type":"Point","coordinates":[-51.982859,-23.429811]}},
{"type":"Feature","properties":{"name":"BLE_P (ID 110)"},"geometry":{"type":"Point","coordinates":[-51.983299,-23.430206]}},
{"type":"Feature","properties":{"name":"BLE_P (ID 111)"},"geometry":{"type":"Point","coordinates":[-51.983263,-23.430302]}},
{"type":"Feature","properties":{"name":"BLE_P (ID 112)"},"geometry":{"type":"Point","coordinates":[-51.982788,-23.429876]}},
{"type":"Feature","properties":{"name":"BLE_P (ID 113)"},"geometry":{"type":"Point","coordinates":[-51.982301,-23.429437]}},
{"type":"Feature","properties":{"name":"BLE_P (ID 115)"},"geometry":{"type":"Point","coordinates":[-51.981282,-23.42852]}},
{"type":"Feature","properties":{"name":"BLE_P (ID 116)"},"geometry":{"type":"Point","coordinates":[-51.980787,-23.428075]}},
{"type":"Feature","properties":{"name":"BLE_P (ID 123)"},"geometry":{"type":"Point","coordinates":[-51.97909,-23.426547]}},
{"type":"Feature","properties":{"name":"BLE_P (ID 124)"},"geometry":{"type":"Point","coordinates":[-51.978054,-23.425614]}},
{"type":"Feature","properties":{"name":"BLE_P (ID 125)"},"geometry":{"type":"Point","coordinates":[-51.977751,-23.425341]}},
{"type":"Feature","properties":{"name":"BLE_P (ID 126)"},"geometry":{"type":"Point","coordinates":[-51.977705,-23.4253]}},
{"type":"Feature","properties":{"name":"BLE_P (ID 127)"},"geometry":{"type":"Point","coordinates":[-51.977208,-23.424853]}},
{"type":"Feature","properties":{"name":"BLE_P (ID 128)"},"geometry":{"type":"Point","coordinates":[-51.976712,-23.424407]}},
{"type":"Feature","properties":{"name":"BLE_P (ID 129)"},"geometry":{"type":"Point","coordinates":[-51.976222,-23.423965]}},
{"type":"Feature","properties":{"name":"BLE_P (ID 135)"},"geometry":{"type":"Point","coordinates":[-51.974722,-23.422446]}},
{"type":"Feature","properties":{"name":"BLE_P (ID 136)"},"geometry":{"type":"Point","coordinates":[-51.975239,-23.422948]}},
{"type":"Feature","properties":{"name":"BLE_P (ID 137)"},"geometry":{"type":"Point","coordinates":[-51.975804,-23.423457]}},
{"type":"Feature","properties":{"name":"BLE_P (ID 142)"},"geometry":{"type":"Point","coordinates":[-51.977273,-23.424779]}},
{"type":"Feature","properties":{"name":"BLE_P (ID 143)"},"geometry":{"type":"Point","coordinates":[-51.974734,-23.422006]}},
{"type":"Feature","properties":{"name":"BLE_P (ID 144)"},"geometry":{"type":"Point","coordinates":[-51.974726,-23.421991]}},
{"type":"Feature","properties":{"name":"BLED_P (ID 145)"},"geometry":{"type":"Point","coordinates":[-51.97509,-23.421889]}},
{"type":"Feature","properties":{"name":"BLE_P (ID 146)"},"geometry":{"type":"Point","coordinates":[-51.975047,-23.421816]}},
{"type":"Feature","properties":{"name":"BLED_P (ID 147)"},"geometry":{"type":"Point","coordinates":[-51.975331,-23.421744]}},
{"type":"Feature","properties":{"name":"BLE_P (ID 148)"},"geometry":{"type":"Point","coordinates":[-51.975274,-23.421679]}},
{"type":"Feature","properties":{"name":"BLE_P (ID 149)"},"geometry":{"type":"Point","coordinates":[-51.975264,-23.421666]}},
{"type":"Feature","properties":{"name":"BLE_P (ID 150)"},"geometry":{"type":"Point","coordinates":[-51.975764,-23.421482]}},
{"type":"Feature","properties":{"name":"BLE_P (ID 151)"},"geometry":{"type":"Point","coordinates":[-51.975715,-23.421413]}},
{"type":"Feature","properties":{"name":"BLE_P (ID 152)"},"geometry":{"type":"Point","coordinates":[-51.975706,-23.421399]}},
{"type":"Feature","properties":{"name":"BLE_P (ID 154)"},"geometry":{"type":"Point","coordinates":[-51.976313,-23.421151]}},
{"type":"Feature","properties":{"name":"BLE_P (ID 155)"},"geometry":{"type":"Point","coordinates":[-51.976264,-23.421082]}},
{"type":"Feature","properties":{"name":"BLE_P (ID 156)"},"geometry":{"type":"Point","coordinates":[-51.976254,-23.421068]}},
{"type":"Feature","properties":{"name":"BLE_P (ID 157)"},"geometry":{"type":"Point","coordinates":[-51.976887,-23.420805]}},
{"type":"Feature","properties":{"name":"BLEI_P (ID 158)"},"geometry":{"type":"Point","coordinates":[-51.976838,-23.420735]}},
{"type":"Feature","properties":{"name":"BLE_P (ID 159)"},"geometry":{"type":"Point","coordinates":[-51.977551,-23.420405]}},
{"type":"Feature","properties":{"name":"BLE_P (ID 160)"},"geometry":{"type":"Point","coordinates":[-51.977495,-23.420339]}},
{"type":"Feature","properties":{"name":"BLE_P (ID 161)"},"geometry":{"type":"Point","coordinates":[-51.97745,-23.420365]}},
{"type":"Feature","properties":{"name":"BLE_P (ID 162)"},"geometry":{"type":"Point","coordinates":[-51.97804,-23.420109]}},
{"type":"Feature","properties":{"name":"BLE_P (ID 163)"},"geometry":{"type":"Point","coordinates":[-51.977982,-23.420044]}},
{"type":"Feature","properties":{"name":"BLE_P (ID 170)"},"geometry":{"type":"Point","coordinates":[-51.979323,-23.419336]}},
{"type":"Feature","properties":{"name":"BLE_P (ID 174)"},"geometry":{"type":"Point","coordinates":[-51.98128,-23.418151]}},
{"type":"Feature","properties":{"name":"BLE_P (ID 175)"},"geometry":{"type":"Point","coordinates":[-51.981234,-23.418077]}},
{"type":"Feature","properties":{"name":"BLEI_P (ID 180)"},"geometry":{"type":"Point","coordinates":[-51.976839,-23.420734]}},
{"type":"Feature","properties":{"name":"BLE_P (ID 183)"},"geometry":{"type":"Point","coordinates":[-51.978366,-23.424307]}},
{"type":"Feature","properties":{"name":"BLE_P (ID 184)"},"geometry":{"type":"Point","coordinates":[-51.976204,-23.421]}},
{"type":"Feature","properties":{"name":"BLE_P (ID 185)"},"geometry":{"type":"Point","coordinates":[-51.975655,-23.421332]}},
{"type":"Feature","properties":{"name":"BLE_P (ID 188)"},"geometry":{"type":"Point","coordinates":[-51.974674,-23.421922]}},
{"type":"Feature","properties":{"name":"BLE_P (ID 190)"},"geometry":{"type":"Point","coordinates":[-51.975569,-23.421308]}},
{"type":"Feature","properties":{"name":"BLE_P (ID 191)"},"geometry":{"type":"Point","coordinates":[-51.975484,-23.42136]}},
{"type":"Feature","properties":{"name":"BLE_P (ID 198)"},"geometry":{"type":"Point","coordinates":[-51.974626,-23.420132]}},
{"type":"Feature","properties":{"name":"BLED_P (ID 199)"},"geometry":{"type":"Point","coordinates":[-51.974374,-23.419486]}},
{"type":"Feature","properties":{"name":"BLE_P (ID 200)"},"geometry":{"type":"Point","coordinates":[-51.974359,-23.419495]}},
{"type":"Feature","properties":{"name":"BLET_P (ID 201)"},"geometry":{"type":"Point","coordinates":[-51.974307,-23.419416]}},
{"type":"Feature","properties":{"name":"BLE_P (ID 202)"},"geometry":{"type":"Point","coordinates":[-51.97501,-23.419107]}},
{"type":"Feature","properties":{"name":"BLED_P (ID 203)"},"geometry":{"type":"Point","coordinates":[-51.97495,-23.419033]}},
{"type":"Feature","properties":{"name":"BLE_P (ID 204)"},"geometry":{"type":"Point","coordinates":[-51.975543,-23.418788]}},
{"type":"Feature","properties":{"name":"BLE_P (ID 205)"},"geometry":{"type":"Point","coordinates":[-51.97549,-23.418712]}},
{"type":"Feature","properties":{"name":"BLE_P (ID 206)"},"geometry":{"type":"Point","coordinates":[-51.976114,-23.418446]}},
{"type":"Feature","properties":{"name":"BLE_P (ID 207)"},"geometry":{"type":"Point","coordinates":[-51.976057,-23.418374]}},
{"type":"Feature","properties":{"name":"BLE_P (ID 208)"},"geometry":{"type":"Point","coordinates":[-51.973549,-23.419868]}},
{"type":"Feature","properties":{"name":"BLE_P (ID 209)"},"geometry":{"type":"Point","coordinates":[-51.973601,-23.419947]}},
{"type":"Feature","properties":{"name":"BLE_P (ID 210)"},"geometry":{"type":"Point","coordinates":[-51.972865,-23.42015]}},
{"type":"Feature","properties":{"name":"BLE_P (ID 211)"},"geometry":{"type":"Point","coordinates":[-51.973044,-23.420449]}},
{"type":"Feature","properties":{"name":"BLE_P (ID 212)"},"geometry":{"type":"Point","coordinates":[-51.973059,-23.420437]}},
{"type":"Feature","properties":{"name":"BLE_P (ID 218)"},"geometry":{"type":"Point","coordinates":[-51.973314,-23.42085]}},
{"type":"Feature","properties":{"name":"BLE_P (ID 233)"},"geometry":{"type":"Point","coordinates":[-51.974558,-23.422474]}},
{"type":"Feature","properties":{"name":"BLE_P (ID 236)"},"geometry":{"type":"Point","coordinates":[-51.974297,-23.421866]}},
{"type":"Feature","properties":{"name":"BLE_P (ID 237)"},"geometry":{"type":"Point","coordinates":[-51.973872,-23.421795]}},
{"type":"Feature","properties":{"name":"BLE_P (ID 241)"},"geometry":{"type":"Point","coordinates":[-51.97426,-23.422753]}},
{"type":"Feature","properties":{"name":"BLE_P (ID 243)"},"geometry":{"type":"Point","coordinates":[-51.974389,-23.423207]}},
{"type":"Feature","properties":{"name":"BLE_P (ID 244)"},"geometry":{"type":"Point","coordinates":[-51.974446,-23.423294]}},
{"type":"Feature","properties":{"name":"BLE_P (ID 255)"},"geometry":{"type":"Point","coordinates":[-51.975408,-23.42516]}},
{"type":"Feature","properties":{"name":"BLE_P (ID 257)"},"geometry":{"type":"Point","coordinates":[-51.975571,-23.426545]}},
{"type":"Feature","properties":{"name":"BLE_P (ID 260)"},"geometry":{"type":"Point","coordinates":[-51.975479,-23.427582]}},
{"type":"Feature","properties":{"name":"BLE_P (ID 261)"},"geometry":{"type":"Point","coordinates":[-51.97545,-23.427579]}},
{"type":"Feature","properties":{"name":"BLE_P (ID 271)"},"geometry":{"type":"Point","coordinates":[-51.975009,-23.430659]}},
{"type":"Feature","properties":{"name":"BLE_P (ID 272)"},"geometry":{"type":"Point","coordinates":[-51.975034,-23.430662]}},
{"type":"Feature","properties":{"name":"BLE_P (ID 273)"},"geometry":{"type":"Point","coordinates":[-51.974937,-23.431761]}},
{"type":"Feature","properties":{"name":"BLE_P (ID 274)"},"geometry":{"type":"Point","coordinates":[-51.974966,-23.432128]}},
{"type":"Feature","properties":{"name":"BLE_P (ID 275)"},"geometry":{"type":"Point","coordinates":[-51.975131,-23.432959]}},
{"type":"Feature","properties":{"name":"BLE_P (ID 276)"},"geometry":{"type":"Point","coordinates":[-51.975494,-23.433562]}},
{"type":"Feature","properties":{"name":"BLE_P (ID 280)"},"geometry":{"type":"Point","coordinates":[-51.974827,-23.431772]}},
{"type":"Feature","properties":{"name":"BLE_P (ID 282)"},"geometry":{"type":"Point","coordinates":[-51.974884,-23.430638]}},
{"type":"Feature","properties":{"name":"BLE_P (ID 283)"},"geometry":{"type":"Point","coordinates":[-51.975088,-23.429323]}},
{"type":"Feature","properties":{"name":"BLE_P (ID 295)"},"geometry":{"type":"Point","coordinates":[-51.975212,-23.424993]}},
{"type":"Feature","properties":{"name":"BLE_P (ID 300)"},"geometry":{"type":"Point","coordinates":[-51.97569,-23.43336]}},
{"type":"Feature","properties":{"name":"BLE_P (ID 301)"},"geometry":{"type":"Point","coordinates":[-51.975734,-23.433298]}},
{"type":"Feature","properties":{"name":"BLE_P (ID 302)"},"geometry":{"type":"Point","coordinates":[-51.976524,-23.43305]}},
{"type":"Feature","properties":{"name":"BLE_P (ID 303)"},"geometry":{"type":"Point","coordinates":[-51.976593,-23.433089]}},
{"type":"Feature","properties":{"name":"BLE_P (ID 304)"},"geometry":{"type":"Point","coordinates":[-51.977002,-23.432515]}},
{"type":"Feature","properties":{"name":"BLE_P (ID 305)"},"geometry":{"type":"Point","coordinates":[-51.976933,-23.432478]}},
{"type":"Feature","properties":{"name":"BLE_P (ID 308)"},"geometry":{"type":"Point","coordinates":[-51.977365,-23.43187]}},
{"type":"Feature","properties":{"name":"BLE_P (ID 309)"},"geometry":{"type":"Point","coordinates":[-51.977716,-23.432008]}},
{"type":"Feature","properties":{"name":"BLE_P (ID 312)"},"geometry":{"type":"Point","coordinates":[-51.978432,-23.432331]}},
{"type":"Feature","properties":{"name":"BLE_P (ID 313)"},"geometry":{"type":"Point","coordinates":[-51.979083,-23.432727]}},
{"type":"Feature","properties":{"name":"BLE_P (ID 314)"},"geometry":{"type":"Point","coordinates":[-51.979027,-23.432805]}},
{"type":"Feature","properties":{"name":"BLE_P (ID 315)"},"geometry":{"type":"Point","coordinates":[-51.979684,-23.433204]}},
{"type":"Feature","properties":{"name":"BLE_P (ID 318)"},"geometry":{"type":"Point","coordinates":[-51.979928,-23.433241]}},
{"type":"Feature","properties":{"name":"BLE_P (ID 319)"},"geometry":{"type":"Point","coordinates":[-51.98034,-23.433602]}},
{"type":"Feature","properties":{"name":"BLE_P (ID 320)"},"geometry":{"type":"Point","coordinates":[-51.980474,-23.433573]}},
{"type":"Feature","properties":{"name":"BLE_P (ID 321)"},"geometry":{"type":"Point","coordinates":[-51.981043,-23.433919]}},
{"type":"Feature","properties":{"name":"BLE_P (ID 322)"},"geometry":{"type":"Point","coordinates":[-51.98099,-23.433998]}},
{"type":"Feature","properties":{"name":"BLE_P (ID 327)"},"geometry":{"type":"Point","coordinates":[-51.9817,-23.434317]}},
{"type":"Feature","properties":{"name":"BLE_P (ID 328)"},"geometry":{"type":"Point","coordinates":[-51.982192,-23.434616]}},
{"type":"Feature","properties":{"name":"BLE_P (ID 329)"},"geometry":{"type":"Point","coordinates":[-51.982132,-23.434691]}},
{"type":"Feature","properties":{"name":"BLE_P (ID 332)"},"geometry":{"type":"Point","coordinates":[-51.982828,-23.436328]}},
{"type":"Feature","properties":{"name":"BLE_P (ID 333)"},"geometry":{"type":"Point","coordinates":[-51.982925,-23.436308]}},
{"type":"Feature","properties":{"name":"BLE_P (ID 338)"},"geometry":{"type":"Point","coordinates":[-51.983398,-23.434303]}},
{"type":"Feature","properties":{"name":"BLE_P (ID 339)"},"geometry":{"type":"Point","coordinates":[-51.983152,-23.434421]}},
{"type":"Feature","properties":{"name":"BLE_P (ID 340)"},"geometry":{"type":"Point","coordinates":[-51.977772,-23.431931]}},
{"type":"Feature","properties":{"name":"BLE_P (ID 344)"},"geometry":{"type":"Point","coordinates":[-51.976897,-23.431612]}},
{"type":"Feature","properties":{"name":"BLE_P (ID 345)"},"geometry":{"type":"Point","coordinates":[-51.976774,-23.431546]}},
{"type":"Feature","properties":{"name":"BLE_P (ID 346)"},"geometry":{"type":"Point","coordinates":[-51.976451,-23.432]}},
{"type":"Feature","properties":{"name":"BLE_P (ID 347)"},"geometry":{"type":"Point","coordinates":[-51.976561,-23.432062]}},
{"type":"Feature","properties":{"name":"BLE_P (ID 349)"},"geometry":{"type":"Point","coordinates":[-51.976122,-23.43246]}},
{"type":"Feature","properties":{"name":"BLE_P (ID 350)"},"geometry":{"type":"Point","coordinates":[-51.975763,-23.432964]}},
{"type":"Feature","properties":{"name":"BLE_P (ID 351)"},"geometry":{"type":"Point","coordinates":[-51.975874,-23.433026]}},
{"type":"Feature","properties":{"name":"BLE_P (ID 354)"},"geometry":{"type":"Point","coordinates":[-51.976183,-23.431209]}},
{"type":"Feature","properties":{"name":"BLE_P (ID 355)"},"geometry":{"type":"Point","coordinates":[-51.976188,-23.431043]}},
{"type":"Feature","properties":{"name":"BLE_P (ID 356)"},"geometry":{"type":"Point","coordinates":[-51.975656,-23.430776]}},
{"type":"Feature","properties":{"name":"BLE_P (ID 357)"},"geometry":{"type":"Point","coordinates":[-51.975578,-23.430889]}},
{"type":"Feature","properties":{"name":"BLE_P (ID 358)"},"geometry":{"type":"Point","coordinates":[-51.974736,-23.425304]}},
{"type":"Feature","properties":{"name":"BLE_P (ID 359)"},"geometry":{"type":"Point","coordinates":[-51.974668,-23.425235]}},
{"type":"Feature","properties":{"name":"BLE_P (ID 360)"},"geometry":{"type":"Point","coordinates":[-51.974376,-23.425645]}},
{"type":"Feature","properties":{"name":"BLE_P (ID 361)"},"geometry":{"type":"Point","coordinates":[-51.974303,-23.425581]}},
{"type":"Feature","properties":{"name":"BLE_P (ID 362)"},"geometry":{"type":"Point","coordinates":[-51.973911,-23.425951]}},
{"type":"Feature","properties":{"name":"BLE_P (ID 363)"},"geometry":{"type":"Point","coordinates":[-51.973979,-23.42602]}},
{"type":"Feature","properties":{"name":"BLE_P (ID 372)"},"geometry":{"type":"Point","coordinates":[-51.973208,-23.426749]}},
{"type":"Feature","properties":{"name":"BLE_P (ID 375)"},"geometry":{"type":"Point","coordinates":[-51.972643,-23.427151]}},
{"type":"Feature","properties":{"name":"BLE_P (ID 376)"},"geometry":{"type":"Point","coordinates":[-51.971047,-23.425468]}},
{"type":"Feature","properties":{"name":"BLE_P (ID 377)"},"geometry":{"type":"Point","coordinates":[-51.971125,-23.425409]}},
{"type":"Feature","properties":{"name":"BLE_P (ID 379)"},"geometry":{"type":"Point","coordinates":[-51.970922,-23.424188]}},
{"type":"Feature","properties":{"name":"BLE_P (ID 380)"},"geometry":{"type":"Point","coordinates":[-51.970912,-23.424176]}},
{"type":"Feature","properties":{"name":"BLE_P (ID 381)"},"geometry":{"type":"Point","coordinates":[-51.971611,-23.423834]}},
{"type":"Feature","properties":{"name":"BLE_P (ID 382)"},"geometry":{"type":"Point","coordinates":[-51.971565,-23.423762]}},
{"type":"Feature","properties":{"name":"BLE_P (ID 383)"},"geometry":{"type":"Point","coordinates":[-51.971555,-23.42375]}},
{"type":"Feature","properties":{"name":"BLED_P (ID 388)"},"geometry":{"type":"Point","coordinates":[-51.973498,-23.422585]}},
{"type":"Feature","properties":{"name":"BLE_P (ID 395)"},"geometry":{"type":"Point","coordinates":[-51.973446,-23.422334]}},
{"type":"Feature","properties":{"name":"BLE_P (ID 396)"},"geometry":{"type":"Point","coordinates":[-51.972763,-23.422846]}},
{"type":"Feature","properties":{"name":"BLE_P (ID 397)"},"geometry":{"type":"Point","coordinates":[-51.972108,-23.423151]}},
{"type":"Feature","properties":{"name":"BLE_P (ID 398)"},"geometry":{"type":"Point","coordinates":[-51.972062,-23.42324]}},
{"type":"Feature","properties":{"name":"BLE_P (ID 402)"},"geometry":{"type":"Point","coordinates":[-51.971909,-23.423288]}},
{"type":"Feature","properties":{"name":"BLE_P (ID 403)"},"geometry":{"type":"Point","coordinates":[-51.971497,-23.423686]}},
{"type":"Feature","properties":{"name":"BLE_P (ID 404)"},"geometry":{"type":"Point","coordinates":[-51.970854,-23.424112]}},
{"type":"Feature","properties":{"name":"BLE_P (ID 405)"},"geometry":{"type":"Point","coordinates":[-51.971651,-23.422777]}},
{"type":"Feature","properties":{"name":"BLE_P (ID 406)"},"geometry":{"type":"Point","coordinates":[-51.971527,-23.422756]}},
{"type":"Feature","properties":{"name":"BLE_P (ID 407)"},"geometry":{"type":"Point","coordinates":[-51.971706,-23.422743]}},
{"type":"Feature","properties":{"name":"BLE_P (ID 410)"},"geometry":{"type":"Point","coordinates":[-51.9713,-23.422029]}},
{"type":"Feature","properties":{"name":"BLE_P (ID 414)"},"geometry":{"type":"Point","coordinates":[-51.971221,-23.422181]}},
{"type":"Feature","properties":{"name":"BLE_P (ID 415)"},"geometry":{"type":"Point","coordinates":[-51.971088,-23.422147]}},
{"type":"Feature","properties":{"name":"BLE_P (ID 416)"},"geometry":{"type":"Point","coordinates":[-51.971032,-23.42144]}},
{"type":"Feature","properties":{"name":"BLE_P (ID 418)"},"geometry":{"type":"Point","coordinates":[-51.971617,-23.420986]}},
{"type":"Feature","properties":{"name":"BLE_P (ID 419)"},"geometry":{"type":"Point","coordinates":[-51.972355,-23.420544]}},
{"type":"Feature","properties":{"name":"BLE_P (ID 424)"},"geometry":{"type":"Point","coordinates":[-51.97244,-23.420171]}},
{"type":"Feature","properties":{"name":"BLE_P (ID 425)"},"geometry":{"type":"Point","coordinates":[-51.972498,-23.42013]}},
{"type":"Feature","properties":{"name":"BLE_P (ID 426)"},"geometry":{"type":"Point","coordinates":[-51.972299,-23.419814]}},
{"type":"Feature","properties":{"name":"BLE_P (ID 427)"},"geometry":{"type":"Point","coordinates":[-51.972239,-23.419848]}},
{"type":"Feature","properties":{"name":"BLE_P (ID 428)"},"geometry":{"type":"Point","coordinates":[-51.971938,-23.419421]}},
{"type":"Feature","properties":{"name":"BLE_P (ID 429)"},"geometry":{"type":"Point","coordinates":[-51.972023,-23.419418]}},
{"type":"Feature","properties":{"name":"BLE_P (ID 430)"},"geometry":{"type":"Point","coordinates":[-51.972087,-23.419284]}},
{"type":"Feature","properties":{"name":"BLE_P (ID 431)"},"geometry":{"type":"Point","coordinates":[-51.972356,-23.419786]}},
{"type":"Feature","properties":{"name":"BLE_P (ID 432)"},"geometry":{"type":"Point","coordinates":[-51.972604,-23.419716]}},
{"type":"Feature","properties":{"name":"BLED_P (ID 433)"},"geometry":{"type":"Point","coordinates":[-51.972497,-23.419499]}},
{"type":"Feature","properties":{"name":"BLE_P (ID 434)"},"geometry":{"type":"Point","coordinates":[-51.972308,-23.41902]}},
{"type":"Feature","properties":{"name":"BLE_P (ID 437)"},"geometry":{"type":"Point","coordinates":[-51.973348,-23.421422]}},
{"type":"Feature","properties":{"name":"BLE_P (ID 438)"},"geometry":{"type":"Point","coordinates":[-51.973478,-23.421678]}},
{"type":"Feature","properties":{"name":"BLE_P (ID 448)"},"geometry":{"type":"Point","coordinates":[-51.961931,-23.418387]}},
{"type":"Feature","properties":{"name":"BLE_P (ID 449)"},"geometry":{"type":"Point","coordinates":[-51.962405,-23.418539]}},
{"type":"Feature","properties":{"name":"BLE_P (ID 457)"},"geometry":{"type":"Point","coordinates":[-51.962406,-23.41854]}},
{"type":"Feature","properties":{"name":"BLE_P (ID 458)"},"geometry":{"type":"Point","coordinates":[-51.962867,-23.418689]}},
{"type":"Feature","properties":{"name":"BLE_P (ID 463)"},"geometry":{"type":"Point","coordinates":[-51.963346,-23.418843]}},
{"type":"Feature","properties":{"name":"BLE_P (ID 468)"},"geometry":{"type":"Point","coordinates":[-51.966316,-23.41917]}},
{"type":"Feature","properties":{"name":"BLE_P (ID 493)"},"geometry":{"type":"Point","coordinates":[-51.968526,-23.418841]}},
{"type":"Feature","properties":{"name":"BLED_P (ID 497)"},"geometry":{"type":"Point","coordinates":[-51.968877,-23.418792]}},
{"type":"Feature","properties":{"name":"BLED_P (ID 498)"},"geometry":{"type":"Point","coordinates":[-51.969228,-23.418743]}},
{"type":"Feature","properties":{"name":"BLED_P (ID 500)"},"geometry":{"type":"Point","coordinates":[-51.969948,-23.418598]}},
{"type":"Feature","properties":{"name":"BLED_P (ID 501)"},"geometry":{"type":"Point","coordinates":[-51.970272,-23.418525]}},
{"type":"Feature","properties":{"name":"BLED_P (ID 502)"},"geometry":{"type":"Point","coordinates":[-51.970375,-23.41854]}},
{"type":"Feature","properties":{"name":"BLE_P (ID 529)"},"geometry":{"type":"Point","coordinates":[-51.969714,-23.419091]}},
{"type":"Feature","properties":{"name":"BLE_P (ID 530)"},"geometry":{"type":"Point","coordinates":[-51.970486,-23.418984]}},
{"type":"Feature","properties":{"name":"BLE_P (ID 531)"},"geometry":{"type":"Point","coordinates":[-51.970503,-23.419024]}},
{"type":"Feature","properties":{"name":"BLE_P (ID 535)"},"geometry":{"type":"Point","coordinates":[-51.970267,-23.419156]}},
{"type":"Feature","properties":{"name":"BLE_P (ID 536)"},"geometry":{"type":"Point","coordinates":[-51.969713,-23.419173]}},
{"type":"Feature","properties":{"name":"BLE_P (ID 537)"},"geometry":{"type":"Point","coordinates":[-51.96909,-23.419112]}},
{"type":"Feature","properties":{"name":"BLE_P (ID 538)"},"geometry":{"type":"Point","coordinates":[-51.968497,-23.419187]}},
{"type":"Feature","properties":{"name":"BLE_P (ID 539)"},"geometry":{"type":"Point","coordinates":[-51.968659,-23.419251]}},
{"type":"Feature","properties":{"name":"BLE_P (ID 540)"},"geometry":{"type":"Point","coordinates":[-51.96867,-23.419317]}},
{"type":"Feature","properties":{"name":"BLE_P (ID 545)"},"geometry":{"type":"Point","coordinates":[-51.967732,-23.419303]}},
{"type":"Feature","properties":{"name":"BLE_P (ID 546)"},"geometry":{"type":"Point","coordinates":[-51.967604,-23.419463]}},
{"type":"Feature","properties":{"name":"BLE_P (ID 555)"},"geometry":{"type":"Point","coordinates":[-51.960067,-23.421793]}},
{"type":"Feature","properties":{"name":"BLE_P (ID 564)"},"geometry":{"type":"Point","coordinates":[-51.88834,-23.423523]}},
{"type":"Feature","properties":{"name":"BLE_P (ID 565)"},"geometry":{"type":"Point","coordinates":[-51.889548,-23.422924]}},
{"type":"Feature","properties":{"name":"BLE_P (ID 569)"},"geometry":{"type":"Point","coordinates":[-51.893467,-23.420602]}},
{"type":"Feature","properties":{"name":"BLE_P (ID 570)"},"geometry":{"type":"Point","coordinates":[-51.893439,-23.420555]}},
{"type":"Feature","properties":{"name":"BLE_P (ID 571)"},"geometry":{"type":"Point","coordinates":[-51.890657,-23.42154]}},
{"type":"Feature","properties":{"name":"BLE_P (ID 572)"},"geometry":{"type":"Point","coordinates":[-51.891365,-23.421136]}},
{"type":"Feature","properties":{"name":"BLE_P (ID 573)"},"geometry":{"type":"Point","coordinates":[-51.891988,-23.42078]}},
{"type":"Feature","properties":{"name":"BLE_P (ID 577)"},"geometry":{"type":"Point","coordinates":[-51.889837,-23.421897]}},
{"type":"Feature","properties":{"name":"BLE_P (ID 580)"},"geometry":{"type":"Point","coordinates":[-51.889921,-23.421806]}},
{"type":"Feature","properties":{"name":"BLE_P (ID 581)"},"geometry":{"type":"Point","coordinates":[-51.890594,-23.421466]}},
{"type":"Feature","properties":{"name":"BLE_P (ID 582)"},"geometry":{"type":"Point","coordinates":[-51.89059,-23.421425]}},
{"type":"Feature","properties":{"name":"BLE_P (ID 583)"},"geometry":{"type":"Point","coordinates":[-51.890671,-23.421377]}},
{"type":"Feature","properties":{"name":"BLE_P (ID 584)"},"geometry":{"type":"Point","coordinates":[-51.891308,-23.42106]}},
{"type":"Feature","properties":{"name":"BLE_P (ID 585)"},"geometry":{"type":"Point","coordinates":[-51.891319,-23.42101]}},
{"type":"Feature","properties":{"name":"BLE_P (ID 586)"},"geometry":{"type":"Point","coordinates":[-51.891391,-23.420959]}},
{"type":"Feature","properties":{"name":"BLE_P (ID 587)"},"geometry":{"type":"Point","coordinates":[-51.891937,-23.420701]}},
{"type":"Feature","properties":{"name":"BLE_P (ID 594)"},"geometry":{"type":"Point","coordinates":[-51.892689,-23.4202]}},
{"type":"Feature","properties":{"name":"BLE_P (ID 595)"},"geometry":{"type":"Point","coordinates":[-51.893353,-23.419899]}},
{"type":"Feature","properties":{"name":"BLE_P (ID 596)"},"geometry":{"type":"Point","coordinates":[-51.8934,-23.41998]}},
{"type":"Feature","properties":{"name":"BLE_P (ID 599)"},"geometry":{"type":"Point","coordinates":[-51.893437,-23.419802]}},
{"type":"Feature","properties":{"name":"BLE_P (ID 600)"},"geometry":{"type":"Point","coordinates":[-51.894124,-23.419463]}},
{"type":"Feature","properties":{"name":"BLE_P (ID 601)"},"geometry":{"type":"Point","coordinates":[-51.894129,-23.419499]}},
{"type":"Feature","properties":{"name":"BLE_P (ID 602)"},"geometry":{"type":"Point","coordinates":[-51.894181,-23.419577]}},
{"type":"Feature","properties":{"name":"BLE_P (ID 605)"},"geometry":{"type":"Point","coordinates":[-51.89448,-23.419317]}},
{"type":"Feature","properties":{"name":"BLE_P (ID 606)"},"geometry":{"type":"Point","coordinates":[-51.894726,-23.419297]}},
{"type":"Feature","properties":{"name":"BLE_P (ID 607)"},"geometry":{"type":"Point","coordinates":[-51.89474,-23.41929]}},
{"type":"Feature","properties":{"name":"BLE_P (ID 608)"},"geometry":{"type":"Point","coordinates":[-51.894692,-23.419209]}},
{"type":"Feature","properties":{"name":"BLE_P (ID 609)"},"geometry":{"type":"Point","coordinates":[-51.894693,-23.419165]}},
{"type":"Feature","properties":{"name":"BLE_P (ID 610)"},"geometry":{"type":"Point","coordinates":[-51.894764,-23.419131]}},
{"type":"Feature","properties":{"name":"BLE_P (ID 611)"},"geometry":{"type":"Point","coordinates":[-51.895099,-23.419107]}},
{"type":"Feature","properties":{"name":"BLE_P (ID 612)"},"geometry":{"type":"Point","coordinates":[-51.895053,-23.419024]}},
{"type":"Feature","properties":{"name":"BLE_P (ID 613)"},"geometry":{"type":"Point","coordinates":[-51.895222,-23.418937]}},
{"type":"Feature","properties":{"name":"BLE_P (ID 614)"},"geometry":{"type":"Point","coordinates":[-51.895257,-23.419025]}},
{"type":"Feature","properties":{"name":"BLE_P (ID 615)"},"geometry":{"type":"Point","coordinates":[-51.89527,-23.419018]}},
{"type":"Feature","properties":{"name":"BLE_P (ID 618)"},"geometry":{"type":"Point","coordinates":[-51.895751,-23.418668]}},
{"type":"Feature","properties":{"name":"BLE_P (ID 619)"},"geometry":{"type":"Point","coordinates":[-51.895758,-23.418628]}},
{"type":"Feature","properties":{"name":"BLE_P (ID 620)"},"geometry":{"type":"Point","coordinates":[-51.895805,-23.418745]}},
{"type":"Feature","properties":{"name":"BLE_P (ID 621)"},"geometry":{"type":"Point","coordinates":[-51.895827,-23.418589]}},
{"type":"Feature","properties":{"name":"BLE_P (ID 622)"},"geometry":{"type":"Point","coordinates":[-51.8963,-23.418386]}},
{"type":"Feature","properties":{"name":"BLE_P (ID 623)"},"geometry":{"type":"Point","coordinates":[-51.896303,-23.418346]}},
{"type":"Feature","properties":{"name":"BLE_P (ID 624)"},"geometry":{"type":"Point","coordinates":[-51.896372,-23.418308]}},
{"type":"Feature","properties":{"name":"BLE_P (ID 625)"},"geometry":{"type":"Point","coordinates":[-51.896335,-23.418473]}},
{"type":"Feature","properties":{"name":"BLE_P (ID 626)"},"geometry":{"type":"Point","coordinates":[-51.896348,-23.418466]}},
{"type":"Feature","properties":{"name":"BLE_P (ID 627)"},"geometry":{"type":"Point","coordinates":[-51.896912,-23.418177]}},
{"type":"Feature","properties":{"name":"BLE_P (ID 628)"},"geometry":{"type":"Point","coordinates":[-51.896948,-23.418194]}},
{"type":"Feature","properties":{"name":"BLE_P (ID 629)"},"geometry":{"type":"Point","coordinates":[-51.897018,-23.418158]}},
{"type":"Feature","properties":{"name":"BLE_P (ID 632)"},"geometry":{"type":"Point","coordinates":[-51.896862,-23.418052]}},
{"type":"Feature","properties":{"name":"BLE_P (ID 637)"},"geometry":{"type":"Point","coordinates":[-51.897527,-23.417717]}},
{"type":"Feature","properties":{"name":"BLE_P (ID 638)"},"geometry":{"type":"Point","coordinates":[-51.897561,-23.417671]}},
{"type":"Feature","properties":{"name":"BLED_P (ID 649)"},"geometry":{"type":"Point","coordinates":[-51.89761,-23.417855]}},
{"type":"Feature","properties":{"name":"BLE_P (ID 650)"},"geometry":{"type":"Point","coordinates":[-51.89767,-23.41783]}},
{"type":"Feature","properties":{"name":"BLE_P (ID 653)"},"geometry":{"type":"Point","coordinates":[-51.889175,-23.422234]}},
{"type":"Feature","properties":{"name":"BLE_P (ID 656)"},"geometry":{"type":"Point","coordinates":[-51.889431,-23.421602]}},
{"type":"Feature","properties":{"name":"BLE_P (ID 657)"},"geometry":{"type":"Point","coordinates":[-51.88945,-23.421588]}},
{"type":"Feature","properties":{"name":"BLE_P (ID 658)"},"geometry":{"type":"Point","coordinates":[-51.890101,-23.421223]}},
{"type":"Feature","properties":{"name":"BLE_P (ID 659)"},"geometry":{"type":"Point","coordinates":[-51.890134,-23.421155]}},
{"type":"Feature","properties":{"name":"BLE_P (ID 660)"},"geometry":{"type":"Point","coordinates":[-51.889687,-23.420945]}},
{"type":"Feature","properties":{"name":"BLE_P (ID 664)"},"geometry":{"type":"Point","coordinates":[-51.889623,-23.421025]}},
{"type":"Feature","properties":{"name":"BLE_P (ID 665)"},"geometry":{"type":"Point","coordinates":[-51.888791,-23.420599]}},
{"type":"Feature","properties":{"name":"BLE_P (ID 666)"},"geometry":{"type":"Point","coordinates":[-51.888759,-23.420668]}},
{"type":"Feature","properties":{"name":"BLE_P (ID 667)"},"geometry":{"type":"Point","coordinates":[-51.889856,-23.420404]}},
{"type":"Feature","properties":{"name":"BLE_P (ID 668)"},"geometry":{"type":"Point","coordinates":[-51.889885,-23.420335]}},
{"type":"Feature","properties":{"name":"BLE_P (ID 669)"},"geometry":{"type":"Point","coordinates":[-51.890427,-23.42056]}},
{"type":"Feature","properties":{"name":"BLE_P (ID 670)"},"geometry":{"type":"Point","coordinates":[-51.890383,-23.420622]}},
{"type":"Feature","properties":{"name":"BLE_P (ID 671)"},"geometry":{"type":"Point","coordinates":[-51.890869,-23.420743]}},
{"type":"Feature","properties":{"name":"BLE_P (ID 672)"},"geometry":{"type":"Point","coordinates":[-51.890831,-23.420808]}},
{"type":"Feature","properties":{"name":"BLE_P (ID 673)"},"geometry":{"type":"Point","coordinates":[-51.891161,-23.420006]}},
{"type":"Feature","properties":{"name":"BLE_P (ID 674)"},"geometry":{"type":"Point","coordinates":[-51.891145,-23.419964]}},
{"type":"Feature","properties":{"name":"BLE_P (ID 675)"},"geometry":{"type":"Point","coordinates":[-51.891168,-23.419892]}},
{"type":"Feature","properties":{"name":"BLE_P (ID 676)"},"geometry":{"type":"Point","coordinates":[-51.89117,-23.419885]}},
{"type":"Feature","properties":{"name":"BLE_P (ID 677)"},"geometry":{"type":"Point","coordinates":[-51.892178,-23.42015]}},
{"type":"Feature","properties":{"name":"BLE_P (ID 678)"},"geometry":{"type":"Point","coordinates":[-51.892204,-23.420074]}},
{"type":"Feature","properties":{"name":"BLE_P (ID 679)"},"geometry":{"type":"Point","coordinates":[-51.891563,-23.419909]}},
{"type":"Feature","properties":{"name":"BLE_P (ID 680)"},"geometry":{"type":"Point","coordinates":[-51.890918,-23.419743]}},
{"type":"Feature","properties":{"name":"BLE_P (ID 682)"},"geometry":{"type":"Point","coordinates":[-51.890098,-23.419612]}},
{"type":"Feature","properties":{"name":"BLE_P (ID 683)"},"geometry":{"type":"Point","coordinates":[-51.889448,-23.419362]}},
{"type":"Feature","properties":{"name":"BLE_P (ID 688)"},"geometry":{"type":"Point","coordinates":[-51.890112,-23.419697]}},
{"type":"Feature","properties":{"name":"BLE_P (ID 689)"},"geometry":{"type":"Point","coordinates":[-51.890138,-23.419719]}},
{"type":"Feature","properties":{"name":"BLE_P (ID 690)"},"geometry":{"type":"Point","coordinates":[-51.890317,-23.419093]}},
{"type":"Feature","properties":{"name":"BLE_P (ID 691)"},"geometry":{"type":"Point","coordinates":[-51.890396,-23.41911]}},
{"type":"Feature","properties":{"name":"BLE_P (ID 692)"},"geometry":{"type":"Point","coordinates":[-51.8903,-23.419065]}},
{"type":"Feature","properties":{"name":"BLE_P (ID 693)"},"geometry":{"type":"Point","coordinates":[-51.89032,-23.418993]}},
{"type":"Feature","properties":{"name":"BLE_P (ID 694)"},"geometry":{"type":"Point","coordinates":[-51.889508,-23.418783]}},
{"type":"Feature","properties":{"name":"BLE_P (ID 695)"},"geometry":{"type":"Point","coordinates":[-51.888748,-23.418585]}},
{"type":"Feature","properties":{"name":"BLE_P (ID 696)"},"geometry":{"type":"Point","coordinates":[-51.888752,-23.418664]}},
{"type":"Feature","properties":{"name":"BLE_P (ID 697)"},"geometry":{"type":"Point","coordinates":[-51.890481,-23.418555]}},
{"type":"Feature","properties":{"name":"BLE_P (ID 698)"},"geometry":{"type":"Point","coordinates":[-51.890559,-23.418576]}},
{"type":"Feature","properties":{"name":"BLE_P (ID 699)"},"geometry":{"type":"Point","coordinates":[-51.890454,-23.418513]}},
{"type":"Feature","properties":{"name":"BLE_P (ID 700)"},"geometry":{"type":"Point","coordinates":[-51.890483,-23.418426]}},
{"type":"Feature","properties":{"name":"BLE_P (ID 701)"},"geometry":{"type":"Point","coordinates":[-51.889629,-23.418205]}},
{"type":"Feature","properties":{"name":"BLE_P (ID 702)"},"geometry":{"type":"Point","coordinates":[-51.889605,-23.418293]}},
{"type":"Feature","properties":{"name":"BLE_P (ID 703)"},"geometry":{"type":"Point","coordinates":[-51.890656,-23.417982]}},
{"type":"Feature","properties":{"name":"BLE_P (ID 704)"},"geometry":{"type":"Point","coordinates":[-51.890733,-23.418002]}},
{"type":"Feature","properties":{"name":"BLE_P (ID 705)"},"geometry":{"type":"Point","coordinates":[-51.890639,-23.417952]}},
{"type":"Feature","properties":{"name":"BLE_P (ID 706)"},"geometry":{"type":"Point","coordinates":[-51.890659,-23.41788]}},
{"type":"Feature","properties":{"name":"BLE_P (ID 707)"},"geometry":{"type":"Point","coordinates":[-51.88974,-23.417641]}},
{"type":"Feature","properties":{"name":"BLE_P (ID 708)"},"geometry":{"type":"Point","coordinates":[-51.889718,-23.417714]}},
{"type":"Feature","properties":{"name":"BLE_P (ID 709)"},"geometry":{"type":"Point","coordinates":[-51.890821,-23.417442]}},
{"type":"Feature","properties":{"name":"BLE_P (ID 710)"},"geometry":{"type":"Point","coordinates":[-51.890898,-23.417461]}},
{"type":"Feature","properties":{"name":"BLE_P (ID 715)"},"geometry":{"type":"Point","coordinates":[-51.890075,-23.417146]}},
{"type":"Feature","properties":{"name":"BLE_P (ID 716)"},"geometry":{"type":"Point","coordinates":[-51.89005,-23.417217]}},
{"type":"Feature","properties":{"name":"BLE_P (ID 717)"},"geometry":{"type":"Point","coordinates":[-51.890985,-23.416905]}},
{"type":"Feature","properties":{"name":"BLE_P (ID 718)"},"geometry":{"type":"Point","coordinates":[-51.891061,-23.416928]}},
{"type":"Feature","properties":{"name":"BLE_P (ID 721)"},"geometry":{"type":"Point","coordinates":[-51.890964,-23.416872]}},
{"type":"Feature","properties":{"name":"BLE_P (ID 722)"},"geometry":{"type":"Point","coordinates":[-51.890238,-23.416607]}},
{"type":"Feature","properties":{"name":"BLE_P (ID 723)"},"geometry":{"type":"Point","coordinates":[-51.890217,-23.416679]}},
{"type":"Feature","properties":{"name":"BLE_P (ID 724)"},"geometry":{"type":"Point","coordinates":[-51.891149,-23.416366]}},
{"type":"Feature","properties":{"name":"BLE_P (ID 725)"},"geometry":{"type":"Point","coordinates":[-51.891225,-23.41639]}},
{"type":"Feature","properties":{"name":"BLE_P (ID 726)"},"geometry":{"type":"Point","coordinates":[-51.891129,-23.416334]}},
{"type":"Feature","properties":{"name":"BLE_P (ID 727)"},"geometry":{"type":"Point","coordinates":[-51.891142,-23.416259]}},
{"type":"Feature","properties":{"name":"BLE_P (ID 728)"},"geometry":{"type":"Point","coordinates":[-51.890459,-23.416084]}},
{"type":"Feature","properties":{"name":"BLE_P (ID 734)"},"geometry":{"type":"Point","coordinates":[-51.892545,-23.4167]}},
{"type":"Feature","properties":{"name":"BLE_P (ID 735)"},"geometry":{"type":"Point","coordinates":[-51.89257,-23.416629]}},
{"type":"Feature","properties":{"name":"BLE_P (ID 736)"},"geometry":{"type":"Point","coordinates":[-51.893198,-23.416792]}},
{"type":"Feature","properties":{"name":"BLE_P (ID 737)"},"geometry":{"type":"Point","coordinates":[-51.893174,-23.416863]}},
{"type":"Feature","properties":{"name":"BLE_P (ID 738)"},"geometry":{"type":"Point","coordinates":[-51.893261,-23.41678]}},
{"type":"Feature","properties":{"name":"BLE_P (ID 739)"},"geometry":{"type":"Point","coordinates":[-51.893333,-23.416746]}},
{"type":"Feature","properties":{"name":"BLE_P (ID 748)"},"geometry":{"type":"Point","coordinates":[-51.893895,-23.417681]}},
{"type":"Feature","properties":{"name":"BLE_P (ID 749)"},"geometry":{"type":"Point","coordinates":[-51.894083,-23.418149]}},
{"type":"Feature","properties":{"name":"BLE_P (ID 752)"},"geometry":{"type":"Point","coordinates":[-51.894495,-23.418835]}},
{"type":"Feature","properties":{"name":"BLE_P (ID 753)"},"geometry":{"type":"Point","coordinates":[-51.894564,-23.418798]}},
{"type":"Feature","properties":{"name":"BLE_P (ID 754)"},"geometry":{"type":"Point","coordinates":[-51.894627,-23.418903]}},
{"type":"Feature","properties":{"name":"BLE_P (ID 755)"},"geometry":{"type":"Point","coordinates":[-51.894483,-23.418868]}},
{"type":"Feature","properties":{"name":"BLE_P (ID 758)"},"geometry":{"type":"Point","coordinates":[-51.89466,-23.419111]}},
{"type":"Feature","properties":{"name":"BLE_P (ID 759)"},"geometry":{"type":"Point","coordinates":[-51.894729,-23.419072]}},
{"type":"Feature","properties":{"name":"BLE_P (ID 764)"},"geometry":{"type":"Point","coordinates":[-51.892288,-23.417214]}},
{"type":"Feature","properties":{"name":"BLE_P (ID 765)"},"geometry":{"type":"Point","coordinates":[-51.892312,-23.417144]}},
{"type":"Feature","properties":{"name":"BLE_P (ID 770)"},"geometry":{"type":"Point","coordinates":[-51.893039,-23.417435]}},
{"type":"Feature","properties":{"name":"BLE_P (ID 798)"},"geometry":{"type":"Point","coordinates":[-51.891349,-23.418058]}},
{"type":"Feature","properties":{"name":"BLE_P (ID 801)"},"geometry":{"type":"Point","coordinates":[-51.889688,-23.420945]}},
{"type":"Feature","properties":{"name":"BLE_P (ID 802)"},"geometry":{"type":"Point","coordinates":[-51.889656,-23.420956]}},
{"type":"Feature","properties":{"name":"BLE_P (ID 803)"},"geometry":{"type":"Point","coordinates":[-51.891062,-23.419262]}},
{"type":"Feature","properties":{"name":"BLE_P (ID 808)"},"geometry":{"type":"Point","coordinates":[-51.891085,-23.419192]}},
{"type":"Feature","properties":{"name":"BLE_P (ID 819)"},"geometry":{"type":"Point","coordinates":[-51.892533,-23.41909]}},
{"type":"Feature","properties":{"name":"BLE_P (ID 820)"},"geometry":{"type":"Point","coordinates":[-51.892516,-23.41905]}},
{"type":"Feature","properties":{"name":"BLE_P (ID 828)"},"geometry":{"type":"Point","coordinates":[-51.892032,-23.418828]}},
{"type":"Feature","properties":{"name":"BLE_P (ID 829)"},"geometry":{"type":"Point","coordinates":[-51.891347,-23.41865]}},
{"type":"Feature","properties":{"name":"BLE_P (ID 830)"},"geometry":{"type":"Point","coordinates":[-51.891317,-23.418738]}},
{"type":"Feature","properties":{"name":"BLE_P (ID 845)"},"geometry":{"type":"Point","coordinates":[-51.891487,-23.42252]}},
{"type":"Feature","properties":{"name":"BLE_P (ID 868)"},"geometry":{"type":"Point","coordinates":[-51.894304,-23.420616]}},
{"type":"Feature","properties":{"name":"BLE_P (ID 911)"},"geometry":{"type":"Point","coordinates":[-51.890228,-23.423724]}},
{"type":"Feature","properties":{"name":"BLE_P (ID 914)"},"geometry":{"type":"Point","coordinates":[-51.891033,-23.423394]}},
{"type":"Feature","properties":{"name":"BLE_P (ID 927)"},"geometry":{"type":"Point","coordinates":[-51.892643,-23.422388]}},
{"type":"Feature","properties":{"name":"BLE_P (ID 964)"},"geometry":{"type":"Point","coordinates":[-51.892133,-23.423486]}},
{"type":"Feature","properties":{"name":"BLE_P (ID 965)"},"geometry":{"type":"Point","coordinates":[-51.892065,-23.423526]}},
{"type":"Feature","properties":{"name":"BLE_P (ID 972)"},"geometry":{"type":"Point","coordinates":[-51.891324,-23.423817]}},
{"type":"Feature","properties":{"name":"BLE_P (ID 973)"},"geometry":{"type":"Point","coordinates":[-51.89064,-23.424337]}},
{"type":"Feature","properties":{"name":"BLE_P (ID 976)"},"geometry":{"type":"Point","coordinates":[-51.890445,-23.424316]}},
{"type":"Feature","properties":{"name":"BLE_P (ID 1017)"},"geometry":{"type":"Point","coordinates":[-51.896557,-23.421384]}},
{"type":"Feature","properties":{"name":"BLE_P (ID 1018)"},"geometry":{"type":"Point","coordinates":[-51.896553,-23.421398]}},
{"type":"Feature","properties":{"name":"BLE_P (ID 1020)"},"geometry":{"type":"Point","coordinates":[-51.89115,-23.425342]}},
{"type":"Feature","properties":{"name":"BLE_P (ID 1021)"},"geometry":{"type":"Point","coordinates":[-51.891143,-23.425332]}},
{"type":"Feature","properties":{"name":"BLE_P (ID 1040)"},"geometry":{"type":"Point","coordinates":[-51.891104,-23.42521]}},
{"type":"Feature","properties":{"name":"BLE_P (ID 1041)"},"geometry":{"type":"Point","coordinates":[-51.891191,-23.425161]}},
{"type":"Feature","properties":{"name":"BLE_P (ID 1048)"},"geometry":{"type":"Point","coordinates":[-51.892011,-23.424844]}},
{"type":"Feature","properties":{"name":"BLE_P (ID 1067)"},"geometry":{"type":"Point","coordinates":[-51.900063,-23.418146]}},
{"type":"Feature","properties":{"name":"BLE_P (ID 1093)"},"geometry":{"type":"Point","coordinates":[-51.898204,-23.417549]}},
{"type":"Feature","properties":{"name":"BLE_P (ID 1095)"},"geometry":{"type":"Point","coordinates":[-51.894076,-23.420042]}},
{"type":"Feature","properties":{"name":"BLE_P (ID 1096)"},"geometry":{"type":"Point","coordinates":[-51.894097,-23.41997]}},
{"type":"Feature","properties":{"name":"BLE_P (ID 1097)"},"geometry":{"type":"Point","coordinates":[-51.894753,-23.420142]}},
{"type":"Feature","properties":{"name":"BLO (ID 1)"},"geometry":{"type":"Point","coordinates":[-51.980271,-23.422514]}},
{"type":"Feature","properties":{"name":"BLO (ID 4)"},"geometry":{"type":"Point","coordinates":[-51.979583,-23.423157]}},
{"type":"Feature","properties":{"name":"BLO (ID 6)"},"geometry":{"type":"Point","coordinates":[-51.979544,-23.423207]}},
{"type":"Feature","properties":{"name":"BLO (ID 10)"},"geometry":{"type":"Point","coordinates":[-51.978768,-23.423785]}},
{"type":"Feature","properties":{"name":"BLO (ID 20)"},"geometry":{"type":"Point","coordinates":[-51.981729,-23.421045]}},
{"type":"Feature","properties":{"name":"BLO (ID 22)"},"geometry":{"type":"Point","coordinates":[-51.982179,-23.42058]}},
{"type":"Feature","properties":{"name":"BLO (ID 24)"},"geometry":{"type":"Point","coordinates":[-51.982638,-23.420185]}},
{"type":"Feature","properties":{"name":"BLO (ID 26)"},"geometry":{"type":"Point","coordinates":[-51.982962,-23.419989]}},
{"type":"Feature","properties":{"name":"BLO (ID 29)"},"geometry":{"type":"Point","coordinates":[-51.983027,-23.420058]}},
{"type":"Feature","properties":{"name":"BLO (ID 34)"},"geometry":{"type":"Point","coordinates":[-51.981862,-23.421013]}},
{"type":"Feature","properties":{"name":"BLO (ID 42)"},"geometry":{"type":"Point","coordinates":[-51.979838,-23.421035]}},
{"type":"Feature","properties":{"name":"BLO (ID 57)"},"geometry":{"type":"Point","coordinates":[-51.982083,-23.419884]}},
{"type":"Feature","properties":{"name":"BLO (ID 63)"},"geometry":{"type":"Point","coordinates":[-51.981943,-23.419792]}},
{"type":"Feature","properties":{"name":"BLO (ID 82)"},"geometry":{"type":"Point","coordinates":[-51.977867,-23.4222]}},
{"type":"Feature","properties":{"name":"BLO (ID 85)"},"geometry":{"type":"Point","coordinates":[-51.977132,-23.422893]}},
{"type":"Feature","properties":{"name":"BLO (ID 120)"},"geometry":{"type":"Point","coordinates":[-51.97993,-23.427304]}},
{"type":"Feature","properties":{"name":"BLO (ID 140)"},"geometry":{"type":"Point","coordinates":[-51.976788,-23.424344]}},
{"type":"Feature","properties":{"name":"BLO (ID 164)"},"geometry":{"type":"Point","coordinates":[-51.978154,-23.41994]}},
{"type":"Feature","properties":{"name":"BLOI (ID 176)"},"geometry":{"type":"Point","coordinates":[-51.977159,-23.420542]}},
{"type":"Feature","properties":{"name":"BLO (ID 181)"},"geometry":{"type":"Point","coordinates":[-51.978293,-23.424244]}},
{"type":"Feature","properties":{"name":"BLO (ID 186)"},"geometry":{"type":"Point","coordinates":[-51.975216,-23.421597]}},
{"type":"Feature","properties":{"name":"BLO (ID 192)"},"geometry":{"type":"Point","coordinates":[-51.97503,-23.42071]}},
{"type":"Feature","properties":{"name":"BLO (ID 196)"},"geometry":{"type":"Point","coordinates":[-51.974707,-23.420078]}},
{"type":"Feature","properties":{"name":"BLO (ID 341)"},"geometry":{"type":"Point","coordinates":[-51.977113,-23.431535]}},
{"type":"Feature","properties":{"name":"BLODI (ID 441)"},"geometry":{"type":"Point","coordinates":[-51.960821,-23.417922]}},
{"type":"Feature","properties":{"name":"BLOD (ID 442)"},"geometry":{"type":"Point","coordinates":[-51.961965,-23.418283]}},
{"type":"Feature","properties":{"name":"BLOD (ID 445)"},"geometry":{"type":"Point","coordinates":[-51.961971,-23.418267]}},
{"type":"Feature","properties":{"name":"BLOD (ID 450)"},"geometry":{"type":"Point","coordinates":[-51.962442,-23.41844]}},
{"type":"Feature","properties":{"name":"BLOD (ID 473)"},"geometry":{"type":"Point","coordinates":[-51.963411,-23.418647]}},
{"type":"Feature","properties":{"name":"BLOD (ID 476)"},"geometry":{"type":"Point","coordinates":[-51.962942,-23.418496]}},
{"type":"Feature","properties":{"name":"BLOD (ID 480)"},"geometry":{"type":"Point","coordinates":[-51.962002,-23.418189]}},
{"type":"Feature","properties":{"name":"BLO (ID 566)"},"geometry":{"type":"Point","coordinates":[-51.892979,-23.420966]}},
{"type":"Feature","properties":{"name":"BLO (ID 603)"},"geometry":{"type":"Point","coordinates":[-51.894243,-23.419402]}},
{"type":"Feature","properties":{"name":"BLO (ID 633)"},"geometry":{"type":"Point","coordinates":[-51.897426,-23.417807]}},
{"type":"Feature","properties":{"name":"BLO (ID 635)"},"geometry":{"type":"Point","coordinates":[-51.897456,-23.417757]}},
{"type":"Feature","properties":{"name":"BLO (ID 645)"},"geometry":{"type":"Point","coordinates":[-51.897474,-23.41789]}},
{"type":"Feature","properties":{"name":"BLO (ID 647)"},"geometry":{"type":"Point","coordinates":[-51.897537,-23.417889]}},
{"type":"Feature","properties":{"name":"BLO (ID 652)"},"geometry":{"type":"Point","coordinates":[-51.897674,-23.417643]}},
{"type":"Feature","properties":{"name":"BLO (ID 790)"},"geometry":{"type":"Point","coordinates":[-51.893644,-23.418729]}},
{"type":"Feature","properties":{"name":"BLO (ID 794)"},"geometry":{"type":"Point","coordinates":[-51.892051,-23.418317]}},
{"type":"Feature","properties":{"name":"BLO (ID 796)"},"geometry":{"type":"Point","coordinates":[-51.892075,-23.418246]}},
{"type":"Feature","properties":{"name":"BLO (ID 849)"},"geometry":{"type":"Point","coordinates":[-51.892399,-23.42196]}},
{"type":"Feature","properties":{"name":"BLO (ID 1022)"},"geometry":{"type":"Point","coordinates":[-51.890466,-23.425632]}},
{"type":"Feature","properties":{"name":"BLO (ID 1038)"},"geometry":{"type":"Point","coordinates":[-51.890549,-23.425772]}},
{"type":"Feature","properties":{"name":"BLO (ID 1047)"},"geometry":{"type":"Point","coordinates":[-51.891656,-23.425145]}},
{"type":"Feature","properties":{"name":"BLO (ID 1125)"},"geometry":{"type":"Point","coordinates":[-51.895836,-23.420557]}},
{"type":"Feature","properties":{"name":"BLO_P (ID 194)"},"geometry":{"type":"Point","coordinates":[-51.975112,-23.420657]}},
{"type":"Feature","properties":{"name":"BLO_P (ID 219)"},"geometry":{"type":"Point","coordinates":[-51.973297,-23.420862]}},
{"type":"Feature","properties":{"name":"BLO_P (ID 348)"},"geometry":{"type":"Point","coordinates":[-51.976227,-23.43253]}},
{"type":"Feature","properties":{"name":"BLOD_P (ID 459)"},"geometry":{"type":"Point","coordinates":[-51.962906,-23.41859]}},
{"type":"Feature","properties":{"name":"BLOD_P (ID 460)"},"geometry":{"type":"Point","coordinates":[-51.962914,-23.418571]}},
{"type":"Feature","properties":{"name":"BLOD_P (ID 461)"},"geometry":{"type":"Point","coordinates":[-51.963386,-23.418723]}},
{"type":"Feature","properties":{"name":"BLOD_P (ID 462)"},"geometry":{"type":"Point","coordinates":[-51.963381,-23.418738]}},
{"type":"Feature","properties":{"name":"BLOD_P (ID 477)"},"geometry":{"type":"Point","coordinates":[-51.962478,-23.418343]}},
{"type":"Feature","properties":{"name":"BLOD_P (ID 495)"},"geometry":{"type":"Point","coordinates":[-51.968546,-23.419038]}},
{"type":"Feature","properties":{"name":"BLOD_P (ID 496)"},"geometry":{"type":"Point","coordinates":[-51.968549,-23.419056]}},
{"type":"Feature","properties":{"name":"BLO_P (ID 681)"},"geometry":{"type":"Point","coordinates":[-51.890121,-23.419537]}},
{"type":"Feature","properties":{"name":"BLO_P (ID 825)"},"geometry":{"type":"Point","coordinates":[-51.893484,-23.419297]}},
{"type":"Feature","properties":{"name":"BLO_P (ID 897)"},"geometry":{"type":"Point","coordinates":[-51.894633,-23.421339]}},
{"type":"Feature","properties":{"name":"BLO_P (ID 898)"},"geometry":{"type":"Point","coordinates":[-51.894591,-23.421275]}},
{"type":"Feature","properties":{"name":"BLO_P (ID 974)"},"geometry":{"type":"Point","coordinates":[-51.890557,-23.424383]}},
{"type":"Feature","properties":{"name":"PVA (ID 78)"},"geometry":{"type":"Point","coordinates":[-51.981913,-23.419855]}},
{"type":"Feature","properties":{"name":"PVA (ID 80)"},"geometry":{"type":"Point","coordinates":[-51.980729,-23.419077]}},
{"type":"Feature","properties":{"name":"PVA (ID 378)"},"geometry":{"type":"Point","coordinates":[-51.970448,-23.42472]}},
{"type":"Feature","properties":{"name":"PVA (ID 481)"},"geometry":{"type":"Point","coordinates":[-51.961983,-23.418124]}},
{"type":"Feature","properties":{"name":"PVA (ID 483)"},"geometry":{"type":"Point","coordinates":[-51.963704,-23.418676]}},
{"type":"Feature","properties":{"name":"PVA (ID 485)"},"geometry":{"type":"Point","coordinates":[-51.963983,-23.418766]}},
{"type":"Feature","properties":{"name":"PVA (ID 488)"},"geometry":{"type":"Point","coordinates":[-51.964631,-23.418951]}},
{"type":"Feature","properties":{"name":"PVA (ID 490)"},"geometry":{"type":"Point","coordinates":[-51.96511,-23.419047]}},
{"type":"Feature","properties":{"name":"PVA (ID 491)"},"geometry":{"type":"Point","coordinates":[-51.965682,-23.41908]}},
{"type":"Feature","properties":{"name":"PVA (ID 492)"},"geometry":{"type":"Point","coordinates":[-51.966857,-23.419092]}},
{"type":"Feature","properties":{"name":"PVA_P (ID 28)"},"geometry":{"type":"Point","coordinates":[-51.982987,-23.420016]}},
{"type":"Feature","properties":{"name":"PVA_P (ID 32)"},"geometry":{"type":"Point","coordinates":[-51.98253,-23.420368]}},
{"type":"Feature","properties":{"name":"PVA_P (ID 79)"},"geometry":{"type":"Point","coordinates":[-51.981383,-23.419514]}},
{"type":"Feature","properties":{"name":"PVA_P (ID 105)"},"geometry":{"type":"Point","coordinates":[-51.981018,-23.428017]}},
{"type":"Feature","properties":{"name":"PVA_P (ID 153)"},"geometry":{"type":"Point","coordinates":[-51.975626,-23.421461]}},
{"type":"Feature","properties":{"name":"PVA_P (ID 189)"},"geometry":{"type":"Point","coordinates":[-51.979141,-23.419338]}},
{"type":"Feature","properties":{"name":"PVA_P (ID 195)"},"geometry":{"type":"Point","coordinates":[-51.974845,-23.420327]}},
{"type":"Feature","properties":{"name":"PVA_P (ID 232)"},"geometry":{"type":"Point","coordinates":[-51.973633,-23.421399]}},
{"type":"Feature","properties":{"name":"PVA_P (ID 364)"},"geometry":{"type":"Point","coordinates":[-51.973485,-23.426445]}},
{"type":"Feature","properties":{"name":"PVA_P (ID 494)"},"geometry":{"type":"Point","coordinates":[-51.96859,-23.418895]}},
{"type":"Feature","properties":{"name":"PVA_P (ID 499)"},"geometry":{"type":"Point","coordinates":[-51.969323,-23.418789]}},
{"type":"Feature","properties":{"name":"PVA_P (ID 503)"},"geometry":{"type":"Point","coordinates":[-51.970795,-23.418573]}},
{"type":"Feature","properties":{"name":"PVA_P (ID 517)"},"geometry":{"type":"Point","coordinates":[-51.969636,-23.418986]}},
{"type":"Feature","properties":{"name":"PVA_P (ID 547)"},"geometry":{"type":"Point","coordinates":[-51.967447,-23.419498]}},
{"type":"Feature","properties":{"name":"PVA_P (ID 548)"},"geometry":{"type":"Point","coordinates":[-51.967427,-23.419527]}},
{"type":"Feature","properties":{"name":"PVA_P (ID 560)"},"geometry":{"type":"Point","coordinates":[-51.959614,-23.421599]}},
{"type":"Feature","properties":{"name":"PVA_P (ID 576)"},"geometry":{"type":"Point","coordinates":[-51.892716,-23.420357]}},
{"type":"Feature","properties":{"name":"PVA_P (ID 1094)"},"geometry":{"type":"Point","coordinates":[-51.894017,-23.422348]}},
{"type":"Feature","properties":{"name":"SAI (ID 68)"},"geometry":{"type":"Point","coordinates":[-51.981259,-23.419459]}},
{"type":"Feature","properties":{"name":"SAI (ID 69)"},"geometry":{"type":"Point","coordinates":[-51.981266,-23.419463]}},
{"type":"Feature","properties":{"name":"CX (ID 217)"},"geometry":{"type":"Point","coordinates":[-51.973439,-23.420755]}},
{"type":"Feature","properties":{"name":"SAI (ID 222)"},"geometry":{"type":"Point","coordinates":[-51.97351,-23.421176]}},
{"type":"Feature","properties":{"name":"TC (ID 281)"},"geometry":{"type":"Point","coordinates":[-51.97476,-23.431782]}},
{"type":"Feature","properties":{"name":"CX (ID 330)"},"geometry":{"type":"Point","coordinates":[-51.982259,-23.434976]}},
{"type":"Feature","properties":{"name":"CC_P (ID 336)"},"geometry":{"type":"Point","coordinates":[-51.983767,-23.434268]}},
{"type":"Feature","properties":{"name":"CC_P (ID 337)"},"geometry":{"type":"Point","coordinates":[-51.983912,-23.434195]}},
{"type":"Feature","properties":{"name":"CX (ID 467)"},"geometry":{"type":"Point","coordinates":[-51.966105,-23.419428]}},
{"type":"Feature","properties":{"name":"ENT (ID 504)"},"geometry":{"type":"Point","coordinates":[-51.970815,-23.418553]}},
{"type":"Feature","properties":{"name":"ENT (ID 505)"},"geometry":{"type":"Point","coordinates":[-51.970787,-23.418556]}},
{"type":"Feature","properties":{"name":"CX (ID 506)"},"geometry":{"type":"Point","coordinates":[-51.970535,-23.418674]}},
{"type":"Feature","properties":{"name":"OAC (ID 507)"},"geometry":{"type":"Point","coordinates":[-51.970766,-23.418641]}},
{"type":"Feature","properties":{"name":"OAC (ID 508)"},"geometry":{"type":"Point","coordinates":[-51.970767,-23.418645]}},
{"type":"Feature","properties":{"name":"FUNDO (ID 509)"},"geometry":{"type":"Point","coordinates":[-51.970765,-23.418643]}},
{"type":"Feature","properties":{"name":"OAC (ID 510)"},"geometry":{"type":"Point","coordinates":[-51.970116,-23.418735]}},
{"type":"Feature","properties":{"name":"OAC (ID 511)"},"geometry":{"type":"Point","coordinates":[-51.970115,-23.41873]}},
{"type":"Feature","properties":{"name":"FUNDO (ID 512)"},"geometry":{"type":"Point","coordinates":[-51.970115,-23.418733]}},
{"type":"Feature","properties":{"name":"OAC (ID 513)"},"geometry":{"type":"Point","coordinates":[-51.969632,-23.418802]}},
{"type":"Feature","properties":{"name":"OAC (ID 514)"},"geometry":{"type":"Point","coordinates":[-51.969631,-23.418798]}},
{"type":"Feature","properties":{"name":"FUNDO (ID 515)"},"geometry":{"type":"Point","coordinates":[-51.969633,-23.4188]}},
{"type":"Feature","properties":{"name":"CX (ID 516)"},"geometry":{"type":"Point","coordinates":[-51.969625,-23.418802]}},
{"type":"Feature","properties":{"name":"CX (ID 518)"},"geometry":{"type":"Point","coordinates":[-51.969687,-23.418984]}},
{"type":"Feature","properties":{"name":"CX (ID 519)"},"geometry":{"type":"Point","coordinates":[-51.969694,-23.418983]}},
{"type":"Feature","properties":{"name":"FUNDO (ID 520)"},"geometry":{"type":"Point","coordinates":[-51.969695,-23.418983]}},
{"type":"Feature","properties":{"name":"FUNDO (ID 521)"},"geometry":{"type":"Point","coordinates":[-51.970073,-23.41893]}},
{"type":"Feature","properties":{"name":"OAC (ID 522)"},"geometry":{"type":"Point","coordinates":[-51.970072,-23.41893]}},
{"type":"Feature","properties":{"name":"OAC (ID 523)"},"geometry":{"type":"Point","coordinates":[-51.970301,-23.418898]}},
{"type":"Feature","properties":{"name":"FUNDO (ID 524)"},"geometry":{"type":"Point","coordinates":[-51.970303,-23.418898]}},
{"type":"Feature","properties":{"name":"CX (ID 525)"},"geometry":{"type":"Point","coordinates":[-51.970562,-23.418862]}},
{"type":"Feature","properties":{"name":"FUNDO (ID 527)"},"geometry":{"type":"Point","coordinates":[-51.970799,-23.41883]}},
{"type":"Feature","properties":{"name":"OAC (ID 528)"},"geometry":{"type":"Point","coordinates":[-51.970798,-23.41883]}},
{"type":"Feature","properties":{"name":"SAI (ID 549)"},"geometry":{"type":"Point","coordinates":[-51.964674,-23.419247]}},
{"type":"Feature","properties":{"name":"TOPO (ID 550)"},"geometry":{"type":"Point","coordinates":[-51.964675,-23.419247]}},
{"type":"Feature","properties":{"name":"ENT (ID 551)"},"geometry":{"type":"Point","coordinates":[-51.964102,-23.419129]}},
{"type":"Feature","properties":{"name":"TOPO (ID 552)"},"geometry":{"type":"Point","coordinates":[-51.964101,-23.419129]}},
{"type":"Feature","properties":{"name":"TOPO (ID 556)"},"geometry":{"type":"Point","coordinates":[-51.959725,-23.42165]}},
{"type":"Feature","properties":{"name":"FUNDO (ID 557)"},"geometry":{"type":"Point","coordinates":[-51.959725,-23.421652]}},
{"type":"Feature","properties":{"name":"FUNDO (ID 558)"},"geometry":{"type":"Point","coordinates":[-51.959533,-23.421591]}},
{"type":"Feature","properties":{"name":"TOPO (ID 559)"},"geometry":{"type":"Point","coordinates":[-51.959532,-23.42159]}},
{"type":"Feature","properties":{"name":"FUNDO (ID 561)"},"geometry":{"type":"Point","coordinates":[-51.95963,-23.421694]}},
{"type":"Feature","properties":{"name":"TOPO (ID 562)"},"geometry":{"type":"Point","coordinates":[-51.959632,-23.421695]}},
{"type":"Feature","properties":{"name":"GAL (ID 642)"},"geometry":{"type":"Point","coordinates":[-51.897567,-23.417753]}},
{"type":"Feature","properties":{"name":"TC (ID 731)"},"geometry":{"type":"Point","coordinates":[-51.891897,-23.416456]}},
{"type":"Feature","properties":{"name":"TC (ID 992)"},"geometry":{"type":"Point","coordinates":[-51.894215,-23.422824]}}
]}
