{"type":"FeatureCollection","name":"lider_areas","features":[
{"type":"Feature","properties":{"name":"Área de Erosão 6"},"geometry":{"type":"Polygon","coordinates":[[[-51.931895,-23.402306],[-51.934337,-23.40155],[-51.935819,-23.399005],[-51.938833,-23.397548],[-51.941983,-23.396958],[-51.941958,-23.399186],[-51.947638,-23.397174],[-51.945287,-23.393983],[-51.945521,-23.390982],[-51.94511,-23.390269],[-51.944328,-23.389906],[-51.943101,-23.39026],[-51.942304,-23.393287],[-51.939305,-23.395902],[-51.935296,-23.397279],[-51.932476,-23.399855],[-51.931895,-23.402306]]]}},
{"type":"Feature","properties":{"name":"Área de Erosão 8"},"geometry":{"type":"Polygon","coordinates":[[[-51.947078,-23.38637],[-51.947732,-23.386036],[-51.948303,-23.384184],[-51.948403,-23.382591],[-51.94772,-23.382014],[-51.946882,-23.382377],[-51.945924,-23.385257],[-51.946203,-23.386077],[-51.947078,-23.38637]]]}},
{"type":"Feature","properties":{"name":"Área de Erosão 9"},"geometry":{"type":"Polygon","coordinates":[[[-51.968208,-23.402708],[-51.969219,-23.402128],[-51.967992,-23.3993],[-51.966664,-23.397441],[-51.965578,-23.397389],[-51.96517,-23.398483],[-51.967355,-23.402326],[-51.968208,-23.402708]]]}},
{"type":"Feature","properties":{"name":"Área de Erosão 10"},"geometry":{"type":"Polygon","coordinates":[[[-51.984248,-23.419493],[-51.982862,-23.42011],[-51.978361,-23.424399],[-51.978702,-23.426423],[-51.98078,-23.427147],[-51.988697,-23.422472],[-51.997181,-23.421104],[-51.999557,-23.420204],[-52.000995,-23.41869],[-51.999689,-23.417145],[-51.984248,-23.419493]]]}},
{"type":"Feature","properties":{"name":"Área de Erosão 21"},"geometry":{"type":"Polygon","coordinates":[[[-51.964373,-23.409012],[-51.963311,-23.410579],[-51.963018,-23.41221],[-51.964202,-23.412586],[-51.965564,-23.410926],[-51.967137,-23.404954],[-51.966843,-23.404319],[-51.966016,-23.404631],[-51.965342,-23.40715],[-51.964528,-23.407651],[-51.964373,-23.409012]]]}},
{"type":"Feature","properties":{"name":"Área de Erosão 22"},"geometry":{"type":"Polygon","coordinates":[[[-51.949155,-23.405742],[-51.948998,-23.403993],[-51.948047,-23.404246],[-51.948715,-23.410462],[-51.948357,-23.412367],[-51.948941,-23.413175],[-51.949775,-23.413329],[-51.950832,-23.41222],[-51.949584,-23.408643],[-51.949155,-23.405742]]]}},
{"type":"Feature","properties":{"name":"Área de Erosão 23"},"geometry":{"type":"Polygon","coordinates":[[[-51.919179,-23.411653],[-51.916861,-23.409013],[-51.918112,-23.408346],[-51.917871,-23.407757],[-51.916028,-23.408277],[-51.91512,-23.408051],[-51.911438,-23.405553],[-51.90807,-23.403958],[-51.907254,-23.400066],[-51.908956,-23.399175],[-51.907101,-23.399521],[-51.906867,-23.397698],[-51.90629,-23.397273],[-51.905591,-23.397462],[-51.905535,-23.400109],[-51.903845,-23.401061],[-51.905757,-23.400797],[-51.906691,-23.404873],[-51.906578,-23.410632],[-51.907333,-23.41085],[-51.907824,-23.410463],[-51.908391,-23.405989],[-51.913453,-23.408444],[-51.913891,-23.409031],[-51.913478,-23.409341],[-51.913872,-23.40981],[-51.914611,-23.40954],[-51.915757,-23.410608],[-51.91698,-23.413055],[-51.918512,-23.413108],[-51.919179,-23.411653]]]}},
{"type":"Feature","properties":{"name":"Área de Erosão 0"},"geometry":{"type":"Polygon","coordinates":[[[-51.899481,-23.401151],[-51.900439,-23.400757],[-51.90064,-23.399857],[-51.89752,-23.391433],[-51.896869,-23.391148],[-51.896434,-23.392159],[-51.898044,-23.39679],[-51.89859,-23.400333],[-51.899481,-23.401151]]]}},
{"type":"Feature","properties":{"name":"19"},"geometry":{"type":"Polygon","coordinates":[[[-51.929258,-23.371841],[-51.930352,-23.372519],[-51.930971,-23.373974],[-51.93107,-23.37467],[-51.930105,-23.375645],[-51.929396,-23.375378],[-51.928172,-23.373149],[-51.924691,-23.372589],[-51.92476,-23.371187],[-51.929258,-23.371841]]]}},
{"type":"Feature","properties":{"name":"15"},"geometry":{"type":"Polygon","coordinates":[[[-51.899338,-23.410046],[-51.900405,-23.41025],[-51.900257,-23.411211],[-51.899109,-23.41106],[-51.899338,-23.410046]]]}},
{"type":"Feature","properties":{"name":"17"},"geometry":{"type":"Polygon","coordinates":[[[-51.937748,-23.447567],[-51.939047,-23.447381],[-51.939326,-23.448632],[-51.93797,-23.44889],[-51.93755,-23.448317],[-51.937748,-23.447567]]]}},
{"type":"Feature","properties":{"name":"21"},"geometry":{"type":"Polygon","coordinates":[[[-51.944547,-23.440641],[-51.946013,-23.440406],[-51.946465,-23.441039],[-51.944916,-23.441464],[-51.944547,-23.440641]]]}},
{"type":"Feature","properties":{"name":"25"},"geometry":{"type":"Polygon","coordinates":[[[-51.969881,-23.453415],[-51.97082,-23.453424],[-51.971877,-23.454445],[-51.972044,-23.455216],[-51.971582,-23.455902],[-51.970665,-23.456092],[-51.96989,-23.455601],[-51.969363,-23.45421],[-51.969881,-23.453415]]]}},
{"type":"Feature","properties":{"name":"12"},"geometry":{"type":"Polygon","coordinates":[[[-51.965752,-23.411493],[-51.965217,-23.411487],[-51.965926,-23.409991],[-51.966455,-23.410557],[-51.968116,-23.414083],[-51.966793,-23.414087],[-51.965752,-23.411493]]]}},
{"type":"Feature","properties":{"name":"23"},"geometry":{"type":"Polygon","coordinates":[[[-51.994533,-23.411809],[-51.996118,-23.411553],[-51.996622,-23.41224],[-51.996511,-23.412963],[-51.99582,-23.413493],[-51.994826,-23.413364],[-51.994322,-23.412677],[-51.994533,-23.411809]]]}},
{"type":"Feature","properties":{"name":"26-27"},"geometry":{"type":"Polygon","coordinates":[[[-51.927173,-23.432593],[-51.922703,-23.438071],[-51.921544,-23.437195],[-51.925848,-23.432007],[-51.924223,-23.431559],[-51.926155,-23.42996],[-51.92675,-23.428716],[-51.927898,-23.423352],[-51.93148,-23.422901],[-51.933264,-23.424791],[-51.933088,-23.427701],[-51.928787,-23.433617],[-51.927173,-23.432593]]]}}
]}
