{"type":"FeatureCollection","name":"prio_erosao","features":[
{"type":"Feature","properties":{"name":"Ponto 1 - Córrego Osório (Rua Guarino Bassetto)","desc":"Localização: Córrego Osório (Rua Guarino Bassetto)\nPeríodo de Entrega: 4 Meses\nQuantidade de Pontos: 4 pontos\nMP: N\nUTM E: 408310.00 / UTM N: 7412755.00"},"geometry":{"type":"Point","coordinates":[-51.897287,-23.392405]}},
{"type":"Feature","properties":{"name":"Ponto 2 - Rua Califórnia","desc":"Localização: Rua Califórnia\nPeríodo de Entrega: 4 Meses\nQuantidade de Pontos: 4 pontos\nMP: N\nUTM E: 401388.75 / UTM N: 7410836.63"},"geometry":{"type":"Point","coordinates":[-51.965138,-23.409328]}},
{"type":"Feature","properties":{"name":"Ponto 3 - Jusante do Parque Alfredo Nyffeler","desc":"Localização: Jusante do Parque Alfredo Nyffeler\nPeríodo de Entrega: 4 Meses\nQuantidade de Pontos: 4 pontos\nMP: S\nUTM E: 406544.22 / UTM N: 7410959.88"},"geometry":{"type":"Point","coordinates":[-51.914677,-23.408518]}},
{"type":"Feature","properties":{"name":"Ponto 4 - Av. Sofia Rasgulaeff","desc":"Localização: Av. Sofia Rasgulaeff\nPeríodo de Entrega: 4 Meses\nQuantidade de Pontos: 4 pontos\nMP: N\nUTM E: 407382.22 / UTM N: 7411912.20"},"geometry":{"type":"Point","coordinates":[-51.906418,-23.399964]}},
{"type":"Feature","properties":{"name":"Ponto 5 - Av. das Palmeiras","desc":"Localização: Av. das Palmeiras\nPeríodo de Entrega: 7 Meses\nQuantidade de Pontos: 7 pontos\nMP: N\nUTM E: 403174.51 / UTM N: 7413630.76"},"geometry":{"type":"Point","coordinates":[-51.947482,-23.384199]}},
{"type":"Feature","properties":{"name":"Ponto 6 - Av. Alziro Zarur","desc":"Localização: Av. Alziro Zarur\nPeríodo de Entrega: 7 Meses\nQuantidade de Pontos: 7 pontos\nMP: N\nUTM E: 401238.29 / UTM N: 7412005.97"},"geometry":{"type":"Point","coordinates":[-51.966533,-23.398757]}},
{"type":"Feature","properties":{"name":"Ponto 7 - Av. Ranulfo Rodrigues da Mota","desc":"Localização: Av. Ranulfo Rodrigues da Mota\nPeríodo de Entrega: 7 Meses\nQuantidade de Pontos: 7 pontos\nMP: S\nUTM E: 403681.20 / UTM N: 7412167.77"},"geometry":{"type":"Point","coordinates":[-51.942618,-23.397442]}},
{"type":"Feature","properties":{"name":"Ponto 8 - Ribeirão Bandeirantes do Sul*","desc":"Localização: Ribeirão Bandeirantes do Sul*\nPeríodo de Entrega: 7 Meses\nQuantidade de Pontos: 7 pontos\nMP: S\nUTM E: 399558.02 / UTM N: 7409219.14"},"geometry":{"type":"Point","coordinates":[-51.983162,-23.423824]}},
{"type":"Feature","properties":{"name":"Ponto 9 - Rua Rio Tocantins","desc":"Localização: Rua Rio Tocantins\nPeríodo de Entrega: 7 Meses\nQuantidade de Pontos: 7 pontos\nMP: N\nUTM E: 408117.00 / UTM N: 7412112.25"},"geometry":{"type":"Point","coordinates":[-51.898132,-23.395228]}},
{"type":"Feature","properties":{"name":"Ponto 10 - Rua Rio Paranapanema II","desc":"Localização: Rua Rio Paranapanema II\nPeríodo de Entrega: 7 Meses\nQuantidade de Pontos: 7 pontos\nMP: S\nUTM E: 407308.19 / UTM N: 7410892.36"},"geometry":{"type":"Point","coordinates":[-51.907205,-23.409171]}},
{"type":"Feature","properties":{"name":"Ponto 11 - Cabeceira Córrego Mandacaru","desc":"Localização: Cabeceira Córrego Mandacaru\nPeríodo de Entrega: 7 Meses\nQuantidade de Pontos: 7 pontos\nMP: S\nUTM E: 403010.72 / UTM N: 7410582.66"},"geometry":{"type":"Point","coordinates":[-51.949281,-23.411719]}},
{"type":"Feature","properties":{"name":"Ponto 12 - Horta Jardim Montreal","desc":"Localização: Horta Jardim Montreal\nPeríodo de Entrega: 10 Meses\nQuantidade de Pontos: 13 pontos \nMP: \nUTM E: 401178.50 / UTM N: 7410405.88"},"geometry":{"type":"Point","coordinates":[-51.967224,-23.413205]}},
{"type":"Feature","properties":{"name":"Ponto 13 - Horta Av. Herval","desc":"Localização: Horta Av. Herval\nPeríodo de Entrega: 10 Meses\nQuantidade de Pontos: 13 pontos \nMP: \nUTM E: 404188.50 / UTM N: 7412187.85"},"geometry":{"type":"Point","coordinates":[-51.937653,-23.39729]}},
{"type":"Feature","properties":{"name":"Ponto 14 - R. Jacy Aguiar de Souza","desc":"Localização: R. Jacy Aguiar de Souza\nPeríodo de Entrega: 10 Meses\nQuantidade de Pontos: 13 pontos \nMP: \nUTM E: 399794.80 / UTM N: 7404763.27"},"geometry":{"type":"Point","coordinates":[-51.981141,-23.464083]}},
{"type":"Feature","properties":{"name":"Ponto 15 - Av. Jinroku Kubota","desc":"Localização: Av. Jinroku Kubota\nPeríodo de Entrega: 10 Meses\nQuantidade de Pontos: 13 pontos \nMP: \nUTM E: 408070.22 / UTM N: 7410732.84"},"geometry":{"type":"Point","coordinates":[-51.899757,-23.410655]}},
{"type":"Feature","properties":{"name":"Ponto 16 - R. Rio Ligeiro","desc":"Localização: R. Rio Ligeiro\nPeríodo de Entrega: 10 Meses\nQuantidade de Pontos: 13 pontos \nMP: \nUTM E: 408116.10 / UTM N: 7412113.65"},"geometry":{"type":"Point","coordinates":[-51.899224,-23.398186]}},
{"type":"Feature","properties":{"name":"Ponto 17 - Av. Nildo Ribeiro","desc":"Localização: Av. Nildo Ribeiro\nPeríodo de Entrega: 10 Meses\nQuantidade de Pontos: 13 pontos \nMP: \nUTM E: 404118.62 / UTM N: 7406553.34"},"geometry":{"type":"Point","coordinates":[-51.938696,-23.448176]}},
{"type":"Feature","properties":{"name":"Ponto 18 - R. Yoshimori Kubota*","desc":"Localização: R. Yoshimori Kubota*\nPeríodo de Entrega: 10 Meses\nQuantidade de Pontos: 13 pontos \nMP: \nUTM E: 404904.02 / UTM N: 7414741.41"},"geometry":{"type":"Point","coordinates":[-51.93049,-23.374269]}},
{"type":"Feature","properties":{"name":"Ponto 19 - R. Almerinda Silveira Coelho","desc":"Localização: R. Almerinda Silveira Coelho\nPeríodo de Entrega: 10 Meses\nQuantidade de Pontos: 13 pontos \nMP: \nUTM E: 405026.60 / UTM N: 7414889.72"},"geometry":{"type":"Point","coordinates":[-51.929281,-23.372937]}},
{"type":"Feature","properties":{"name":"Ponto 20 - R. Max Richar Curt Phillip*","desc":"Localização: R. Max Richar Curt Phillip*\nPeríodo de Entrega: 10 Meses\nQuantidade de Pontos: 13 pontos \nMP: \nUTM E: 401349.93 / UTM N: 7410961.26"},"geometry":{"type":"Point","coordinates":[-51.965509,-23.4082]}},
{"type":"Feature","properties":{"name":"Ponto 21 - Av. Joaquim Duarte Moleirinho","desc":"Localização: Av. Joaquim Duarte Moleirinho\nPeríodo de Entrega: 10 Meses\nQuantidade de Pontos: 13 pontos \nMP: \nUTM E: 403438.83 / UTM N: 7407342.14"},"geometry":{"type":"Point","coordinates":[-51.945299,-23.441011]}},
{"type":"Feature","properties":{"name":"Ponto 22 - R. Caxias (Floriano)","desc":"Localização: R. Caxias (Floriano)\nPeríodo de Entrega: 10 Meses\nQuantidade de Pontos: 13 pontos \nMP: \nUTM E: 392284.79 / UTM N: 7398211.89"},"geometry":{"type":"Point","coordinates":[-52.055136,-23.522771]}},
{"type":"Feature","properties":{"name":"Ponto 23 - Córrego Burigui*","desc":"Localização: Córrego Burigui*\nPeríodo de Entrega: 10 Meses\nQuantidade de Pontos: 13 pontos \nMP: \nObs: coordenada Latitude não disponível (Lote Rural 144 - Zona 49)\nUTM E: 398272.88 / UTM N: 7410495.95"},"geometry":{"type":"Point","coordinates":[-51.995653,-23.412213]}},
{"type":"Feature","properties":{"name":"Ponto 24 - Rua Mario Clapier Urbinati*","desc":"Localização: Rua Mario Clapier Urbinati*\nPeríodo de Entrega: 10 Meses\nQuantidade de Pontos: 13 pontos \nMP: \nUTM E: 403070.24 / UTM N: 7411345.20"},"geometry":{"type":"Point","coordinates":[-51.94865,-23.404835]}},
{"type":"Feature","properties":{"name":"Ponto 25 - Av. Sincler Sambatti","desc":"Localização: Av. Sincler Sambatti\nPeríodo de Entrega: 13 meses \nQuantidade de Pontos: 13 pontos \nMP: \nUTM E: 400832.29 / UTM N: 7405712.26"},"geometry":{"type":"Point","coordinates":[-51.970921,-23.455575]}},
{"type":"Feature","properties":{"name":"Ponto 26 - Rua Marciano Halchuck","desc":"Localização: Rua Marciano Halchuck\nPeríodo de Entrega: 13 meses \nQuantidade de Pontos: 13 pontos \nMP: \nUTM E: 405540.50 / UTM N: 7408049.73"},"geometry":{"type":"Point","coordinates":[-51.924682,-23.434744]}},
{"type":"Feature","properties":{"name":"Ponto 27 - Parque do Ingá (Canais)","desc":"Localização: Parque do Ingá (Canais)\nPeríodo de Entrega: 13 meses \nQuantidade de Pontos: 13 pontos \nMP: \nUTM E: 405152.16 / UTM N: 7408564.75"},"geometry":{"type":"Point","coordinates":[-51.928451,-23.43007]}},
{"type":"Feature","properties":{"name":"Ponto 28 - Ribeirão Morangueiro (Rua Guarino Basseto)","desc":"Localização: Ribeirão Morangueiro (Rua Guarino Basseto)\nPeríodo de Entrega: 13 meses \nQuantidade de Pontos: 13 pontos \nMP: \nUTM E: 407998.97 / UTM N: 7412957.74"},"geometry":{"type":"Point","coordinates":[-51.900318,-23.390556]}},
{"type":"Feature","properties":{"name":"Ponto 29 - Rua Guarino Basseto (Córrego sem denominação)","desc":"Localização: Rua Guarino Basseto (Córrego sem denominação)\nPeríodo de Entrega: 13 meses \nQuantidade de Pontos: 13 pontos \nMP: \nUTM E: 408807.58 / UTM N: 7412458.36"},"geometry":{"type":"Point","coordinates":[-51.892436,-23.395112]}},
{"type":"Feature","properties":{"name":"Ponto 30 - Parque Cinquentenario","desc":"Localização: Parque Cinquentenario\nPeríodo de Entrega: 13 meses \nQuantidade de Pontos: 13 pontos \nMP: \nUTM E: 403583.96 / UTM N: 7412779.15"},"geometry":{"type":"Point","coordinates":[-51.943531,-23.391914]}}
]}
