{"type":"FeatureCollection","name":"sec_feito","features":[
{"type":"Feature","properties":{"name":"SEÇÃO 1A","cod":"IT01B01","numKmz":"S1","bacia":"Ribeirão Maringá","micro":"B01","feito":true,"drenagem":"Assoreada","subida":true},"geometry":{"type":"Point","coordinates":[-51.9613617,-23.4183164]}},
{"type":"Feature","properties":{"name":"SEÇÃO 1B","cod":"IT01B01","numKmz":"S3","bacia":"Ribeirão Maringá","micro":"B01","feito":true,"drenagem":"Tubular OK","subida":true},"geometry":{"type":"Point","coordinates":[-51.9615139,-23.4180474]}},
{"type":"Feature","properties":{"name":"SEÇÃO 2A","cod":"IT02B01","numKmz":"S5","bacia":"Ribeirão Maringá","micro":"B01","feito":true,"drenagem":"Celular OK","subida":true},"geometry":{"type":"Point","coordinates":[-51.9636096,-23.4123212]}},
{"type":"Feature","properties":{"name":"SEÇÃO 2B","cod":"IT02B01","numKmz":"S6","bacia":"Ribeirão Maringá","micro":"B01","feito":true,"drenagem":"Celular OK","subida":true},"geometry":{"type":"Point","coordinates":[-51.9636723,-23.4122105]}},
{"type":"Feature","properties":{"name":"SEÇÃO 4A","cod":"IT04B01","numKmz":"S10","bacia":"Ribeirão Maringá","micro":"B01","feito":true,"drenagem":"Celular OK","subida":true},"geometry":{"type":"Point","coordinates":[-51.9666201,-23.3991174]}},
{"type":"Feature","properties":{"name":"SEÇÃO 4B","cod":"IT04B01","numKmz":"S11","bacia":"Ribeirão Maringá","micro":"B01","feito":true,"drenagem":"Celular OK","subida":true},"geometry":{"type":"Point","coordinates":[-51.9665463,-23.3988071]}},
{"type":"Feature","properties":{"name":"SEÇÃO 5A","cod":"IT05B01","numKmz":"S13","bacia":"Ribeirão Maringá","micro":"B01","feito":true,"drenagem":"Tubular OK","subida":true},"geometry":{"type":"Point","coordinates":[-51.9644351,-23.3936268]}},
{"type":"Feature","properties":{"name":"SEÇÃO 5B","cod":"IT05B01","numKmz":"S14","bacia":"Ribeirão Maringá","micro":"B01","feito":true,"drenagem":"Tubular OK","subida":true},"geometry":{"type":"Point","coordinates":[-51.9643317,-23.3934782]}},
{"type":"Feature","properties":{"name":"SEÇÃO 6A","cod":"IT06B01","numKmz":"S15","bacia":"Ribeirão Maringá","micro":"B01","feito":true,"drenagem":"Celular OK","subida":true},"geometry":{"type":"Point","coordinates":[-51.9664874,-23.3874311]}},
{"type":"Feature","properties":{"name":"SEÇÃO 6B","cod":"IT06B01","numKmz":"S17","bacia":"Ribeirão Maringá","micro":"B01","feito":true,"drenagem":"BLE OK","subida":true},"geometry":{"type":"Point","coordinates":[-51.9668144,-23.3869843]}},
{"type":"Feature","properties":{"name":"SEÇÃO 6C","cod":"IT06B01","numKmz":"S19","bacia":"Ribeirão Maringá","micro":"B01","feito":true,"drenagem":"BLE OK","subida":true},"geometry":{"type":"Point","coordinates":[-51.9668456,-23.3868116]}},
{"type":"Feature","properties":{"name":"SEÇÃO 6D","cod":"IT06B01","numKmz":"S21","bacia":"Ribeirão Maringá","micro":"B01","feito":true,"drenagem":"Celular OK","subida":true},"geometry":{"type":"Point","coordinates":[-51.9666113,-23.3873815]}},
{"type":"Feature","properties":{"name":"SEÇÃO 7A","cod":"IT07B01","numKmz":"S22","bacia":"Ribeirão Maringá","micro":"B01","feito":true,"drenagem":"Ponte OK","subida":true},"geometry":{"type":"Point","coordinates":[-51.970847,-23.379088]}},
{"type":"Feature","properties":{"name":"SEÇÃO 7B","cod":"IT07B01","numKmz":"S24","bacia":"Ribeirão Maringá","micro":"B01","feito":true,"drenagem":"Ponte OK","subida":true},"geometry":{"type":"Point","coordinates":[-51.9708004,-23.3789542]}},
{"type":"Feature","properties":{"name":"SEÇÃO 8A","cod":"IT08B01","numKmz":"S26","bacia":"Ribeirão Maringá","micro":"B01","feito":true,"drenagem":"Tubular OK","subida":true},"geometry":{"type":"Point","coordinates":[-51.9692827,-23.3745267]}},
{"type":"Feature","properties":{"name":"SEÇÃO 8B","cod":"IT08B01","numKmz":"S27","bacia":"Ribeirão Maringá","micro":"B01","feito":true,"drenagem":"Tubular OK","subida":true},"geometry":{"type":"Point","coordinates":[-51.969199,-23.3744322]}},
{"type":"Feature","properties":{"name":"SEÇÃO 10A","cod":"IT10B01","numKmz":"S31","bacia":"Ribeirão Maringá","micro":"B01","feito":true,"drenagem":"Tubular OK","subida":true},"geometry":{"type":"Point","coordinates":[-51.96717,-23.4133965]}},
{"type":"Feature","properties":{"name":"SEÇÃO 10B","cod":"IT10B01","numKmz":"S32","bacia":"Ribeirão Maringá","micro":"B01","feito":true,"drenagem":"Tubular OK","subida":true},"geometry":{"type":"Point","coordinates":[-51.9671466,-23.4132651]}},
{"type":"Feature","properties":{"name":"SEÇÃO 11A","cod":"IT11B01","numKmz":"S33","bacia":"Ribeirão Maringá","micro":"B01","feito":true,"drenagem":"Tubular OK","subida":true},"geometry":{"type":"Point","coordinates":[-51.9662842,-23.4115373]}},
{"type":"Feature","properties":{"name":"SEÇÃO 12A","cod":"IT12B01","numKmz":"S35","bacia":"Ribeirão Maringá","micro":"B01","feito":true,"drenagem":"Ponte OK","subida":true},"geometry":{"type":"Point","coordinates":[-51.9724344,-23.404262]}},
{"type":"Feature","properties":{"name":"SEÇÃO 12B","cod":"IT12B01","numKmz":"S36","bacia":"Ribeirão Maringá","micro":"B01","feito":true,"drenagem":"Ponte OK","subida":true},"geometry":{"type":"Point","coordinates":[-51.9723786,-23.4040625]}},
{"type":"Feature","properties":{"name":"SEÇÃO 13A","cod":"IT13B01","numKmz":"S38","bacia":"Ribeirão Maringá","micro":"B01","feito":true,"drenagem":"Tubular OK","subida":true},"geometry":{"type":"Point","coordinates":[-51.9806768,-23.3903539]}},
{"type":"Feature","properties":{"name":"SEÇÃO 13B","cod":"IT13B01","numKmz":"S40","bacia":"Ribeirão Maringá","micro":"B01","feito":true,"drenagem":"Tubular OK","subida":true},"geometry":{"type":"Point","coordinates":[-51.9805183,-23.3902696]}},
{"type":"Feature","properties":{"name":"SEÇÃO 1A","cod":"IT01B02","numKmz":"S41","bacia":"Ribeirão Maringá","micro":"B02","feito":true,"drenagem":"Tubular OK","subida":true},"geometry":{"type":"Point","coordinates":[-51.9486707,-23.4053194]}},
{"type":"Feature","properties":{"name":"SEÇÃO 1B","cod":"IT01B02","numKmz":"S43","bacia":"Ribeirão Maringá","micro":"B02","feito":true,"drenagem":"Tubular OK","subida":true},"geometry":{"type":"Point","coordinates":[-51.9487113,-23.4049128]}},
{"type":"Feature","properties":{"name":"SEÇÃO 2A","cod":"IT02B02","numKmz":"S45","bacia":"Ribeirão Maringá","micro":"B02","feito":true,"drenagem":"Ponte OK","subida":true},"geometry":{"type":"Point","coordinates":[-51.9486421,-23.4041884]}},
{"type":"Feature","properties":{"name":"SEÇÃO 2B","cod":"IT02B02","numKmz":"S47","bacia":"Ribeirão Maringá","micro":"B02","feito":true,"drenagem":"Ponte OK","subida":true},"geometry":{"type":"Point","coordinates":[-51.9486451,-23.4040583]}},
{"type":"Feature","properties":{"name":"SEÇÃO 3A","cod":"IT03B02","numKmz":"S49","bacia":"Ribeirão Maringá","micro":"B02","feito":true,"drenagem":"Ponte OK","subida":true},"geometry":{"type":"Point","coordinates":[-51.946676,-23.3975404]}},
{"type":"Feature","properties":{"name":"SEÇÃO 3B","cod":"IT03B02","numKmz":"S50","bacia":"Ribeirão Maringá","micro":"B02","feito":true,"drenagem":"Ponte OK","subida":true},"geometry":{"type":"Point","coordinates":[-51.946574,-23.3972683]}},
{"type":"Feature","properties":{"name":"SEÇÃO 4A","cod":"IT04B02","numKmz":"S52","bacia":"Ribeirão Maringá","micro":"B02","feito":true,"drenagem":"Ponte OK","subida":true},"geometry":{"type":"Point","coordinates":[-51.943634,-23.3938709]}},
{"type":"Feature","properties":{"name":"SEÇÃO 4B","cod":"IT04B02","numKmz":"S53","bacia":"Ribeirão Maringá","micro":"B02","feito":true,"drenagem":"Ponte OK","subida":true},"geometry":{"type":"Point","coordinates":[-51.9436031,-23.3937604]}},
{"type":"Feature","properties":{"name":"SEÇÃO 4C","cod":"IT04B02","numKmz":"S54","bacia":"Ribeirão Maringá","micro":"B02","feito":true,"drenagem":"Ponte OK","subida":true},"geometry":{"type":"Point","coordinates":[-51.9435877,-23.3937177]}},
{"type":"Feature","properties":{"name":"SEÇÃO 4D","cod":"IT04B02","numKmz":"S56","bacia":"Ribeirão Maringá","micro":"B02","feito":true,"drenagem":"Ponte OK","subida":true},"geometry":{"type":"Point","coordinates":[-51.9435718,-23.3936046]}},
{"type":"Feature","properties":{"name":"SEÇÃO 5A","cod":"IT05B02","numKmz":"S57","bacia":"Ribeirão Maringá","micro":"B02","feito":true,"drenagem":"Ponte OK","subida":true},"geometry":{"type":"Point","coordinates":[-51.9445669,-23.3895301]}},
{"type":"Feature","properties":{"name":"SEÇÃO 5B","cod":"IT05B02","numKmz":"S59","bacia":"Ribeirão Maringá","micro":"B02","feito":true,"drenagem":"Ponte OK","subida":true},"geometry":{"type":"Point","coordinates":[-51.9445635,-23.3893841]}},
{"type":"Feature","properties":{"name":"SEÇÃO 6A","cod":"IT06B02","numKmz":"S60","bacia":"Ribeirão Maringá","micro":"B02","feito":true,"drenagem":"Celular OK","subida":true},"geometry":{"type":"Point","coordinates":[-51.9473106,-23.3845859]}},
{"type":"Feature","properties":{"name":"SEÇÃO 6B","cod":"IT06B02","numKmz":"S61","bacia":"Ribeirão Maringá","micro":"B02","feito":true,"drenagem":"Celular OK","subida":true},"geometry":{"type":"Point","coordinates":[-51.9474002,-23.3842661]}},
{"type":"Feature","properties":{"name":"SEÇÃO 7A","cod":"IT07B02","numKmz":"S62","bacia":"Ribeirão Maringá","micro":"B02","feito":true,"drenagem":"Celular OK","subida":true},"geometry":{"type":"Point","coordinates":[-51.9485098,-23.3799273]}},
{"type":"Feature","properties":{"name":"SEÇÃO 7B","cod":"IT07B02","numKmz":"S64","bacia":"Ribeirão Maringá","micro":"B02","feito":true,"drenagem":"Celular OK","subida":true},"geometry":{"type":"Point","coordinates":[-51.9486509,-23.3793027]}},
{"type":"Feature","properties":{"name":"SEÇÃO 8A","cod":"IT08B02","numKmz":"S65","bacia":"Ribeirão Maringá","micro":"B02","feito":true,"drenagem":"Tubular OK","subida":true},"geometry":{"type":"Point","coordinates":[-51.9397156,-23.3968162]}},
{"type":"Feature","properties":{"name":"SEÇÃO 8B","cod":"IT08B02","numKmz":"S66","bacia":"Ribeirão Maringá","micro":"B02","feito":true,"drenagem":"Tubular OK","subida":true},"geometry":{"type":"Point","coordinates":[-51.9398807,-23.3967414]}},
{"type":"Feature","properties":{"name":"SEÇÃO 9A","cod":"IT09B02","numKmz":"S67","bacia":"Ribeirão Maringá","micro":"B02","feito":true,"drenagem":"Tubular OK","subida":true},"geometry":{"type":"Point","coordinates":[-51.9420812,-23.3962733]}},
{"type":"Feature","properties":{"name":"SEÇÃO 9B","cod":"IT09B02","numKmz":"S68","bacia":"Ribeirão Maringá","micro":"B02","feito":true,"drenagem":"Tubular OK","subida":true},"geometry":{"type":"Point","coordinates":[-51.9423594,-23.3962069]}},
{"type":"Feature","properties":{"name":"SEÇÃO 1A","cod":"IT01B03","numKmz":"S69","bacia":"Ribeirão Maringá","micro":"B03","feito":true,"drenagem":"Tubular OK","subida":true},"geometry":{"type":"Point","coordinates":[-51.9243122,-23.3788907]}},
{"type":"Feature","properties":{"name":"SEÇÃO 1B","cod":"IT01B03","numKmz":"S70","bacia":"Ribeirão Maringá","micro":"B03","feito":true,"drenagem":"Tubular OK","subida":true},"geometry":{"type":"Point","coordinates":[-51.9247074,-23.3787264]}},
{"type":"Feature","properties":{"name":"SEÇÃO 2A","cod":"IT02B03","numKmz":"S72","bacia":"Ribeirão Maringá","micro":"B03","feito":true,"drenagem":"Celular OK","subida":true},"geometry":{"type":"Point","coordinates":[-51.9297688,-23.3729704]}},
{"type":"Feature","properties":{"name":"SEÇÃO 2B","cod":"IT02B03","numKmz":"S74","bacia":"Ribeirão Maringá","micro":"B03","feito":true,"drenagem":"Celular OK","subida":true},"geometry":{"type":"Point","coordinates":[-51.9289412,-23.3723449]}},
{"type":"Feature","properties":{"name":"SEÇÃO 1A","cod":"IT01B04","numKmz":"S75","bacia":"Ribeirão Morangueiro","micro":"B04","feito":true,"drenagem":"Tubular OK","subida":true},"geometry":{"type":"Point","coordinates":[-51.9108461,-23.3817685]}},
{"type":"Feature","properties":{"name":"SEÇÃO 1B","cod":"IT01B04","numKmz":"S77","bacia":"Ribeirão Morangueiro","micro":"B04","feito":true,"drenagem":"Tubular OK","subida":true},"geometry":{"type":"Point","coordinates":[-51.9102192,-23.3814783]}},
{"type":"Feature","properties":{"name":"SEÇÃO 1A","cod":"IT01B05","numKmz":"S78","bacia":"Ribeirão Morangueiro","micro":"B05","feito":true,"drenagem":"Tubular OK","subida":true},"geometry":{"type":"Point","coordinates":[-51.9123006,-23.4069525]}},
{"type":"Feature","properties":{"name":"SEÇÃO 1B","cod":"IT01B05","numKmz":"S79","bacia":"Ribeirão Morangueiro","micro":"B05","feito":true,"drenagem":"Tubular OK","subida":true},"geometry":{"type":"Point","coordinates":[-51.9121478,-23.4067916]}},
{"type":"Feature","properties":{"name":"SEÇÃO 2A","cod":"IT02B05","numKmz":"S81","bacia":"Ribeirão Morangueiro","micro":"B05","feito":true,"drenagem":"Celular OK","subida":true},"geometry":{"type":"Point","coordinates":[-51.9075027,-23.4050057]}},
{"type":"Feature","properties":{"name":"SEÇÃO 2B","cod":"IT02B05","numKmz":"S83","bacia":"Ribeirão Morangueiro","micro":"B05","feito":true,"drenagem":"Celular OK","subida":true},"geometry":{"type":"Point","coordinates":[-51.9074821,-23.4047468]}},
{"type":"Feature","properties":{"name":"SEÇÃO 4A","cod":"IT04B05","numKmz":"S92","bacia":"Ribeirão Morangueiro","micro":"B05","feito":true,"drenagem":"Ponte OK","subida":true},"geometry":{"type":"Point","coordinates":[-51.9047551,-23.3941501]}},
{"type":"Feature","properties":{"name":"SEÇÃO 4B","cod":"IT04B05","numKmz":"S94","bacia":"Ribeirão Morangueiro","micro":"B05","feito":true,"drenagem":"Ponte OK","subida":true},"geometry":{"type":"Point","coordinates":[-51.9045017,-23.3939028]}},
{"type":"Feature","properties":{"name":"SEÇÃO 5A","cod":"IT05B05","numKmz":"S95","bacia":"Ribeirão Morangueiro","micro":"B05","feito":true,"drenagem":"Celular OK","subida":true},"geometry":{"type":"Point","coordinates":[-51.9005844,-23.3906287]}},
{"type":"Feature","properties":{"name":"SEÇÃO 5B","cod":"IT05B05","numKmz":"S96","bacia":"Ribeirão Morangueiro","micro":"B05","feito":true,"drenagem":"Celular OK","subida":true},"geometry":{"type":"Point","coordinates":[-51.9002462,-23.3905445]}},
{"type":"Feature","properties":{"name":"SEÇÃO 6A","cod":"IT06B05","numKmz":"S86","bacia":"Ribeirão Morangueiro","micro":"B05","feito":true,"drenagem":"Celular OK","subida":true},"geometry":{"type":"Point","coordinates":[-51.8964176,-23.3891238]}},
{"type":"Feature","properties":{"name":"SEÇÃO 6B","cod":"IT06B05","numKmz":"S87","bacia":"Ribeirão Morangueiro","micro":"B05","feito":true,"drenagem":"Celular OK","subida":true},"geometry":{"type":"Point","coordinates":[-51.8959895,-23.3890674]}},
{"type":"Feature","properties":{"name":"SEÇÃO 6C","cod":"IT06B05","numKmz":"S89","bacia":"Ribeirão Morangueiro","micro":"B05","feito":true,"drenagem":"Celular OK","subida":true},"geometry":{"type":"Point","coordinates":[-51.8956274,-23.3888993]}},
{"type":"Feature","properties":{"name":"SEÇÃO 6D","cod":"IT06B05","numKmz":"S91","bacia":"Ribeirão Morangueiro","micro":"B05","feito":true,"drenagem":"Celular OK","subida":true},"geometry":{"type":"Point","coordinates":[-51.8954455,-23.3887581]}},
{"type":"Feature","properties":{"name":"SEÇÃO 7A","cod":"IT07B05","numKmz":"S97","bacia":"Ribeirão Morangueiro","micro":"B05","feito":true,"drenagem":"Tubular OK","subida":true},"geometry":{"type":"Point","coordinates":[-51.9002123,-23.4111214]}},
{"type":"Feature","properties":{"name":"SEÇÃO 7B","cod":"IT07B05","numKmz":"S99","bacia":"Ribeirão Morangueiro","micro":"B05","feito":true,"drenagem":"Tubular OK","subida":true},"geometry":{"type":"Point","coordinates":[-51.900167,-23.4107539]}},
{"type":"Feature","properties":{"name":"SEÇÃO 8A","cod":"IT08B05","numKmz":"S100","bacia":"Ribeirão Morangueiro","micro":"B05","feito":true,"drenagem":"Tubular OK","subida":true},"geometry":{"type":"Point","coordinates":[-51.9002212,-23.4085152]}},
{"type":"Feature","properties":{"name":"SEÇÃO 8B","cod":"IT08B05","numKmz":"S101","bacia":"Ribeirão Morangueiro","micro":"B05","feito":true,"drenagem":"Tubular OK","subida":true},"geometry":{"type":"Point","coordinates":[-51.9003615,-23.4082299]}},
{"type":"Feature","properties":{"name":"SEÇÃO 9A","cod":"IT09B05","numKmz":"S103","bacia":"Ribeirão Morangueiro","micro":"B05","feito":true,"drenagem":"Tubular OK","subida":true},"geometry":{"type":"Point","coordinates":[-51.9000869,-23.4034603]}},
{"type":"Feature","properties":{"name":"SEÇÃO 9B","cod":"IT09B05","numKmz":"S104","bacia":"Ribeirão Morangueiro","micro":"B05","feito":true,"drenagem":"Tubular OK","subida":true},"geometry":{"type":"Point","coordinates":[-51.899969,-23.4031871]}},
{"type":"Feature","properties":{"name":"SEÇÃO 10A","cod":"IT10B05","numKmz":"S106","bacia":"Ribeirão Morangueiro","micro":"B05","feito":true,"drenagem":"Celular OK","subida":true},"geometry":{"type":"Point","coordinates":[-51.8998875,-23.4009783]}},
{"type":"Feature","properties":{"name":"SEÇÃO 10B","cod":"IT10B05","numKmz":"S108","bacia":"Ribeirão Morangueiro","micro":"B05","feito":true,"drenagem":"Celular OK","subida":true},"geometry":{"type":"Point","coordinates":[-51.8996741,-23.4003864]}},
{"type":"Feature","properties":{"name":"SEÇÃO 11A","cod":"IT11B05","numKmz":"S109","bacia":"Ribeirão Morangueiro","micro":"B05","feito":true,"drenagem":"Tubular OK","subida":true},"geometry":{"type":"Point","coordinates":[-51.8992817,-23.3984004]}},
{"type":"Feature","properties":{"name":"SEÇÃO 11B","cod":"IT11B05","numKmz":"S111","bacia":"Ribeirão Morangueiro","micro":"B05","feito":true,"drenagem":"Tubular OK","subida":true},"geometry":{"type":"Point","coordinates":[-51.8991795,-23.398229]}},
{"type":"Feature","properties":{"name":"SEÇÃO 12A","cod":"IT12B05","numKmz":"S112","bacia":"Ribeirão Morangueiro","micro":"B05","feito":true,"drenagem":"Ponte OK","subida":true},"geometry":{"type":"Point","coordinates":[-51.8988727,-23.3967744]}},
{"type":"Feature","properties":{"name":"SEÇÃO 12B","cod":"IT12B05","numKmz":"S114","bacia":"Ribeirão Morangueiro","micro":"B05","feito":true,"drenagem":"Ponte OK","subida":true},"geometry":{"type":"Point","coordinates":[-51.8986933,-23.3965433]}},
{"type":"Feature","properties":{"name":"SEÇÃO 13A","cod":"IT13B05","numKmz":"S116","bacia":"Ribeirão Morangueiro","micro":"B05","feito":true,"drenagem":"Tubular OK","subida":true},"geometry":{"type":"Point","coordinates":[-51.8982494,-23.3954745]}},
{"type":"Feature","properties":{"name":"SEÇÃO 13B","cod":"IT13B05","numKmz":"S118","bacia":"Ribeirão Morangueiro","micro":"B05","feito":true,"drenagem":"Tubular OK","subida":true},"geometry":{"type":"Point","coordinates":[-51.8982224,-23.3952904]}},
{"type":"Feature","properties":{"name":"SEÇÃO 15A","cod":"IT15B05","numKmz":"S123","bacia":"Ribeirão Morangueiro","micro":"B05","feito":true,"drenagem":"Tubular OK","subida":true},"geometry":{"type":"Point","coordinates":[-51.8901311,-23.399849]}},
{"type":"Feature","properties":{"name":"SEÇÃO 15B","cod":"IT15B05","numKmz":"S125","bacia":"Ribeirão Morangueiro","micro":"B05","feito":true,"drenagem":"Tubular OK","subida":true},"geometry":{"type":"Point","coordinates":[-51.8902985,-23.3996124]}},
{"type":"Feature","properties":{"name":"SEÇÃO 16A","cod":"IT16B05","numKmz":"S126","bacia":"Ribeirão Morangueiro","micro":"B05","feito":true,"drenagem":"Tubular OK","subida":true},"geometry":{"type":"Point","coordinates":[-51.8921781,-23.3954725]}},
{"type":"Feature","properties":{"name":"SEÇÃO 16B","cod":"IT16B05","numKmz":"S127","bacia":"Ribeirão Morangueiro","micro":"B05","feito":true,"drenagem":"Tubular OK","subida":true},"geometry":{"type":"Point","coordinates":[-51.8922134,-23.39521]}},
{"type":"Feature","properties":{"name":"SEÇÃO 17A","cod":"IT17B05","numKmz":"S128","bacia":"Rib. Morangueiro","micro":"B05","feito":true,"drenagem":"Tubular OK","subida":true},"geometry":{"type":"Point","coordinates":[-51.8939409,-23.3907689]}},
{"type":"Feature","properties":{"name":"SEÇÃO 18A","cod":"IT18B05","numKmz":"S130","bacia":"Ribeirão Morangueiro","micro":"B05","feito":true,"drenagem":"Ponte OK","subida":true},"geometry":{"type":"Point","coordinates":[-51.8824938,-23.3642846]}},
{"type":"Feature","properties":{"name":"SEÇÃO 18B","cod":"IT18B05","numKmz":"S132","bacia":"Ribeirão Morangueiro","micro":"B05","feito":true,"drenagem":"Ponte OK","subida":true},"geometry":{"type":"Point","coordinates":[-51.8823254,-23.3641872]}},
{"type":"Feature","properties":{"name":"SEÇÃO 2B","cod":"IT02B05","numKmz":"S139","bacia":"Ribeirão Morangueiro","micro":"B05","feito":true,"drenagem":"Tubular OK","subida":true},"geometry":{"type":"Point","coordinates":[-51.924723,-23.4347208]}},
{"type":"Feature","properties":{"name":"SEÇÃO 3A","cod":"IT03B06","numKmz":"S140","bacia":"Córrego Cleópatra","micro":"B06","feito":true,"drenagem":"Ponte OK","subida":true},"geometry":{"type":"Point","coordinates":[-51.9205915,-23.4407134]}},
{"type":"Feature","properties":{"name":"SEÇÃO 3B","cod":"IT03B06","numKmz":"S142","bacia":"Córrego Cleópatra","micro":"B06","feito":true,"drenagem":"Ponte OK","subida":true},"geometry":{"type":"Point","coordinates":[-51.9206339,-23.4408769]}},
{"type":"Feature","properties":{"name":"SEÇÃO 4A","cod":"IT04B06","numKmz":"S143","bacia":"Córrego Cleópatra","micro":"B06","feito":true,"drenagem":"Celular OK","subida":true},"geometry":{"type":"Point","coordinates":[-51.9204481,-23.4426408]}},
{"type":"Feature","properties":{"name":"SEÇÃO 4B","cod":"IT04B06","numKmz":"S145","bacia":"Córrego Cleópatra","micro":"B06","feito":true,"drenagem":"Celular OK","subida":true},"geometry":{"type":"Point","coordinates":[-51.9204761,-23.4428379]}},
{"type":"Feature","properties":{"name":"SEÇÃO 5A","cod":"IT05B06","numKmz":"S147","bacia":"Córrego Cleópatra","micro":"B06","feito":true,"drenagem":"Celular OK","subida":true},"geometry":{"type":"Point","coordinates":[-51.9204471,-23.4434676]}},
{"type":"Feature","properties":{"name":"SEÇÃO 5B","cod":"IT05B06","numKmz":"S148","bacia":"Córrego Cleópatra","micro":"B06","feito":true,"drenagem":"Celular OK","subida":true},"geometry":{"type":"Point","coordinates":[-51.9205857,-23.4437589]}},
{"type":"Feature","properties":{"name":"SEÇÃO 6A","cod":"IT06B06","numKmz":"S149","bacia":"Córrego Cleópatra","micro":"B06","feito":true,"drenagem":"","subida":false},"geometry":{"type":"Point","coordinates":[-51.9247793,-23.4511938]}},
{"type":"Feature","properties":{"name":"SEÇÃO 6B","cod":"IT06B06","numKmz":"S151","bacia":"Córrego Cleópatra","micro":"B06","feito":true,"drenagem":"","subida":false},"geometry":{"type":"Point","coordinates":[-51.9248955,-23.4514446]}},
{"type":"Feature","properties":{"name":"SEÇÃO 12A","cod":"IT12B06","numKmz":"S168","bacia":"Córrego Cleópatra","micro":"B06","feito":true,"drenagem":"","subida":false},"geometry":{"type":"Point","coordinates":[-51.9385452,-23.4478552]}},
{"type":"Feature","properties":{"name":"SEÇÃO 12B","cod":"IT12B06","numKmz":"S166","bacia":"Córrego Cleópatra","micro":"B06","feito":true,"drenagem":"","subida":false},"geometry":{"type":"Point","coordinates":[-51.938471,-23.4481699]}},
{"type":"Feature","properties":{"name":"SEÇÃO 1A","cod":"","numKmz":"S169","bacia":"Córrego Borba Gato","micro":"B07","feito":true,"drenagem":"Celular OK","subida":true},"geometry":{"type":"Point","coordinates":[-51.9705564,-23.4510683]}},
{"type":"Feature","properties":{"name":"SEÇÃO 1B","cod":"","numKmz":"S171","bacia":"Córrego Borba Gato","micro":"B07","feito":true,"drenagem":"Celular OK","subida":true},"geometry":{"type":"Point","coordinates":[-51.9703909,-23.451442]}},
{"type":"Feature","properties":{"name":"SEÇÃO 2A","cod":"","numKmz":"S173","bacia":"Córrego Borba Gato","micro":"B07","feito":true,"drenagem":"Celular OK","subida":true},"geometry":{"type":"Point","coordinates":[-51.9708462,-23.4549856]}},
{"type":"Feature","properties":{"name":"SEÇÃO 2B","cod":"","numKmz":"S175","bacia":"Córrego Borba Gato","micro":"B07","feito":true,"drenagem":"Celular OK","subida":true},"geometry":{"type":"Point","coordinates":[-51.9709414,-23.4551299]}}
]}
