{"type":"FeatureCollection","name":"sec_pend","features":[
{"type":"Feature","properties":{"name":"SEÇÃO 9A","cod":"","numKmz":"S29","bacia":"Ribeirão Maringá","micro":"B01","feito":false,"drenagem":"Pendente","subida":false},"geometry":{"type":"Point","coordinates":[-51.9681742,-23.4194197]}},
{"type":"Feature","properties":{"name":"SEÇÃO 9B","cod":"","numKmz":"S30","bacia":"Ribeirão Maringá","micro":"B01","feito":false,"drenagem":"Não existente","subida":false},"geometry":{"type":"Point","coordinates":[-51.9681654,-23.4188302]}},
{"type":"Feature","properties":{"name":"SEÇÃO 1A","cod":"IT01B06","numKmz":"S133","bacia":"Córrego Cleópatra","micro":"B06","feito":false,"drenagem":"","subida":false},"geometry":{"type":"Point","coordinates":[-51.9269668,-23.4320482]}},
{"type":"Feature","properties":{"name":"SEÇÃO 1B","cod":"IT01B06","numKmz":"S135","bacia":"Córrego Cleópatra","micro":"B06","feito":false,"drenagem":"Não existente","subida":false},"geometry":{"type":"Point","coordinates":[-51.9268417,-23.4323115]}},
{"type":"Feature","properties":{"name":"SEÇÃO 2A","cod":"IT02B06","numKmz":"S137","bacia":"Córrego Cleópatra","micro":"B06","feito":false,"drenagem":"Não existente","subida":false},"geometry":{"type":"Point","coordinates":[-51.9248411,-23.4345812]}},
{"type":"Feature","properties":{"name":"SEÇÃO 7A","cod":"","numKmz":"","bacia":"Córrego Cleópatra","micro":"B06","feito":false,"drenagem":"","subida":false},"geometry":{"type":"Point","coordinates":[-51.9308175,-23.4544422]}},
{"type":"Feature","properties":{"name":"SEÇÃO 7B","cod":"","numKmz":"","bacia":"Córrego Cleópatra","micro":"B06","feito":false,"drenagem":"","subida":false},"geometry":{"type":"Point","coordinates":[-51.931226,-23.4547055]}},
{"type":"Feature","properties":{"name":"SEÇÃO 8A","cod":"","numKmz":"","bacia":"Córrego Cleópatra","micro":"B06","feito":false,"drenagem":"","subida":false},"geometry":{"type":"Point","coordinates":[-51.9325104,-23.4567327]}},
{"type":"Feature","properties":{"name":"SEÇÃO 8B","cod":"","numKmz":"","bacia":"Córrego Cleópatra","micro":"B06","feito":false,"drenagem":"","subida":false},"geometry":{"type":"Point","coordinates":[-51.9326319,-23.4568189]}},
{"type":"Feature","properties":{"name":"SEÇÃO 9A","cod":"","numKmz":"","bacia":"Córrego Cleópatra","micro":"B06","feito":false,"drenagem":"","subida":false},"geometry":{"type":"Point","coordinates":[-51.9329145,-23.4595466]}},
{"type":"Feature","properties":{"name":"SEÇÃO 9B","cod":"","numKmz":"","bacia":"Córrego Cleópatra","micro":"B06","feito":false,"drenagem":"","subida":false},"geometry":{"type":"Point","coordinates":[-51.9329406,-23.4596903]}},
{"type":"Feature","properties":{"name":"SEÇÃO 10A","cod":"","numKmz":"","bacia":"Córrego Cleópatra","micro":"B06","feito":false,"drenagem":"","subida":false},"geometry":{"type":"Point","coordinates":[-51.9421203,-23.4344769]}},
{"type":"Feature","properties":{"name":"SEÇÃO 10B","cod":"","numKmz":"","bacia":"Córrego Cleópatra","micro":"B06","feito":false,"drenagem":"","subida":false},"geometry":{"type":"Point","coordinates":[-51.9423655,-23.4347486]}},
{"type":"Feature","properties":{"name":"SEÇÃO 11A","cod":"","numKmz":"","bacia":"Córrego Cleópatra","micro":"B06","feito":false,"drenagem":"","subida":false},"geometry":{"type":"Point","coordinates":[-51.94543,-23.4410399]}},
{"type":"Feature","properties":{"name":"SEÇÃO 11B","cod":"","numKmz":"","bacia":"Córrego Cleópatra","micro":"B06","feito":false,"drenagem":"","subida":false},"geometry":{"type":"Point","coordinates":[-51.9457724,-23.4410597]}},
{"type":"Feature","properties":{"name":"SEÇÃO 3A","cod":"","numKmz":"S177","bacia":"Córrego Borba Gato","micro":"B07","feito":false,"drenagem":"","subida":false},"geometry":{"type":"Point","coordinates":[-51.970405,-23.4604496]}},
{"type":"Feature","properties":{"name":"SEÇÃO 3B","cod":"","numKmz":"S179","bacia":"Córrego Borba Gato","micro":"B07","feito":false,"drenagem":"","subida":false},"geometry":{"type":"Point","coordinates":[-51.9703289,-23.4606439]}}
]}
