{"type":"FeatureCollection","name":"sond_spt","features":[
{"type":"Feature","properties":{"name":"SP1","ponto":"P1 - Córrego Osório (Rua Guarino Basseto)","ensaio":"","status":"FEITO"},"geometry":{"type":"Point","coordinates":[-51.8973364,-23.3924316]}},
{"type":"Feature","properties":{"name":"SP2","ponto":"P1 - Córrego Osório (Rua Guarino Basseto)","ensaio":"","status":"FEITO"},"geometry":{"type":"Point","coordinates":[-51.8971698,-23.3923873]}},
{"type":"Feature","properties":{"name":"SP3","ponto":"P2 - Rua Califórnia","ensaio":"","status":"FEITO"},"geometry":{"type":"Point","coordinates":[-51.9652731,-23.4094407]}},
{"type":"Feature","properties":{"name":"SP4","ponto":"P2 - Rua Califórnia","ensaio":"","status":"FEITO"},"geometry":{"type":"Point","coordinates":[-51.9650481,-23.4094512]}},
{"type":"Feature","properties":{"name":"SP5","ponto":"P3 - Jusante do Parque Alfredo Nyffeler","ensaio":"","status":"FEITO"},"geometry":{"type":"Point","coordinates":[-51.9145759,-23.4091496]}},
{"type":"Feature","properties":{"name":"SP6","ponto":"P3 - Jusante do Parque Alfredo Nyffeler","ensaio":"","status":"FEITO"},"geometry":{"type":"Point","coordinates":[-51.914673,-23.4090406]}},
{"type":"Feature","properties":{"name":"SP7","ponto":"P4 - Av. Sofia Rasgulaeff","ensaio":"","status":"FEITO"},"geometry":{"type":"Point","coordinates":[-51.9062139,-23.3999222]}},
{"type":"Feature","properties":{"name":"SP8","ponto":"P4 - Av. Sofia Rasgulaeff","ensaio":"","status":"FEITO"},"geometry":{"type":"Point","coordinates":[-51.9065762,-23.3999472]}},
{"type":"Feature","properties":{"name":"SP9","ponto":"P5 - Av. das Palmeiras","ensaio":"","status":"FEITO"},"geometry":{"type":"Point","coordinates":[-51.9472623,-23.3842068]}},
{"type":"Feature","properties":{"name":"SP10","ponto":"P5 - Av. das Palmeiras","ensaio":"","status":"FEITO"},"geometry":{"type":"Point","coordinates":[-51.9475371,-23.3843316]}},
{"type":"Feature","properties":{"name":"SP11","ponto":"P6 - Av. Alziro Zarur","ensaio":"","status":"FEITO"},"geometry":{"type":"Point","coordinates":[-51.966507,-23.3987662]}},
{"type":"Feature","properties":{"name":"SP12","ponto":"P6 - Av. Alziro Zarur","ensaio":"","status":"FEITO"},"geometry":{"type":"Point","coordinates":[-51.966604,-23.398756]}},
{"type":"Feature","properties":{"name":"SM1","ponto":"P6 - Av. Alziro Zarur","ensaio":"","status":"FEITO"},"geometry":{"type":"Point","coordinates":[-51.9666928,-23.398747]}},
{"type":"Feature","properties":{"name":"SP13","ponto":"P7 - Av. Ranulfo Rodrigues da Mota","ensaio":"","status":"FEITO"},"geometry":{"type":"Point","coordinates":[-51.9424166,-23.3977301]}},
{"type":"Feature","properties":{"name":"SP14","ponto":"P7 - Av. Ranulfo Rodrigues da Mota","ensaio":"","status":"FEITO"},"geometry":{"type":"Point","coordinates":[-51.9426992,-23.3975568]}},
{"type":"Feature","properties":{"name":"SP15","ponto":"P8 - Ribeirão Bandeirantes do Sul","ensaio":"","status":"FEITO"},"geometry":{"type":"Point","coordinates":[-51.9828,-23.4239092]}},
{"type":"Feature","properties":{"name":"SP15B","ponto":"P8 - Ribeirão Bandeirantes do Sul","ensaio":"","status":"FEITO"},"geometry":{"type":"Point","coordinates":[-51.982559,-23.423107]}},
{"type":"Feature","properties":{"name":"SP16","ponto":"P8 - Ribeirão Bandeirantes do Sul","ensaio":"","status":"FEITO"},"geometry":{"type":"Point","coordinates":[-51.9841638,-23.4229974]}},
{"type":"Feature","properties":{"name":"SP17","ponto":"P8 - Ribeirão Bandeirantes do Sul","ensaio":"","status":"FEITO"},"geometry":{"type":"Point","coordinates":[-51.9835361,-23.4228298]}},
{"type":"Feature","properties":{"name":"SM3","ponto":"P8 - Ribeirão Bandeirantes do Sul","ensaio":"","status":"FEITO"},"geometry":{"type":"Point","coordinates":[-51.9838343,-23.4234421]}},
{"type":"Feature","properties":{"name":"SM4","ponto":"P8 - Ribeirão Bandeirantes do Sul","ensaio":"","status":"FEITO"},"geometry":{"type":"Point","coordinates":[-51.9851201,-23.422612]}},
{"type":"Feature","properties":{"name":"SP18","ponto":"P9 - Rua Rio Tocantins","ensaio":"","status":"FEITO"},"geometry":{"type":"Point","coordinates":[-51.8982465,-23.3953347]}},
{"type":"Feature","properties":{"name":"SP19","ponto":"P9 - Rua Rio Tocantins","ensaio":"","status":"FEITO"},"geometry":{"type":"Point","coordinates":[-51.8980505,-23.3953]}},
{"type":"Feature","properties":{"name":"SM5","ponto":"P9 - Rua Rio Tocantins","ensaio":"","status":"FEITO"},"geometry":{"type":"Point","coordinates":[-51.8981099,-23.3953987]}},
{"type":"Feature","properties":{"name":"SP20","ponto":"P10 - Rua Rio Paranapanema II","ensaio":"","status":"FEITO"},"geometry":{"type":"Point","coordinates":[-51.906989,-23.408896]}},
{"type":"Feature","properties":{"name":"SP21","ponto":"P10 - Rua Rio Paranapanema II","ensaio":"","status":"FEITO"},"geometry":{"type":"Point","coordinates":[-51.907451,-23.409191]}},
{"type":"Feature","properties":{"name":"SM6","ponto":"P10 - Rua Rio Paranapanema II","ensaio":"","status":"FEITO"},"geometry":{"type":"Point","coordinates":[-51.906854,-23.409158]}},
{"type":"Feature","properties":{"name":"SM7","ponto":"P10 - Rua Rio Paranapanema II","ensaio":"","status":"FEITO"},"geometry":{"type":"Point","coordinates":[-51.907479,-23.408974]}},
{"type":"Feature","properties":{"name":"SP22","ponto":"P11","ensaio":"SPT","status":"FEITO"},"geometry":{"type":"Point","coordinates":[-51.949589,-23.411599]}},
{"type":"Feature","properties":{"name":"SP23","ponto":"P11","ensaio":"SPT","status":"FEITO"},"geometry":{"type":"Point","coordinates":[-51.949692,-23.411947]}},
{"type":"Feature","properties":{"name":"SP24","ponto":"P12","ensaio":"SPT","status":"FEITO"},"geometry":{"type":"Point","coordinates":[-51.966693,-23.412482]}},
{"type":"Feature","properties":{"name":"SP25","ponto":"P12","ensaio":"SPT","status":"FEITO"},"geometry":{"type":"Point","coordinates":[-51.967119,-23.413152]}},
{"type":"Feature","properties":{"name":"SP26","ponto":"P13","ensaio":"SPT","status":"FEITO"},"geometry":{"type":"Point","coordinates":[-51.937423,-23.397181]}},
{"type":"Feature","properties":{"name":"SP27","ponto":"P13","ensaio":"SPT","status":"FEITO"},"geometry":{"type":"Point","coordinates":[-51.937742,-23.397347]}},
{"type":"Feature","properties":{"name":"SP28","ponto":"P15","ensaio":"SPT","status":"FEITO"},"geometry":{"type":"Point","coordinates":[-51.899778,-23.410718]}},
{"type":"Feature","properties":{"name":"SP29","ponto":"P15","ensaio":"SPT","status":"FEITO"},"geometry":{"type":"Point","coordinates":[-51.899688,-23.410581]}},
{"type":"Feature","properties":{"name":"SP30","ponto":"P16","ensaio":"SPT","status":"FEITO"},"geometry":{"type":"Point","coordinates":[-51.899281,-23.39806]}},
{"type":"Feature","properties":{"name":"SP31","ponto":"P16","ensaio":"SPT","status":"FEITO"},"geometry":{"type":"Point","coordinates":[-51.899009,-23.398212]}},
{"type":"Feature","properties":{"name":"SP32","ponto":"P17","ensaio":"SPT","status":"FEITO"},"geometry":{"type":"Point","coordinates":[-51.93844,-23.448169]}},
{"type":"Feature","properties":{"name":"SP33","ponto":"P17","ensaio":"SPT","status":"FEITO"},"geometry":{"type":"Point","coordinates":[-51.938735,-23.448216]}},
{"type":"Feature","properties":{"name":"SP34","ponto":"P18","ensaio":"SPT","status":"FEITO"},"geometry":{"type":"Point","coordinates":[-51.930386,-23.374252]}},
{"type":"Feature","properties":{"name":"SP35","ponto":"P18","ensaio":"SPT","status":"FEITO"},"geometry":{"type":"Point","coordinates":[-51.930545,-23.37436]}},
{"type":"Feature","properties":{"name":"SP36","ponto":"P19","ensaio":"SPT","status":"FEITO"},"geometry":{"type":"Point","coordinates":[-51.929449,-23.373079]}},
{"type":"Feature","properties":{"name":"SP37","ponto":"P19","ensaio":"SPT","status":"FEITO"},"geometry":{"type":"Point","coordinates":[-51.929395,-23.373191]}},
{"type":"Feature","properties":{"name":"SP38","ponto":"P20","ensaio":"SPT","status":"FEITO"},"geometry":{"type":"Point","coordinates":[-51.965211,-23.408039]}},
{"type":"Feature","properties":{"name":"SP39","ponto":"P20","ensaio":"SPT","status":"FEITO"},"geometry":{"type":"Point","coordinates":[-51.965309,-23.408212]}},
{"type":"Feature","properties":{"name":"SP40","ponto":"P21","ensaio":"SPT","status":"FEITO"},"geometry":{"type":"Point","coordinates":[-51.945913,-23.441129]}},
{"type":"Feature","properties":{"name":"SP41","ponto":"P21","ensaio":"SPT","status":"FEITO"},"geometry":{"type":"Point","coordinates":[-51.94587,-23.441002]}},
{"type":"Feature","properties":{"name":"SP42","ponto":"P23","ensaio":"SPT","status":"FEITO"},"geometry":{"type":"Point","coordinates":[-51.995409,-23.412651]}},
{"type":"Feature","properties":{"name":"SP43","ponto":"P23","ensaio":"SPT","status":"FEITO"},"geometry":{"type":"Point","coordinates":[-51.995358,-23.412311]}},
{"type":"Feature","properties":{"name":"SP45","ponto":"P24","ensaio":"SPT","status":"FEITO"},"geometry":{"type":"Point","coordinates":[-51.948461,-23.404603]}},
{"type":"Feature","properties":{"name":"SP46","ponto":"P25","ensaio":"SPT","status":"FEITO"},"geometry":{"type":"Point","coordinates":[-51.971027,-23.454733]}},
{"type":"Feature","properties":{"name":"SP47","ponto":"P25","ensaio":"SPT","status":"FEITO"},"geometry":{"type":"Point","coordinates":[-51.970592,-23.455545]}},
{"type":"Feature","properties":{"name":"SP48","ponto":"P26","ensaio":"SPT","status":"FEITO"},"geometry":{"type":"Point","coordinates":[-51.924237,-23.434864]}},
{"type":"Feature","properties":{"name":"SP49","ponto":"P26","ensaio":"SPT","status":"FEITO"},"geometry":{"type":"Point","coordinates":[-51.924458,-23.435174]}}
]}
