{"type":"FeatureCollection","name":"subbacias","features":[
{"type":"Feature","properties":{"name":"Subbacia 1"},"geometry":{"type":"Polygon","coordinates":[[[-51.883624,-23.426599],[-51.877402,-23.416023],[-51.870524,-23.41505],[-51.864462,-23.415674],[-51.862144,-23.415321],[-51.858364,-23.412951],[-51.848867,-23.410387],[-51.846836,-23.409269],[-51.844497,-23.406078],[-51.841639,-23.406908],[-51.840109,-23.406327],[-51.8409,-23.40365],[-51.840496,-23.402387],[-51.842369,-23.399788],[-51.842311,-23.397876],[-51.842942,-23.396466],[-51.842533,-23.394415],[-51.843888,-23.391763],[-51.844407,-23.392013],[-51.846084,-23.389754],[-51.845339,-23.38762],[-51.842868,-23.387211],[-51.842805,-23.386761],[-51.841369,-23.386235],[-51.840783,-23.385113],[-51.840734,-23.384578],[-51.841491,-23.383871],[-51.844016,-23.38321],[-51.844829,-23.381574],[-51.844059,-23.380397],[-51.84253,-23.379477],[-51.842892,-23.378884],[-51.842554,-23.378408],[-51.843008,-23.378012],[-51.842518,-23.377564],[-51.841876,-23.374634],[-51.839483,-23.372433],[-51.839674,-23.371524],[-51.842553,-23.368763],[-51.843022,-23.367765],[-51.842414,-23.367582],[-51.843659,-23.366269],[-51.842625,-23.36564],[-51.843309,-23.365226],[-51.842618,-23.364558],[-51.842238,-23.361985],[-51.840251,-23.360951],[-51.839429,-23.358791],[-51.840385,-23.356547],[-51.843605,-23.354515],[-51.845505,-23.354504],[-51.847196,-23.353488],[-51.847163,-23.354757],[-51.848384,-23.355982],[-51.849394,-23.355976],[-51.850962,-23.354699],[-51.850336,-23.351605],[-51.846999,-23.348003],[-51.845052,-23.34682],[-51.844886,-23.346112],[-51.846652,-23.344311],[-51.845791,-23.342301],[-51.846314,-23.341925],[-51.845827,-23.341591],[-51.84635,-23.34129],[-51.84704,-23.341771],[-51.847151,-23.340092],[-51.848079,-23.339825],[-51.848034,-23.339154],[-51.848724,-23.339523],[-51.84886,-23.338058],[-51.850933,-23.337459],[-51.850717,-23.335258],[-51.849462,-23.333526],[-51.849259,-23.331945],[-51.848088,-23.331583],[-51.848053,-23.330326],[-51.846316,-23.329461],[-51.846149,-23.328716],[-51.849096,-23.327298],[-51.850636,-23.325398],[-51.852316,-23.32503],[-51.854581,-23.325813],[-51.857915,-23.328313],[-51.859296,-23.330446],[-51.856884,-23.336045],[-51.853937,-23.337853],[-51.850619,-23.337971],[-51.850081,-23.341813],[-51.853822,-23.348813],[-51.856299,-23.350031],[-51.857254,-23.351114],[-51.856415,-23.356647],[-51.856771,-23.358585],[-51.86294,-23.365912],[-51.863693,-23.368536],[-51.863517,-23.372926],[-51.864248,-23.37748],[-51.863415,-23.384647],[-51.864071,-23.387228],[-51.865331,-23.390018],[-51.876415,-23.404313],[-51.889007,-23.418063],[-51.891575,-23.423423],[-51.891922,-23.424994],[-51.884508,-23.428221],[-51.883624,-23.426599]]]}},
{"type":"Feature","properties":{"name":"Subbacia 2"},"geometry":{"type":"Polygon","coordinates":[[[-51.84635,-23.328416],[-51.84627,-23.327225],[-51.843938,-23.324769],[-51.843396,-23.323592],[-51.841442,-23.324563],[-51.839808,-23.324489],[-51.836208,-23.321135],[-51.836659,-23.31721],[-51.83991,-23.314697],[-51.842901,-23.311005],[-51.846637,-23.310162],[-51.847977,-23.310704],[-51.848218,-23.311306],[-51.847018,-23.314],[-51.846821,-23.315729],[-51.849916,-23.316782],[-51.853005,-23.316711],[-51.852968,-23.313282],[-51.855601,-23.307014],[-51.856516,-23.306186],[-51.860617,-23.304409],[-51.862295,-23.302123],[-51.863514,-23.302253],[-51.867004,-23.304757],[-51.868849,-23.305323],[-51.87095,-23.304242],[-51.871388,-23.303033],[-51.871231,-23.301744],[-51.869615,-23.297502],[-51.869438,-23.293087],[-51.868262,-23.290296],[-51.868222,-23.288733],[-51.869016,-23.287631],[-51.87035,-23.287322],[-51.872787,-23.287638],[-51.8741,-23.28859],[-51.873703,-23.291527],[-51.874747,-23.292207],[-51.877245,-23.292742],[-51.877998,-23.29666],[-51.879076,-23.298053],[-51.884965,-23.299501],[-51.892054,-23.304919],[-51.898697,-23.303701],[-51.899349,-23.303396],[-51.899403,-23.302655],[-51.89712,-23.300885],[-51.896208,-23.297846],[-51.901634,-23.294386],[-51.90736,-23.289334],[-51.90958,-23.288361],[-51.910421,-23.2897],[-51.911374,-23.290134],[-51.913789,-23.289351],[-51.915592,-23.288162],[-51.918914,-23.287648],[-51.921668,-23.286645],[-51.923746,-23.286578],[-51.925643,-23.283879],[-51.92578,-23.282342],[-51.925361,-23.281741],[-51.923696,-23.281422],[-51.923454,-23.280875],[-51.926924,-23.280278],[-51.929212,-23.280484],[-51.928724,-23.278731],[-51.932514,-23.277173],[-51.934432,-23.273322],[-51.935702,-23.272436],[-51.938343,-23.272311],[-51.940786,-23.273503],[-51.941201,-23.273309],[-51.943075,-23.269622],[-51.941707,-23.269301],[-51.941751,-23.267162],[-51.941211,-23.266397],[-51.939582,-23.266818],[-51.939223,-23.266518],[-51.938737,-23.264903],[-51.938937,-23.26386],[-51.944236,-23.263842],[-51.944557,-23.26338],[-51.943802,-23.262234],[-51.944075,-23.262071],[-51.945669,-23.262131],[-51.946426,-23.26353],[-51.949475,-23.263304],[-51.950358,-23.261435],[-51.949873,-23.259782],[-51.951418,-23.259933],[-51.952305,-23.258663],[-51.954922,-23.258877],[-51.956731,-23.257669],[-51.961917,-23.256855],[-51.963455,-23.256018],[-51.965505,-23.253889],[-51.965821,-23.254039],[-51.962965,-23.263944],[-51.959366,-23.273075],[-51.958792,-23.276962],[-51.959738,-23.283032],[-51.962203,-23.289168],[-51.965792,-23.295082],[-51.962039,-23.295263],[-51.959029,-23.294808],[-51.956677,-23.294078],[-51.952033,-23.290857],[-51.947772,-23.289732],[-51.942356,-23.284553],[-51.942047,-23.278733],[-51.940274,-23.276916],[-51.939767,-23.27325],[-51.936949,-23.27362],[-51.935993,-23.274603],[-51.934228,-23.278768],[-51.932809,-23.280489],[-51.930597,-23.28474],[-51.930493,-23.290925],[-51.929515,-23.295766],[-51.928875,-23.293817],[-51.9259,-23.290036],[-51.922027,-23.286987],[-51.917899,-23.28889],[-51.912131,-23.292535],[-51.909753,-23.299628],[-51.905954,-23.304923],[-51.901672,-23.30843],[-51.89886,-23.309313],[-51.897857,-23.310618],[-51.892462,-23.305085],[-51.889063,-23.308165],[-51.882581,-23.316521],[-51.87947,-23.325258],[-51.877613,-23.327263],[-51.877581,-23.330619],[-51.876993,-23.332476],[-51.871719,-23.337434],[-51.867077,-23.336427],[-51.864938,-23.332321],[-51.863506,-23.330967],[-51.861598,-23.330045],[-51.859296,-23.330446],[-51.857915,-23.328313],[-51.853284,-23.325284],[-51.850636,-23.325398],[-51.848415,-23.327788],[-51.84635,-23.328416]]]}},
{"type":"Feature","properties":{"name":"Subbacia 3"},"geometry":{"type":"Polygon","coordinates":[[[-52.044385,-23.539331],[-52.0437,-23.537854],[-52.043682,-23.535608],[-52.045399,-23.529861],[-52.047971,-23.527359],[-52.051119,-23.525665],[-52.054598,-23.524562],[-52.05825,-23.52448],[-52.06086,-23.522737],[-52.062598,-23.522916],[-52.073924,-23.529346],[-52.044964,-23.539981],[-52.044385,-23.539331]]]}},
{"type":"Feature","properties":{"name":"Subbacia 4"},"geometry":{"type":"Polygon","coordinates":[[[-52.070907,-23.527428],[-52.069231,-23.526974],[-52.062598,-23.522916],[-52.06086,-23.522737],[-52.05825,-23.52448],[-52.054598,-23.524562],[-52.054882,-23.519033],[-52.053523,-23.513778],[-52.051902,-23.513132],[-52.045539,-23.512845],[-52.044361,-23.509408],[-52.043154,-23.5084],[-52.04166,-23.507902],[-52.037553,-23.507733],[-52.03633,-23.507049],[-52.035519,-23.505404],[-52.032225,-23.502246],[-52.031494,-23.498718],[-52.030025,-23.495954],[-52.025454,-23.491253],[-52.024438,-23.488074],[-52.023694,-23.481591],[-52.022651,-23.477517],[-52.021355,-23.476384],[-52.015263,-23.475158],[-52.008061,-23.472914],[-52.0005,-23.468813],[-51.997635,-23.466495],[-51.99493,-23.463221],[-51.993699,-23.462871],[-51.991283,-23.451367],[-52.000934,-23.449496],[-52.017361,-23.450903],[-52.00474,-23.455908],[-52.010774,-23.457195],[-52.016988,-23.462654],[-52.023311,-23.46581],[-52.024737,-23.467049],[-52.029948,-23.468419],[-52.03311,-23.467306],[-52.037418,-23.46677],[-52.042603,-23.467594],[-52.044258,-23.468402],[-52.047327,-23.47154],[-52.057845,-23.475681],[-52.063266,-23.479544],[-52.066505,-23.48272],[-52.071132,-23.48495],[-52.072333,-23.487087],[-52.074764,-23.489644],[-52.07508,-23.491082],[-52.07617,-23.492022],[-52.076587,-23.493392],[-52.081726,-23.497974],[-52.084641,-23.502047],[-52.085774,-23.504885],[-52.087238,-23.506747],[-52.087954,-23.511559],[-52.085099,-23.514923],[-52.085283,-23.517543],[-52.087398,-23.518102],[-52.088745,-23.517319],[-52.089918,-23.518409],[-52.091754,-23.517872],[-52.092846,-23.518987],[-52.093686,-23.519106],[-52.093969,-23.520552],[-52.095213,-23.520468],[-52.096165,-23.520961],[-52.097724,-23.519677],[-52.100001,-23.519762],[-52.073924,-23.529346],[-52.070907,-23.527428]]]}},
{"type":"Feature","properties":{"name":"Subbacia 5"},"geometry":{"type":"Polygon","coordinates":[[[-52.048692,-23.378925],[-52.046288,-23.378099],[-52.044937,-23.376716],[-52.041292,-23.374833],[-52.038618,-23.375624],[-52.036013,-23.378219],[-52.032015,-23.381081],[-52.030189,-23.38331],[-52.029097,-23.386565],[-52.027761,-23.387192],[-52.012961,-23.387186],[-52.009962,-23.388223],[-52.003984,-23.38363],[-52.001984,-23.380781],[-52.000942,-23.376035],[-51.998942,-23.370979],[-51.994298,-23.36428],[-51.989852,-23.360833],[-51.991678,-23.35243],[-51.992017,-23.34602],[-51.995548,-23.341385],[-51.997471,-23.336425],[-51.999207,-23.32818],[-51.998506,-23.326789],[-51.992001,-23.323293],[-51.990083,-23.318595],[-51.988085,-23.316764],[-51.987166,-23.313813],[-51.982915,-23.311085],[-51.975082,-23.309209],[-51.971358,-23.305181],[-51.964696,-23.292996],[-51.963042,-23.290799],[-51.959738,-23.283032],[-51.958792,-23.276962],[-51.959366,-23.273075],[-51.962965,-23.263944],[-51.965323,-23.254699],[-51.965625,-23.254636],[-51.965476,-23.255173],[-51.967206,-23.254844],[-51.967802,-23.255723],[-51.968949,-23.254834],[-51.96893,-23.255275],[-51.970024,-23.255619],[-51.969682,-23.256278],[-51.971014,-23.257996],[-51.969734,-23.258303],[-51.969591,-23.259247],[-51.969144,-23.259434],[-51.969621,-23.25996],[-51.968689,-23.260706],[-51.969132,-23.261206],[-51.968938,-23.26192],[-51.96644,-23.264282],[-51.967558,-23.26561],[-51.967065,-23.26628],[-51.967391,-23.266692],[-51.966771,-23.267064],[-51.967024,-23.2675],[-51.965275,-23.270179],[-51.966072,-23.272015],[-51.966747,-23.272287],[-51.967132,-23.273872],[-51.968885,-23.275219],[-51.969282,-23.275032],[-51.96898,-23.274643],[-51.969973,-23.2742],[-51.972641,-23.274643],[-51.972445,-23.275013],[-51.973775,-23.276431],[-51.972834,-23.277242],[-51.972888,-23.277748],[-51.973548,-23.277721],[-51.973203,-23.278321],[-51.973925,-23.278271],[-51.974782,-23.279669],[-51.975908,-23.280352],[-51.976117,-23.281708],[-51.978138,-23.282133],[-51.97999,-23.283433],[-51.979077,-23.284658],[-51.978296,-23.283351],[-51.976855,-23.285546],[-51.977386,-23.286693],[-51.976892,-23.287202],[-51.977345,-23.287913],[-51.976902,-23.28856],[-51.977184,-23.291411],[-51.976374,-23.293049],[-51.977288,-23.295344],[-51.97885,-23.296186],[-51.982649,-23.294437],[-51.984078,-23.295785],[-51.986776,-23.296781],[-51.987284,-23.298112],[-51.988237,-23.299003],[-51.987771,-23.299995],[-51.988966,-23.301552],[-51.990036,-23.301523],[-51.990289,-23.301935],[-51.989623,-23.302883],[-51.990047,-23.302972],[-51.989656,-23.303987],[-51.990585,-23.305016],[-51.99091,-23.306814],[-51.992142,-23.308319],[-51.993584,-23.307988],[-51.994941,-23.30959],[-51.996712,-23.309878],[-51.997318,-23.311001],[-51.999643,-23.310342],[-52.001643,-23.311365],[-52.003105,-23.310343],[-52.006017,-23.310049],[-52.007702,-23.312085],[-52.008476,-23.312334],[-52.009086,-23.310696],[-52.010445,-23.314138],[-52.013621,-23.315798],[-52.015412,-23.315349],[-52.016285,-23.315596],[-52.017423,-23.314484],[-52.019052,-23.315716],[-52.02079,-23.315061],[-52.022115,-23.315627],[-52.022325,-23.317029],[-52.024803,-23.318532],[-52.025086,-23.319726],[-52.026314,-23.320877],[-52.027584,-23.321319],[-52.028678,-23.324236],[-52.032632,-23.325155],[-52.034907,-23.323295],[-52.036525,-23.324679],[-52.037988,-23.324805],[-52.039298,-23.324121],[-52.041055,-23.324514],[-52.043192,-23.32684],[-52.043742,-23.328636],[-52.045014,-23.329257],[-52.04616,-23.332579],[-52.046424,-23.335141],[-52.0481,-23.33765],[-52.049769,-23.339123],[-52.052646,-23.339464],[-52.056433,-23.337729],[-52.060805,-23.339139],[-52.062604,-23.338722],[-52.064749,-23.338887],[-52.066674,-23.341934],[-52.06683,-23.343147],[-52.069178,-23.344346],[-52.07157,-23.344914],[-52.072641,-23.344727],[-52.073965,-23.345753],[-52.076064,-23.346278],[-52.077404,-23.349284],[-52.078645,-23.35738],[-52.079454,-23.358808],[-52.082304,-23.361667],[-52.081391,-23.363293],[-52.078822,-23.364759],[-52.078172,-23.363706],[-52.075532,-23.361816],[-52.074079,-23.36162],[-52.070846,-23.362364],[-52.069346,-23.363302],[-52.067465,-23.365532],[-52.067254,-23.367028],[-52.064015,-23.374062],[-52.05716,-23.375809],[-52.051433,-23.378941],[-52.048692,-23.378925]]]}},
{"type":"Feature","properties":{"name":"Subbacia 6"},"geometry":{"type":"Polygon","coordinates":[[[-51.930493,-23.290925],[-51.930597,-23.28474],[-51.931857,-23.282064],[-51.934228,-23.278768],[-51.935993,-23.274603],[-51.936949,-23.27362],[-51.939767,-23.27325],[-51.940274,-23.276916],[-51.942047,-23.278733],[-51.942356,-23.284553],[-51.945613,-23.288077],[-51.947772,-23.289732],[-51.952033,-23.290857],[-51.956677,-23.294078],[-51.962039,-23.295263],[-51.965792,-23.295082],[-51.971358,-23.305181],[-51.975082,-23.309209],[-51.982915,-23.311085],[-51.987166,-23.313813],[-51.988085,-23.316764],[-51.990083,-23.318595],[-51.992001,-23.323293],[-51.998506,-23.326789],[-51.999207,-23.32818],[-51.997471,-23.336425],[-51.995548,-23.341385],[-51.992017,-23.34602],[-51.991678,-23.35243],[-51.989852,-23.360833],[-51.98471,-23.360266],[-51.981041,-23.357116],[-51.979345,-23.353789],[-51.971818,-23.344944],[-51.963177,-23.342742],[-51.957582,-23.33548],[-51.955955,-23.33267],[-51.954161,-23.331462],[-51.946416,-23.329625],[-51.944582,-23.328313],[-51.94211,-23.321772],[-51.941281,-23.318197],[-51.939472,-23.315025],[-51.932791,-23.310695],[-51.928612,-23.303983],[-51.928071,-23.301522],[-51.930493,-23.290925]]]}},
{"type":"Feature","properties":{"name":"Subbacia 7"},"geometry":{"type":"Polygon","coordinates":[[[-52.009397,-23.388601],[-52.003451,-23.392557],[-52.001068,-23.395099],[-51.999399,-23.395986],[-51.99427,-23.397307],[-51.988928,-23.39997],[-51.983103,-23.405369],[-51.982364,-23.411251],[-51.981818,-23.412852],[-51.980543,-23.414304],[-51.978487,-23.41576],[-51.969526,-23.42025],[-51.966152,-23.424859],[-51.96176,-23.427824],[-51.959195,-23.42851],[-51.957403,-23.428006],[-51.947288,-23.419716],[-51.939004,-23.417549],[-51.930641,-23.413714],[-51.928112,-23.413594],[-51.92504,-23.409705],[-51.927337,-23.39298],[-51.926204,-23.388214],[-51.922847,-23.384712],[-51.913625,-23.379687],[-51.908016,-23.374597],[-51.90473,-23.370288],[-51.899237,-23.365635],[-51.894896,-23.359088],[-51.894519,-23.357385],[-51.896248,-23.35408],[-51.905076,-23.345866],[-51.905106,-23.342612],[-51.902623,-23.338145],[-51.900761,-23.336471],[-51.899519,-23.334507],[-51.898279,-23.331399],[-51.899229,-23.317189],[-51.899166,-23.314781],[-51.897857,-23.310618],[-51.89886,-23.309313],[-51.901672,-23.30843],[-51.905954,-23.304923],[-51.909753,-23.299628],[-51.912131,-23.292535],[-51.917899,-23.28889],[-51.922027,-23.286987],[-51.9259,-23.290036],[-51.928875,-23.293817],[-51.929515,-23.295766],[-51.928071,-23.301522],[-51.928612,-23.303983],[-51.932791,-23.310695],[-51.939472,-23.315025],[-51.941281,-23.318197],[-51.94211,-23.321772],[-51.944582,-23.328313],[-51.946416,-23.329625],[-51.954161,-23.331462],[-51.955955,-23.33267],[-51.957582,-23.33548],[-51.963177,-23.342742],[-51.971818,-23.344944],[-51.979345,-23.353789],[-51.981041,-23.357116],[-51.98471,-23.360266],[-51.989852,-23.360833],[-51.994298,-23.36428],[-51.998942,-23.370979],[-52.000942,-23.376035],[-52.001984,-23.380781],[-52.003984,-23.38363],[-52.009962,-23.388223],[-52.009397,-23.388601]]]}},
{"type":"Feature","properties":{"name":"Subbacia 8"},"geometry":{"type":"Polygon","coordinates":[[[-51.89595,-23.354649],[-51.894519,-23.357385],[-51.893832,-23.35798],[-51.892666,-23.357976],[-51.885174,-23.355573],[-51.87927,-23.351958],[-51.875317,-23.349124],[-51.873623,-23.347355],[-51.872061,-23.341626],[-51.871792,-23.338509],[-51.871719,-23.337434],[-51.872774,-23.336199],[-51.876993,-23.332476],[-51.877581,-23.330619],[-51.877613,-23.327263],[-51.87947,-23.325258],[-51.882581,-23.316521],[-51.889063,-23.308165],[-51.892462,-23.305085],[-51.897857,-23.310618],[-51.899166,-23.314781],[-51.899248,-23.316938],[-51.898279,-23.331399],[-51.899519,-23.334507],[-51.900761,-23.336471],[-51.902623,-23.338145],[-51.905106,-23.342612],[-51.905076,-23.345866],[-51.89595,-23.354649]]]}},
{"type":"Feature","properties":{"name":"Subbacia 9"},"geometry":{"type":"Polygon","coordinates":[[[-51.894896,-23.359088],[-51.899237,-23.365635],[-51.90473,-23.370288],[-51.908016,-23.374597],[-51.913625,-23.379687],[-51.922847,-23.384712],[-51.926204,-23.388214],[-51.927337,-23.39298],[-51.92504,-23.409705],[-51.928112,-23.413594],[-51.925127,-23.414229],[-51.914736,-23.422281],[-51.909054,-23.424686],[-51.903973,-23.425179],[-51.895254,-23.424663],[-51.891922,-23.424994],[-51.889007,-23.418063],[-51.885499,-23.413814],[-51.878726,-23.407149],[-51.865331,-23.390018],[-51.863415,-23.384647],[-51.864248,-23.37748],[-51.863517,-23.372926],[-51.863693,-23.368536],[-51.86294,-23.365912],[-51.856771,-23.358585],[-51.856415,-23.356647],[-51.857254,-23.351114],[-51.856299,-23.350031],[-51.853822,-23.348813],[-51.850081,-23.341813],[-51.850619,-23.337971],[-51.853937,-23.337853],[-51.85618,-23.336519],[-51.857354,-23.33548],[-51.859259,-23.330453],[-51.862453,-23.33022],[-51.864938,-23.332321],[-51.867077,-23.336427],[-51.871719,-23.337434],[-51.872061,-23.341626],[-51.873149,-23.346101],[-51.873623,-23.347355],[-51.875317,-23.349124],[-51.885174,-23.355573],[-51.892666,-23.357976],[-51.893832,-23.35798],[-51.894519,-23.357385],[-51.894896,-23.359088]]]}},
{"type":"Feature","properties":{"name":"Subbacia 10"},"geometry":{"type":"Polygon","coordinates":[[[-51.960627,-23.430229],[-51.960916,-23.434924],[-51.960291,-23.438605],[-51.958069,-23.444411],[-51.956067,-23.446995],[-51.948264,-23.451465],[-51.944388,-23.461175],[-51.942583,-23.46798],[-51.940414,-23.470614],[-51.940447,-23.471958],[-51.937265,-23.473673],[-51.930521,-23.475729],[-51.930204,-23.475526],[-51.930488,-23.473177],[-51.927994,-23.470594],[-51.926267,-23.466664],[-51.923749,-23.463314],[-51.921201,-23.461552],[-51.917466,-23.460772],[-51.915082,-23.458258],[-51.911848,-23.448416],[-51.910221,-23.447008],[-51.907018,-23.442078],[-51.901841,-23.428069],[-51.89607,-23.425833],[-51.892,-23.425347],[-51.891922,-23.424994],[-51.895254,-23.424663],[-51.903973,-23.425179],[-51.909054,-23.424686],[-51.914736,-23.422281],[-51.925127,-23.414229],[-51.928083,-23.413593],[-51.930542,-23.413682],[-51.939004,-23.417549],[-51.947288,-23.419716],[-51.956225,-23.427291],[-51.959195,-23.42851],[-51.960424,-23.428182],[-51.960627,-23.430229]]]}},
{"type":"Feature","properties":{"name":"Subbacia 11"},"geometry":{"type":"Polygon","coordinates":[[[-52.072462,-23.361889],[-52.075532,-23.361816],[-52.078172,-23.363706],[-52.078822,-23.364759],[-52.072146,-23.368036],[-52.073866,-23.375853],[-52.075374,-23.378542],[-52.079362,-23.383463],[-52.080519,-23.387954],[-52.082651,-23.389379],[-52.086116,-23.38994],[-52.091108,-23.392425],[-52.092247,-23.394621],[-52.092554,-23.396374],[-52.094775,-23.399733],[-52.092498,-23.401413],[-52.088771,-23.401664],[-52.087417,-23.403023],[-52.082322,-23.405938],[-52.077643,-23.406015],[-52.075952,-23.407872],[-52.074849,-23.410129],[-52.069531,-23.412279],[-52.066087,-23.41009],[-52.06425,-23.408188],[-52.061503,-23.40298],[-52.06175,-23.391313],[-52.058548,-23.381883],[-52.056512,-23.379884],[-52.052744,-23.378477],[-52.05716,-23.375809],[-52.064015,-23.374062],[-52.067962,-23.364755],[-52.069346,-23.363302],[-52.072462,-23.361889]]]}},
{"type":"Feature","properties":{"name":"Subbacia 12"},"geometry":{"type":"Polygon","coordinates":[[[-52.044937,-23.376716],[-52.046288,-23.378099],[-52.047858,-23.378811],[-52.051433,-23.378941],[-52.052744,-23.378477],[-52.056512,-23.379884],[-52.058103,-23.381037],[-52.06175,-23.391313],[-52.061503,-23.40298],[-52.06425,-23.408188],[-52.066087,-23.41009],[-52.069531,-23.412279],[-52.065276,-23.413929],[-52.048475,-23.422456],[-52.047884,-23.424799],[-52.048326,-23.428834],[-52.046887,-23.43124],[-52.047098,-23.433353],[-52.046718,-23.43466],[-52.047213,-23.435602],[-52.046069,-23.43858],[-52.040997,-23.429095],[-52.032409,-23.423608],[-52.031047,-23.421657],[-52.029666,-23.403887],[-52.02795,-23.396251],[-52.028013,-23.390945],[-52.028636,-23.386782],[-52.029097,-23.386565],[-52.030189,-23.38331],[-52.031073,-23.382067],[-52.038618,-23.375624],[-52.041292,-23.374833],[-52.044937,-23.376716]]]}},
{"type":"Feature","properties":{"name":"Subbacia 13"},"geometry":{"type":"Polygon","coordinates":[[[-51.965832,-23.425045],[-51.969526,-23.42025],[-51.978487,-23.41576],[-51.980543,-23.414304],[-51.981818,-23.412852],[-51.982364,-23.411251],[-51.983103,-23.405369],[-51.988928,-23.39997],[-51.99427,-23.397307],[-51.999399,-23.395986],[-52.001068,-23.395099],[-52.003451,-23.392557],[-52.010564,-23.38782],[-52.012961,-23.387186],[-52.027761,-23.387192],[-52.028636,-23.386782],[-52.028013,-23.390947],[-52.02795,-23.396253],[-52.029666,-23.403889],[-52.031047,-23.421659],[-52.032409,-23.42361],[-52.040997,-23.429097],[-52.046069,-23.438582],[-52.045196,-23.439441],[-52.017361,-23.450904],[-52.000934,-23.449498],[-51.991283,-23.451369],[-51.984983,-23.44539],[-51.982241,-23.441057],[-51.979249,-23.434663],[-51.968624,-23.428205],[-51.965832,-23.425045]]]}},
{"type":"Feature","properties":{"name":"Subbacia 14"},"geometry":{"type":"Polygon","coordinates":[[[-52.012088,-23.551953],[-52.011272,-23.546904],[-52.008315,-23.541582],[-52.008642,-23.538569],[-52.00809,-23.537533],[-52.005546,-23.535255],[-52.004879,-23.524255],[-52.004002,-23.521429],[-52.004266,-23.51519],[-51.992808,-23.504087],[-51.991051,-23.501326],[-51.987325,-23.491576],[-51.986784,-23.488569],[-51.987215,-23.483834],[-51.986894,-23.482498],[-51.985528,-23.479926],[-51.984017,-23.47874],[-51.981804,-23.4755],[-51.986915,-23.471184],[-51.993699,-23.462871],[-51.99493,-23.463221],[-51.997635,-23.466495],[-52.0005,-23.468813],[-52.008061,-23.472914],[-52.015263,-23.475158],[-52.021355,-23.476384],[-52.022651,-23.477517],[-52.023694,-23.481591],[-52.024438,-23.488074],[-52.025454,-23.491253],[-52.030025,-23.495954],[-52.031494,-23.498718],[-52.032225,-23.502246],[-52.035519,-23.505404],[-52.03633,-23.507049],[-52.037553,-23.507733],[-52.04166,-23.507902],[-52.043154,-23.5084],[-52.044361,-23.509408],[-52.045539,-23.512845],[-52.051902,-23.513132],[-52.053523,-23.513778],[-52.054882,-23.519033],[-52.054598,-23.524562],[-52.051119,-23.525665],[-52.047971,-23.527359],[-52.045399,-23.529861],[-52.043682,-23.535608],[-52.0437,-23.537854],[-52.044964,-23.539981],[-52.012088,-23.551953]]]}},
{"type":"Feature","properties":{"name":"Subbacia 15"},"geometry":{"type":"Polygon","coordinates":[[[-51.966826,-23.42633],[-51.968624,-23.428203],[-51.979249,-23.434661],[-51.982241,-23.441057],[-51.984983,-23.44539],[-51.991283,-23.451369],[-51.993699,-23.462871],[-51.986915,-23.471199],[-51.983581,-23.474374],[-51.973697,-23.480203],[-51.971766,-23.481888],[-51.966826,-23.484009],[-51.96356,-23.484567],[-51.960399,-23.486439],[-51.951892,-23.486872],[-51.949099,-23.483707],[-51.944727,-23.480923],[-51.943425,-23.475655],[-51.940447,-23.471958],[-51.940414,-23.470614],[-51.942583,-23.46798],[-51.944388,-23.461175],[-51.948264,-23.451465],[-51.956067,-23.446995],[-51.958069,-23.444411],[-51.960291,-23.438605],[-51.960916,-23.434924],[-51.960424,-23.428182],[-51.96176,-23.427824],[-51.965832,-23.425045],[-51.966826,-23.42633]]]}},
{"type":"Feature","properties":{"name":"Subbacia 16"},"geometry":{"type":"Polygon","coordinates":[[[-51.960399,-23.486439],[-51.96356,-23.484567],[-51.969605,-23.483096],[-51.981804,-23.4755],[-51.984017,-23.47874],[-51.985528,-23.479926],[-51.987215,-23.483834],[-51.986784,-23.488569],[-51.987325,-23.491576],[-51.991051,-23.501326],[-51.992808,-23.504087],[-52.004266,-23.51519],[-52.004002,-23.521429],[-52.004879,-23.524255],[-52.005546,-23.535255],[-52.00809,-23.537533],[-52.008642,-23.538569],[-52.008315,-23.541582],[-52.011272,-23.546904],[-52.012107,-23.552038],[-51.998861,-23.556894],[-51.99732,-23.556271],[-51.996254,-23.558139],[-51.993911,-23.556806],[-51.993595,-23.556391],[-51.994142,-23.555135],[-51.994762,-23.554201],[-51.996357,-23.553227],[-51.996314,-23.552168],[-51.997455,-23.551134],[-51.997411,-23.549882],[-51.996641,-23.549406],[-51.996833,-23.54719],[-51.995103,-23.547175],[-51.992999,-23.54896],[-51.991933,-23.547914],[-51.990792,-23.54805],[-51.990561,-23.546998],[-51.989692,-23.546311],[-51.991042,-23.544325],[-51.990696,-23.542658],[-51.98983,-23.542355],[-51.989221,-23.542898],[-51.988307,-23.541646],[-51.986719,-23.541681],[-51.985582,-23.542331],[-51.985197,-23.539277],[-51.984049,-23.538514],[-51.984014,-23.537436],[-51.983125,-23.537826],[-51.98075,-23.536814],[-51.98124,-23.53337],[-51.980729,-23.532038],[-51.979274,-23.531174],[-51.979177,-23.529351],[-51.980608,-23.528931],[-51.981126,-23.527362],[-51.982041,-23.526816],[-51.981474,-23.52551],[-51.981687,-23.524251],[-51.980898,-23.522895],[-51.982014,-23.521372],[-51.981897,-23.520577],[-51.983279,-23.519207],[-51.980958,-23.517912],[-51.981424,-23.516856],[-51.980751,-23.516244],[-51.981137,-23.515728],[-51.980237,-23.514604],[-51.979058,-23.515202],[-51.977193,-23.515291],[-51.976668,-23.515833],[-51.976661,-23.518607],[-51.977283,-23.519964],[-51.976648,-23.52061],[-51.97617,-23.519997],[-51.974805,-23.520005],[-51.974048,-23.519291],[-51.970742,-23.520416],[-51.969905,-23.520241],[-51.969325,-23.51891],[-51.967922,-23.517583],[-51.967662,-23.516198],[-51.966593,-23.514766],[-51.967893,-23.513577],[-51.967284,-23.512091],[-51.967573,-23.50983],[-51.968089,-23.507926],[-51.969029,-23.506996],[-51.965985,-23.503984],[-51.961319,-23.505554],[-51.959949,-23.504895],[-51.959355,-23.503614],[-51.960734,-23.499857],[-51.960531,-23.498702],[-51.957208,-23.49541],[-51.955894,-23.494699],[-51.956187,-23.492899],[-51.955179,-23.492187],[-51.954923,-23.491315],[-51.953752,-23.491168],[-51.953031,-23.491609],[-51.95261,-23.491124],[-51.951892,-23.486872],[-51.960399,-23.486439]]]}},
{"type":"Feature","properties":{"name":"Subbacia 17"},"geometry":{"type":"Polygon","coordinates":[[[-51.933091,-23.479152],[-51.932847,-23.477997],[-51.930853,-23.4765],[-51.930521,-23.475729],[-51.937265,-23.473673],[-51.940447,-23.471958],[-51.943425,-23.475655],[-51.944727,-23.480923],[-51.949099,-23.483707],[-51.951541,-23.48662],[-51.948975,-23.484962],[-51.94821,-23.485031],[-51.944877,-23.48611],[-51.944468,-23.487397],[-51.943083,-23.488336],[-51.941726,-23.488473],[-51.940935,-23.487322],[-51.941743,-23.483465],[-51.941006,-23.482635],[-51.94024,-23.482607],[-51.940474,-23.481225],[-51.939246,-23.47982],[-51.937487,-23.479606],[-51.934221,-23.480268],[-51.933091,-23.479152]]]}},
{"type":"Feature","properties":{"name":"Subbacia 18"},"geometry":{"type":"Polygon","coordinates":[[[-51.886199,-23.431498],[-51.884508,-23.428221],[-51.891922,-23.424994],[-51.892,-23.425347],[-51.89607,-23.425833],[-51.901841,-23.428069],[-51.907018,-23.442078],[-51.910221,-23.447008],[-51.911848,-23.448416],[-51.915082,-23.458258],[-51.917466,-23.460772],[-51.921201,-23.461552],[-51.923749,-23.463314],[-51.926267,-23.466664],[-51.927994,-23.470594],[-51.930488,-23.473177],[-51.930204,-23.475526],[-51.927749,-23.475459],[-51.924821,-23.477338],[-51.923879,-23.476927],[-51.922805,-23.477639],[-51.918149,-23.478726],[-51.916059,-23.478417],[-51.914564,-23.478715],[-51.912099,-23.476996],[-51.909285,-23.477687],[-51.905448,-23.476425],[-51.9039,-23.473898],[-51.904357,-23.469765],[-51.905876,-23.464457],[-51.904879,-23.45935],[-51.903929,-23.457719],[-51.901313,-23.456544],[-51.895848,-23.451313],[-51.894416,-23.446598],[-51.889281,-23.440778],[-51.887625,-23.440096],[-51.886794,-23.437208],[-51.886199,-23.431498]]]}}
]}
